{"type":"FeatureCollection","features":[{"type":"Feature","properties":{"PROCESSO":"848449/2023","NUMERO":848449,"ANO":2023,"AREA_HA":129.49,"ID":"{4C5274A8-BC34-4F9B-8013-C3941D249891}","FASE":"AUTORIZAÇÃO DE PESQUISA","ULT_EVENTO":"264 - AUT PESQ/TAH - PAGAMENTO EFETUADO EM 30/07/2026","NOME":"VITORIA WALERIA FERREIRA DE SOUZA","SUBS":"MINÉRIO DE TUNGSTÊNIO","USO":"Industrial","UF":"RN","DSProcesso":"848.449/2023","Bloco":null,"layer":"processo_50km","path":"C:\\Users\\UsrMina07\\Desktop\\GILMAR\\Projeto Bonfim\\05. Arquivos Gis\\07. Temporários\\processo_50km.shp|subset=\"SUBS\" IN (\r\n    'MINÉRIO DE TUNGSTÊNIO',\r\n    'TUNGSTÊNIO',\r\n    'SCHEELITA'\r\n)","ORDEM":71,"LATITUDE":-5.97481667,"LONGITUDE":-36.4172625},"geometry":{"type":"MultiPolygon","coordinates":[[[[-36.413969814999916,-5.967861110999934,0.0],[-36.41397,-5.96822,0.0],[-36.41139722199995,-5.968219814999941,0.0],[-36.41139722199995,-5.977847221999923,0.0],[-36.42312777799992,-5.977847221999923,0.0],[-36.42312777799992,-5.967861110999934,0.0],[-36.42100555499991,-5.967861110999934,0.0],[-36.42100555499991,-5.968230555999924,0.0],[-36.422475,-5.968230555999924,0.0],[-36.422475,-5.971786110999915,0.0],[-36.41953333299995,-5.971786110999915,0.0],[-36.41953333299995,-5.968230555999924,0.0],[-36.421002777999945,-5.968230555999924,0.0],[-36.421002777999945,-5.967861110999934,0.0],[-36.41397222199993,-5.967861110999934,0.0],[-36.413969814999916,-5.967861110999934,0.0]]]]}}]}