{"type":"FeatureCollection","features":[{"type":"Feature","properties":{"PROCESSO":"848193/2005","NUMERO":848193,"ANO":2005,"AREA_HA":134.7,"ID":"{2BF2FBB0-4AFD-4684-A16E-16ABE90344CB}","FASE":"REQUERIMENTO DE LAVRA","ULT_EVENTO":"365 - REQ LAV/CUMPRIMENTO EXIGÊNCIA PROTOC EM 02/12/2020","NOME":"Mineração Palestina S.A.","SUBS":"SCHEELITA","USO":"Metalurgia","UF":"RN","DSProcesso":"848.193/2005","Bloco":null,"layer":"processo_50km","path":"C:\\Users\\UsrMina07\\Desktop\\GILMAR\\Projeto Bonfim\\05. Arquivos Gis\\07. Temporários\\processo_50km.shp|subset=\"SUBS\" IN (\r\n    'MINÉRIO DE TUNGSTÊNIO',\r\n    'TUNGSTÊNIO',\r\n    'SCHEELITA'\r\n)","ORDEM":19,"LATITUDE":-5.76314497,"LONGITUDE":-36.11891833},"geometry":{"type":"MultiPolygon","coordinates":[[[[-36.11720651299993,-5.771138783999959,0.0],[-36.11720651599995,-5.775024648999931,0.0],[-36.121799611999904,-5.775024646999952,0.0],[-36.12179959999992,-5.755151151999939,0.0],[-36.11603704899994,-5.755151154999908,0.0],[-36.116037057999904,-5.771138783999959,0.0],[-36.11720651299993,-5.771138783999959,0.0]]]]}}]}