{"type":"FeatureCollection","features":[{"type":"Feature","properties":{"PROCESSO":"848374/2012","NUMERO":848374,"ANO":2012,"AREA_HA":999.58,"ID":"{6BB813A2-9B87-458C-9614-F7DC1D6294D7}","FASE":"DIREITO DE REQUERER A LAVRA","ULT_EVENTO":"2210 - DIR REQ LAV/PRORROGAÇÃO PRAZO REQUERIMENTO LAVRA PROTOC EM 23/03/2026","NOME":"MINERADORA NOSSO SENHOR DO BONFIM LTDA","SUBS":"ILMENITA","USO":"Industrial","UF":"RN","DSProcesso":"848.374/2012","Bloco":"Bloco Bonfim","layer":"bloco_bonfim","path":"C:\\Users\\UsrMina07\\Desktop\\GILMAR\\Projeto Bonfim\\05. Arquivos Gis\\07. Temporários\\bloco_bonfim.shp","ORDEM":14,"LATITUDE":-5.74554444,"LONGITUDE":-36.11419444},"geometry":{"type":"MultiPolygon","coordinates":[[[[-36.111,-5.723170832999926,0.0],[-36.111,-5.7335,0.0],[-36.12235,-5.7335,0.0],[-36.12235,-5.73675,0.0],[-36.11775,-5.73675,0.0],[-36.11775,-5.745,0.0],[-36.10885,-5.745,0.0],[-36.10885,-5.7377,0.0],[-36.100188888999924,-5.7377,0.0],[-36.100188888999924,-5.7502,0.0],[-36.10575,-5.7502,0.0],[-36.10575,-5.7803,0.0],[-36.10019027799996,-5.7803,0.0],[-36.10019027799996,-5.783040555999946,0.0],[-36.10018,-5.783040555999946,0.0],[-36.10018,-5.798693055999934,0.0],[-36.10316055599992,-5.798693055999934,0.0],[-36.10316055599992,-5.798692221999943,0.0],[-36.10697611099994,-5.798692221999943,0.0],[-36.10697611099994,-5.794546110999931,0.0],[-36.10701194399991,-5.794546110999931,0.0],[-36.10701194399991,-5.79324472199994,0.0],[-36.10648,-5.79324472199994,0.0],[-36.10648,-5.788394721999907,0.0],[-36.106997221999904,-5.788394721999907,0.0],[-36.106997221999904,-5.775027221999949,0.0],[-36.1065463889999,-5.775027221999949,0.0],[-36.1065463889999,-5.746088888999907,0.0],[-36.12187166699994,-5.746088888999907,0.0],[-36.12187166699994,-5.746093888999951,0.0],[-36.12543,-5.746093888999951,0.0],[-36.12543,-5.746098055999937,0.0],[-36.12550694399994,-5.746098055999937,0.0],[-36.12550694399994,-5.747658888999922,0.0],[-36.1282,-5.747658888999922,0.0],[-36.1282,-5.7228,0.0],[-36.1257,-5.7228,0.0],[-36.1257,-5.7113,0.0],[-36.12755,-5.7113,0.0],[-36.12755,-5.7043,0.0],[-36.12555,-5.7043,0.0],[-36.12555,-5.6954,0.0],[-36.12935,-5.6954,0.0],[-36.12935,-5.6976,0.0],[-36.128,-5.6976,0.0],[-36.128,-5.70435,0.0],[-36.1294,-5.70435,0.0],[-36.1294,-5.71,0.0],[-36.13095,-5.71,0.0],[-36.13095,-5.7115,0.0],[-36.13169722199996,-5.7115,0.0],[-36.13169722199996,-5.692620277999936,0.0],[-36.1217,-5.692620277999936,0.0],[-36.1217,-5.71235,0.0],[-36.11576,-5.71235,0.0],[-36.11576,-5.72314416699993,0.0],[-36.115442221999956,-5.72314416699993,0.0],[-36.115442221999956,-5.723170832999926,0.0],[-36.111,-5.723170832999926,0.0]]]]}}]}