{"type":"FeatureCollection","features":[{"type":"Feature","properties":{"PROCESSO":"848303/2024","NUMERO":848303,"ANO":2024,"AREA_HA":19.7,"ID":"{BE85753F-DA7C-41C9-B9BB-EE26066E1000}","FASE":"AUTORIZAÇÃO DE PESQUISA","ULT_EVENTO":"264 - AUT PESQ/TAH - PAGAMENTO EFETUADO EM 22/07/2026","NOME":"PROSPER MINERACAO S.A.","SUBS":"SCHEELITA","USO":"Industrial","UF":"RN","DSProcesso":"848.303/2024","Bloco":null,"layer":"processo_50km","path":"C:\\Users\\UsrMina07\\Desktop\\GILMAR\\Projeto Bonfim\\05. Arquivos Gis\\07. Temporários\\processo_50km.shp|subset=\"SUBS\" IN (\r\n    'MINÉRIO DE TUNGSTÊNIO',\r\n    'TUNGSTÊNIO',\r\n    'SCHEELITA'\r\n)","ORDEM":78,"LATITUDE":-5.99479431,"LONGITUDE":-36.40627549},"geometry":{"type":"MultiPolygon","coordinates":[[[[-36.40455607399991,-5.992403633999913,0.0],[-36.40455588899994,-5.997159044999933,0.0],[-36.41149055599993,-5.997158517999935,0.0],[-36.411490604999926,-5.997157427999923,0.0],[-36.411489443999926,-5.997157499999958,0.0],[-36.41148947599993,-5.997156618999952,0.0],[-36.41148749999991,-5.997156666999956,0.0],[-36.41148758399993,-5.997155432999932,0.0],[-36.41148638899995,-5.997155555999939,0.0],[-36.41148645599992,-5.997154622999915,0.0],[-36.411484721999955,-5.997154721999948,0.0],[-36.41148479699996,-5.997153500999957,0.0],[-36.41148305599995,-5.997153610999931,0.0],[-36.41148313799994,-5.997152379999932,0.0],[-36.411481943999945,-5.997152499999913,0.0],[-36.41148200899994,-5.997151570999961,0.0],[-36.4114805559999,-5.997151666999912,0.0],[-36.411480583999946,-5.997150513999941,0.0],[-36.41147861099995,-5.997150555999951,0.0],[-36.41147869099996,-5.997149326999931,0.0],[-36.41147694399996,-5.997149443999945,0.0],[-36.41147708099993,-5.997148398999911,0.0],[-36.411475555999914,-5.997148610999943,0.0],[-36.411475656999926,-5.997147352999946,0.0],[-36.41147416699994,-5.997147499999926,0.0],[-36.41147424499991,-5.99714627499992,0.0],[-36.411472499999945,-5.997146388999909,0.0],[-36.411472584999956,-5.997145152999906,0.0],[-36.41147111099991,-5.997145277999948,0.0],[-36.411471158999916,-5.997144095999943,0.0],[-36.41146944399992,-5.997144166999931,0.0],[-36.41146949999995,-5.997142973999928,0.0],[-36.41146777799992,-5.997143055999913,0.0],[-36.41146784099993,-5.997141851999913,0.0],[-36.411466110999925,-5.997141943999907,0.0],[-36.41146618099992,-5.997140729999956,0.0],[-36.41146361099993,-5.997140832999946,0.0],[-36.41146369199993,-5.997139047999951,0.0],[-36.41146166699991,-5.997139166999943,0.0],[-36.411461783999926,-5.997137882999937,0.0],[-36.411460277999936,-5.997138055999926,0.0],[-36.411460373999944,-5.997136803999922,0.0],[-36.411458610999944,-5.997136943999919,0.0],[-36.41145864999993,-5.99713549899991,0.0],[-36.41145638899991,-5.997135555999932,0.0],[-36.41145652999995,-5.99713423299994,0.0],[-36.41145444399996,-5.997134443999926,0.0],[-36.411454557999946,-5.997132885999918,0.0],[-36.41145222199992,-5.997133055999939,0.0],[-36.4114523099999,-5.997131259999946,0.0],[-36.41145,-5.997131388999946,0.0],[-36.41145009899992,-5.997129854999912,0.0],[-36.41144777799991,-5.99713,0.0],[-36.41144791699992,-5.997128407999924,0.0],[-36.4114458329999,-5.997128610999937,0.0],[-36.41144595299994,-5.997127045999946,0.0],[-36.41144333299991,-5.997127221999961,0.0],[-36.41144346599992,-5.997125360999917,0.0],[-36.41144111099993,-5.997125555999958,0.0],[-36.41144119799992,-5.997123761999944,0.0],[-36.41143916699991,-5.997123888999909,0.0],[-36.411439268999914,-5.997122349999927,0.0],[-36.41143666699992,-5.997122499999932,0.0],[-36.41143675799992,-5.997120701999961,0.0],[-36.41143444399995,-5.99712083299994,0.0],[-36.41143452399996,-5.997119049999924,0.0],[-36.41143166699993,-5.997119166999937,0.0],[-36.411431784999934,-5.99711732499992,0.0],[-36.41142944399991,-5.997117499999945,0.0],[-36.41142954599991,-5.997115683999937,0.0],[-36.41142722199993,-5.997115832999953,0.0],[-36.41142729099994,-5.997114065999938,0.0],[-36.411425,-5.99711416699995,0.0],[-36.41142509999992,-5.997112631999926,0.0],[-36.41142277799992,-5.997112777999916,0.0],[-36.41142284399996,-5.997111013999927,0.0],[-36.41142027799992,-5.997111110999924,0.0],[-36.411420354999905,-5.997109330999933,0.0],[-36.411417221999955,-5.997109443999932,0.0],[-36.41141731099992,-5.997107368999934,0.0],[-36.411414443999945,-5.997107499999913,0.0],[-36.411414546999936,-5.997105404999957,0.0],[-36.41141111099995,-5.997105555999951,0.0],[-36.41141120599991,-5.997103195999955,0.0],[-36.411408055999914,-5.997103332999927,0.0],[-36.41140820299995,-5.997101175999944,0.0],[-36.411405277999904,-5.997101388999909,0.0],[-36.41140535699992,-5.997099051999953,0.0],[-36.411402221999936,-5.997099166999931,0.0],[-36.41140227099993,-5.997096871999929,0.0],[-36.411399166999956,-5.997096943999907,0.0],[-36.41139925099992,-5.997094876999938,0.0],[-36.411396666999906,-5.997095,0.0],[-36.411396761999924,-5.997093193999945,0.0],[-36.41139361099994,-5.997093332999953,0.0],[-36.411393723999936,-5.997091225999952,0.0],[-36.41139111099994,-5.997091388999934,0.0],[-36.41139123999994,-5.99708953499993,0.0],[-36.41138861099995,-5.997089721999942,0.0],[-36.41138869799994,-5.997087649999912,0.0],[-36.411386110999956,-5.997087777999923,0.0],[-36.41138614399995,-5.997085783999921,0.0],[-36.411383610999906,-5.997085832999915,0.0],[-36.41138365499995,-5.997084101999917,0.0],[-36.41138111099991,-5.997084166999912,0.0],[-36.41138121599994,-5.997082617999922,0.0],[-36.41137916699995,-5.997082777999935,0.0],[-36.411379273999955,-5.997081231999914,0.0],[-36.41137749999996,-5.997081388999959,0.0],[-36.41137754999994,-5.997079926999959,0.0],[-36.41137555599994,-5.99708,0.0],[-36.41137565699995,-5.997078740999939,0.0],[-36.411373055999945,-5.997078888999908,0.0],[-36.41137313799993,-5.997077101999935,0.0],[-36.411365832999934,-5.997077221999916,0.0],[-36.411365832999934,-5.997072777999961,0.0],[-36.41135138899995,-5.997072777999961,0.0],[-36.41135138899995,-5.99706361099993,0.0],[-36.41133888899992,-5.99706361099993,0.0],[-36.41133888899992,-5.997055,0.0],[-36.41132194399995,-5.997055,0.0],[-36.41132194399995,-5.997043610999924,0.0],[-36.41130249999992,-5.997043610999924,0.0],[-36.41130249999992,-5.99703083299994,0.0],[-36.41128083299992,-5.99703083299994,0.0],[-36.41128083299992,-5.997015277999935,0.0],[-36.41124666699994,-5.997015277999935,0.0],[-36.41124666699994,-5.996994443999938,0.0],[-36.411221388999934,-5.996994443999938,0.0],[-36.411221388999934,-5.996977221999941,0.0],[-36.41119805599993,-5.996977221999941,0.0],[-36.41119805599993,-5.996958610999911,0.0],[-36.411161388999915,-5.996958610999911,0.0],[-36.411161388999915,-5.996936388999927,0.0],[-36.41112027799994,-5.996936388999927,0.0],[-36.41112027799994,-5.996909166999956,0.0],[-36.41106722199993,-5.996909166999956,0.0],[-36.41106722199993,-5.996872499999938,0.0],[-36.41100583299993,-5.996872499999938,0.0],[-36.41100583299993,-5.996831110999949,0.0],[-36.41091249999994,-5.996831110999949,0.0],[-36.41091249999994,-5.99677,0.0],[-36.4108522219999,-5.99677,0.0],[-36.4108522219999,-5.996725832999914,0.0],[-36.41077166699995,-5.996725832999914,0.0],[-36.41077166699995,-5.996670555999913,0.0],[-36.41071361099995,-5.996670555999913,0.0],[-36.41071361099995,-5.996631666999917,0.0],[-36.41063222199995,-5.996631666999917,0.0],[-36.41063222199995,-5.99658,0.0],[-36.410544166999955,-5.99658,0.0],[-36.410544166999955,-5.996521666999911,0.0],[-36.41043055599994,-5.996521666999911,0.0],[-36.41043055599994,-5.99644,0.0],[-36.41031972199994,-5.99644,0.0],[-36.41031972199994,-5.996370555999931,0.0],[-36.410195555999906,-5.996370555999931,0.0],[-36.410195555999906,-5.996281110999917,0.0],[-36.410017499999924,-5.996281110999917,0.0],[-36.410017499999924,-5.996176388999913,0.0],[-36.40984722199994,-5.996176388999913,0.0],[-36.40984722199994,-5.996053610999923,0.0],[-36.40968222199996,-5.996053610999923,0.0],[-36.40968222199996,-5.995948332999944,0.0],[-36.40950916699995,-5.995948332999944,0.0],[-36.40950916699995,-5.995820555999956,0.0],[-36.409235,-5.995820555999956,0.0],[-36.409235,-5.995632221999927,0.0],[-36.40890194399992,-5.995632221999927,0.0],[-36.40890194399992,-5.99542277799992,0.0],[-36.408557221999956,-5.99542277799992,0.0],[-36.408557221999956,-5.99517527799992,0.0],[-36.408421388999955,-5.99517527799992,0.0],[-36.408421388999955,-5.995077499999923,0.0],[-36.40823083299995,-5.995077499999923,0.0],[-36.40823083299995,-5.994946388999949,0.0],[-36.408152221999956,-5.994946388999949,0.0],[-36.408152221999956,-5.994890277999957,0.0],[-36.40807361099991,-5.994890277999957,0.0],[-36.40807361099991,-5.994821943999909,0.0],[-36.407995,-5.994821943999909,0.0],[-36.407995,-5.994766666999908,0.0],[-36.40792222199991,-5.994766666999908,0.0],[-36.40792222199991,-5.994718610999939,0.0],[-36.40785,-5.994718610999939,0.0],[-36.40785,-5.994667221999919,0.0],[-36.407753888999935,-5.994667221999919,0.0],[-36.407753888999935,-5.994601943999953,0.0],[-36.40767805599995,-5.994601943999953,0.0],[-36.40767805599995,-5.994547221999937,0.0],[-36.40760916699992,-5.994547221999937,0.0],[-36.40760916699992,-5.9945,0.0],[-36.40756333299993,-5.9945,0.0],[-36.40756333299993,-5.994467777999944,0.0],[-36.407487777999904,-5.994467777999944,0.0],[-36.407487777999904,-5.994416943999909,0.0],[-36.407451943999945,-5.994416943999909,0.0],[-36.407451943999945,-5.994391943999915,0.0],[-36.40740472199991,-5.994391943999915,0.0],[-36.40740472199991,-5.994360832999917,0.0],[-36.40735694399996,-5.994360832999917,0.0],[-36.40735694399996,-5.994326110999907,0.0],[-36.407320832999915,-5.994326110999907,0.0],[-36.407320832999915,-5.994303055999922,0.0],[-36.40729555599995,-5.994303055999922,0.0],[-36.40729555599995,-5.99428916699992,0.0],[-36.40725805599993,-5.99428916699992,0.0],[-36.40725805599993,-5.99426,0.0],[-36.40722527799994,-5.99426,0.0],[-36.40722527799994,-5.994239443999959,0.0],[-36.40718388899995,-5.994239443999959,0.0],[-36.40718388899995,-5.994209166999951,0.0],[-36.407163888999946,-5.994209166999951,0.0],[-36.407163888999946,-5.994194721999918,0.0],[-36.40714111099993,-5.994194721999918,0.0],[-36.40714111099993,-5.994178332999923,0.0],[-36.40713194399996,-5.994178332999923,0.0],[-36.40713194399996,-5.994170277999956,0.0],[-36.40712,-5.994170277999956,0.0],[-36.40712,-5.994161943999927,0.0],[-36.40710638899992,-5.994161943999927,0.0],[-36.40710638899992,-5.994152777999943,0.0],[-36.40709055599996,-5.994152777999943,0.0],[-36.40709055599996,-5.994142499999953,0.0],[-36.407073055999945,-5.994142499999953,0.0],[-36.407073055999945,-5.994130277999943,0.0],[-36.40705249999991,-5.994130277999943,0.0],[-36.40705249999991,-5.994116388999942,0.0],[-36.40703222199994,-5.994116388999942,0.0],[-36.40703222199994,-5.99410249999994,0.0],[-36.40693138899991,-5.99410249999994,0.0],[-36.40693138899991,-5.99403888899991,0.0],[-36.40678361099992,-5.99403888899991,0.0],[-36.40678361099992,-5.993941943999914,0.0],[-36.406591110999955,-5.993941943999914,0.0],[-36.406591110999955,-5.993811666999932,0.0],[-36.406415555999956,-5.993811666999932,0.0],[-36.406415555999956,-5.993689166999957,0.0],[-36.40631222199994,-5.993689166999957,0.0],[-36.40631222199994,-5.993626943999914,0.0],[-36.406222499999956,-5.993626943999914,0.0],[-36.406222499999956,-5.993568610999944,0.0],[-36.40612805599994,-5.993568610999944,0.0],[-36.40612805599994,-5.993497221999917,0.0],[-36.40603833299991,-5.993497221999917,0.0],[-36.40603833299991,-5.993437221999955,0.0],[-36.405895555999905,-5.993437221999955,0.0],[-36.405895555999905,-5.993347221999954,0.0],[-36.405731388999925,-5.993347221999954,0.0],[-36.405731388999925,-5.993230277999942,0.0],[-36.4056,-5.993230277999942,0.0],[-36.4056,-5.993138888999908,0.0],[-36.40553666699992,-5.993138888999908,0.0],[-36.40553666699992,-5.99308527799991,0.0],[-36.405480832999956,-5.99308527799991,0.0],[-36.405480832999956,-5.993047499999932,0.0],[-36.405432499999904,-5.993047499999932,0.0],[-36.405432499999904,-5.993013332999908,0.0],[-36.40536305599994,-5.993013332999908,0.0],[-36.40536305599994,-5.992970277999916,0.0],[-36.40530305599992,-5.992970277999916,0.0],[-36.40530305599992,-5.992926110999917,0.0],[-36.405256110999915,-5.992926110999917,0.0],[-36.405256110999915,-5.992891110999949,0.0],[-36.40518611099992,-5.992891110999949,0.0],[-36.40518611099992,-5.992843055999913,0.0],[-36.40513944399993,-5.992843055999913,0.0],[-36.40513944399993,-5.992810277999922,0.0],[-36.40506249999993,-5.992810277999922,0.0],[-36.40506249999993,-5.992763332999914,0.0],[-36.40498,-5.992763332999914,0.0],[-36.40498,-5.992705,0.0],[-36.404912777999925,-5.992705,0.0],[-36.404912777999925,-5.992654166999955,0.0],[-36.40488166699993,-5.992654166999955,0.0],[-36.40488166699993,-5.992631110999923,0.0],[-36.40484555599994,-5.992631110999923,0.0],[-36.40484555599994,-5.992608055999938,0.0],[-36.40482972199993,-5.992608055999938,0.0],[-36.40482972199993,-5.992596110999955,0.0],[-36.4048111109999,-5.992596110999955,0.0],[-36.4048111109999,-5.992581943999937,0.0],[-36.404793888999905,-5.992581943999937,0.0],[-36.404793888999905,-5.99257,0.0],[-36.404785277999906,-5.99257,0.0],[-36.404785277999906,-5.992562777999922,0.0],[-36.40477166699992,-5.992562777999922,0.0],[-36.40477166699992,-5.992553610999948,0.0],[-36.404761110999914,-5.992553610999948,0.0],[-36.404761110999914,-5.992546388999926,0.0],[-36.40474944399995,-5.992546388999926,0.0],[-36.40474944399995,-5.992538888999945,0.0],[-36.404739166999946,-5.992538888999945,0.0],[-36.404739166999946,-5.992531110999948,0.0],[-36.40473111099993,-5.992531110999948,0.0],[-36.40473111099993,-5.992524443999912,0.0],[-36.40472222199992,-5.992524443999912,0.0],[-36.40472222199992,-5.992518888999939,0.0],[-36.404716110999914,-5.992518888999939,0.0],[-36.404716110999914,-5.992514166999911,0.0],[-36.40470861099993,-5.992514166999911,0.0],[-36.40470861099993,-5.992508888999907,0.0],[-36.404700832999936,-5.992508888999907,0.0],[-36.40470097399992,-5.992503126999907,0.0],[-36.404693332999955,-5.992503332999945,0.0],[-36.404693332999955,-5.992498610999917,0.0],[-36.40468555599995,-5.992498610999917,0.0],[-36.40468555599995,-5.992493055999944,0.0],[-36.40467972199991,-5.992493055999944,0.0],[-36.40467972199991,-5.992489443999943,0.0],[-36.404671943999915,-5.992489443999943,0.0],[-36.40467209199994,-5.992483395999955,0.0],[-36.40466694399993,-5.992483610999955,0.0],[-36.40466694399993,-5.99248027799996,0.0],[-36.404658888999904,-5.99248027799996,0.0],[-36.404658888999904,-5.992475,0.0],[-36.404652221999925,-5.992475,0.0],[-36.404652221999925,-5.992470555999944,0.0],[-36.40464722199994,-5.992470555999944,0.0],[-36.40464722199994,-5.992466666999917,0.0],[-36.40464,-5.992466666999917,0.0],[-36.40464,-5.992461943999956,0.0],[-36.404630277999956,-5.992461943999956,0.0],[-36.404630277999956,-5.992455277999909,0.0],[-36.404626110999914,-5.992455277999909,0.0],[-36.404626110999914,-5.992452777999915,0.0],[-36.40462083299991,-5.992452777999915,0.0],[-36.40462083299991,-5.992448610999929,0.0],[-36.404617221999956,-5.992448610999929,0.0],[-36.404617221999956,-5.992446388999952,0.0],[-36.40461416699992,-5.992446388999952,0.0],[-36.40461423399995,-5.992443511999909,0.0],[-36.40460972199992,-5.992443610999942,0.0],[-36.40460972199992,-5.992441110999948,0.0],[-36.40460555599992,-5.992441110999948,0.0],[-36.40460570099992,-5.992437842999948,0.0],[-36.40460249999995,-5.992438055999912,0.0],[-36.404602602999944,-5.99243568199995,0.0],[-36.40459805599994,-5.992435832999945,0.0],[-36.40459815299994,-5.992432635999933,0.0],[-36.404594166999914,-5.992432777999909,0.0],[-36.404594311999915,-5.992430064999951,0.0],[-36.404591110999945,-5.992430277999915,0.0],[-36.404591213999936,-5.992427904999943,0.0],[-36.404588332999936,-5.992428055999937,0.0],[-36.404588332999936,-5.992426388999945,0.0],[-36.40458638899992,-5.992426388999945,0.0],[-36.40458649199991,-5.992424570999958,0.0],[-36.40458388899992,-5.992424721999953,0.0],[-36.404583981999906,-5.992422922999936,0.0],[-36.404581666999945,-5.99242305599995,0.0],[-36.40458174799994,-5.992421270999955,0.0],[-36.40457861099992,-5.992421388999958,0.0],[-36.40457871199993,-5.992419295999923,0.0],[-36.40457722199994,-5.99241944399995,0.0],[-36.404577300999904,-5.992418217999955,0.0],[-36.40457555599994,-5.992418332999932,0.0],[-36.40457564199994,-5.99241709599994,0.0],[-36.40457361099993,-5.992417221999915,0.0],[-36.40457374199991,-5.992415920999917,0.0],[-36.40457277799993,-5.992416110999955,0.0],[-36.40457285499991,-5.992415165999944,0.0],[-36.40457111099994,-5.992415277999953,0.0],[-36.40457112999991,-5.992413859999942,0.0],[-36.404569721999906,-5.99241388899992,0.0],[-36.40456976899992,-5.992412986999909,0.0],[-36.404568610999945,-5.992413055999918,0.0],[-36.40456864099991,-5.992412177999938,0.0],[-36.40456694399995,-5.992412221999928,0.0],[-36.404567045999954,-5.992411238999921,0.0],[-36.40456527799995,-5.992411388999926,0.0],[-36.40456532299993,-5.992409933999909,0.0],[-36.40456361099996,-5.99241,0.0],[-36.40456366299992,-5.992408811999951,0.0],[-36.404562221999925,-5.992408888999933,0.0],[-36.404562236999936,-5.992407754999931,0.0],[-36.40456083299995,-5.992407777999915,0.0],[-36.40456087599995,-5.992406880999908,0.0],[-36.404559812999935,-5.992406254999935,0.0],[-36.404558434999956,-5.992405335999933,0.0],[-36.40455680499991,-5.992404721999947,0.0],[-36.40455607399991,-5.992403633999913,0.0]]]]}}]}