{"type":"FeatureCollection","features":[{"type":"Feature","properties":{"PROCESSO":"848293/2024","NUMERO":848293,"ANO":2024,"AREA_HA":1237.67,"ID":"{9B22CC0E-EE20-440E-BBEF-395D7ADE128C}","FASE":"AUTORIZAÇÃO DE PESQUISA","ULT_EVENTO":"264 - AUT PESQ/TAH - PAGAMENTO EFETUADO EM 30/07/2026","NOME":"MINERADORA NOSSO SENHOR DO BONFIM LTDA","SUBS":"ILMENITA","USO":"Industrial","UF":"RN","DSProcesso":"848.293/2024","Bloco":"Bloco Bonfim","layer":"bloco_bonfim","path":"C:\\Users\\UsrMina07\\Desktop\\GILMAR\\Projeto Bonfim\\05. Arquivos Gis\\07. Temporários\\bloco_bonfim.shp","ORDEM":12,"LATITUDE":-5.66463444,"LONGITUDE":-36.09267431},"geometry":{"type":"MultiPolygon","coordinates":[[[[-36.084135277999906,-5.651869721999958,0.0],[-36.084135277999906,-5.651873888999944,0.0],[-36.07382416699994,-5.651873888999944,0.0],[-36.07382416699994,-5.677395,0.0],[-36.081607499999905,-5.677395,0.0],[-36.081607499999905,-5.679000555999949,0.0],[-36.11152444399994,-5.679000555999949,0.0],[-36.11152444399994,-5.651869721999958,0.0],[-36.084135277999906,-5.651869721999958,0.0]]]]}}]}