{"type":"FeatureCollection","features":[{"type":"Feature","properties":{"PROCESSO":"848529/2007","NUMERO":848529,"ANO":2007,"AREA_HA":1.03,"ID":"{3A1516CC-380F-446B-939D-ACD528A2E3A4}","FASE":"REQUERIMENTO DE PESQUISA","ULT_EVENTO":"122 - REQ PESQ/INDEFERIMENTO P/NÃO CUMPRIMENTO DE EXIGÊNCIA PUBL EM 20/07/2011","NOME":"GRANITI BRAZIL INDÚSTRIA E COMÉRCIO LTDA.","SUBS":"SCHEELITA","USO":"Industrial","UF":"RN","DSProcesso":"848.529/2007","Bloco":null,"layer":"processo_50km","path":"C:\\Users\\UsrMina07\\Desktop\\GILMAR\\Projeto Bonfim\\05. Arquivos Gis\\07. Temporários\\processo_50km.shp|subset=\"SUBS\" IN (\r\n    'MINÉRIO DE TUNGSTÊNIO',\r\n    'TUNGSTÊNIO',\r\n    'SCHEELITA'\r\n)","ORDEM":40,"LATITUDE":-5.84390329,"LONGITUDE":-36.12585929},"geometry":{"type":"MultiPolygon","coordinates":[[[[-36.12582295999994,-5.838350869999942,0.0],[-36.125823081999954,-5.84945031399991,0.0],[-36.12588682199993,-5.84945031399991,0.0],[-36.125886814999944,-5.849929581999959,0.0],[-36.13293104599995,-5.849929657999951,0.0],[-36.13293104599995,-5.849927409999907,0.0],[-36.12589552599991,-5.849927416999947,0.0],[-36.12589558499991,-5.83835625699993,0.0],[-36.12866191899991,-5.838356262999923,0.0],[-36.12866191899991,-5.838350829999911,0.0],[-36.12582295999994,-5.838350869999942,0.0]]]]}}]}