{"type":"FeatureCollection","features":[{"type":"Feature","properties":{"PROCESSO":"800158/1968","NUMERO":800158,"ANO":1968,"AREA_HA":508.84,"ID":"{0652E1B6-8AFB-4A49-ABA4-6C93987CEBD1}","FASE":"CONCESSÃO DE LAVRA","ULT_EVENTO":"472 - CONC LAV/PRORROGAÇÃO PRAZO EXIGÊNCIA PROTOC EM 14/07/2026","NOME":"MINERACAO BOCA DE LAJE LTDA","SUBS":"SCHEELITA","USO":"Demais substâncias","UF":"RN","DSProcesso":"800.158/1968","Bloco":null,"layer":"processo_50km","path":"C:\\Users\\UsrMina07\\Desktop\\GILMAR\\Projeto Bonfim\\05. Arquivos Gis\\07. Temporários\\processo_50km.shp|subset=\"SUBS\" IN (\r\n    'MINÉRIO DE TUNGSTÊNIO',\r\n    'TUNGSTÊNIO',\r\n    'SCHEELITA'\r\n)","ORDEM":83,"LATITUDE":-6.30951896,"LONGITUDE":-36.56363211},"geometry":{"type":"MultiPolygon","coordinates":[[[[-36.55406325699994,-6.330138575999911,0.0],[-36.55195011199993,-6.330962317999933,0.0],[-36.55195009599993,-6.335822641999926,0.0],[-36.55656572799995,-6.335822636999922,0.0],[-36.556565692999925,-6.329447581999943,0.0],[-36.55783100199994,-6.329447573999914,0.0],[-36.55783098799992,-6.327639046999934,0.0],[-36.55963856499994,-6.327639029999943,0.0],[-36.55963854499993,-6.325830502999906,0.0],[-36.561446115999956,-6.325830479999922,0.0],[-36.56144608999995,-6.324112378999928,0.0],[-36.563253655999915,-6.324112348999961,0.0],[-36.563253474999954,-6.314255875999947,0.0],[-36.56415723999993,-6.314255858999957,0.0],[-36.56415718699992,-6.311543066999945,0.0],[-36.56506094799994,-6.311543047999919,0.0],[-36.56506091199992,-6.30991537299991,0.0],[-36.5666876759999,-6.309915334999914,0.0],[-36.566687644999945,-6.308649365999941,0.0],[-36.568495155999926,-6.308649317999937,0.0],[-36.56849508499994,-6.306117378999943,0.0],[-36.57048333799992,-6.306117318999952,0.0],[-36.57048330899994,-6.305213054999911,0.0],[-36.57563468299992,-6.305212863999941,0.0],[-36.57563460699993,-6.303404335999915,0.0],[-36.588287059999914,-6.303403651999929,0.0],[-36.58828586499993,-6.28531836499991,0.0],[-36.58697547799994,-6.28531845099991,0.0],[-36.58697541999993,-6.284414185999935,0.0],[-36.58566503599991,-6.284414267999921,0.0],[-36.58566497999993,-6.283510001999957,0.0],[-36.57992640799995,-6.283510321999927,0.0],[-36.57992694899991,-6.294316282999944,0.0],[-36.5726971009999,-6.294316594999941,0.0],[-36.572697460999905,-6.304239266999957,0.0],[-36.563585961999934,-6.304239518999907,0.0],[-36.56358599299995,-6.305867194999905,0.0],[-36.56264609099992,-6.305867211999953,0.0],[-36.562646119999954,-6.307494886999962,0.0],[-36.56157968999992,-6.307494903999952,0.0],[-36.56157971399995,-6.309122578999961,0.0],[-36.56057654399996,-6.309122592999927,0.0],[-36.56057656599995,-6.310750267999936,0.0],[-36.55957339299994,-6.310750280999912,0.0],[-36.55957341099992,-6.312377955999921,0.0],[-36.558556677999945,-6.312377965999929,0.0],[-36.55855669299996,-6.314005639999948,0.0],[-36.55751736399992,-6.31400564899991,0.0],[-36.55751737499992,-6.315633323999919,0.0],[-36.557065490999946,-6.315633326999944,0.0],[-36.55406325699994,-6.330138575999911,0.0]]]]}}]}