{"type":"FeatureCollection","features":[{"type":"Feature","properties":{"PROCESSO":"848228/2026","NUMERO":848228,"ANO":2026,"AREA_HA":1926.66,"ID":"{6BC92001-1F5B-43F6-9DBF-06AE0B9C5589}","FASE":"REQUERIMENTO DE PESQUISA","ULT_EVENTO":"100 - REQ PESQ/REQUERIMENTO PESQUISA PROTOC EM 16/07/2026","NOME":"BRAZILIAN STRATEGIC MINERALS LTDA","SUBS":"SCHEELITA","USO":"Industrial","UF":"RN","DSProcesso":"848.228/2026","Bloco":null,"layer":"processo_50km","path":"C:\\Users\\UsrMina07\\Desktop\\GILMAR\\Projeto Bonfim\\05. Arquivos Gis\\07. Temporários\\processo_50km.shp|subset=\"SUBS\" IN (\r\n    'MINÉRIO DE TUNGSTÊNIO',\r\n    'TUNGSTÊNIO',\r\n    'SCHEELITA'\r\n)","ORDEM":33,"LATITUDE":-5.832705,"LONGITUDE":-35.83574694},"geometry":{"type":"MultiPolygon","coordinates":[[[[-35.851271943999905,-5.84703,0.0],[-35.851271943999905,-5.798418055999946,0.0],[-35.81739694399994,-5.798418055999946,0.0],[-35.81739694399994,-5.819351943999948,0.0],[-35.82022194399991,-5.819351943999948,0.0],[-35.82022194399991,-5.846058055999947,0.0],[-35.81549,-5.846058055999947,0.0],[-35.81549,-5.84703,0.0],[-35.851271943999905,-5.84703,0.0]]]]}}]}