{"type":"FeatureCollection","features":[{"type":"Feature","properties":{"PROCESSO":"848260/2017","NUMERO":848260,"ANO":2017,"AREA_HA":987.69,"ID":"{A5EA2A39-C72C-4CC7-A006-39164EC26639}","FASE":"DIREITO DE REQUERER A LAVRA","ULT_EVENTO":"2210 - DIR REQ LAV/PRORROGAÇÃO PRAZO REQUERIMENTO LAVRA PROTOC EM 26/05/2026","NOME":"MINERADORA NOSSO SENHOR DO BONFIM LTDA","SUBS":"MINÉRIO DE OURO","USO":"Industrial","UF":"RN","DSProcesso":"848.260/2017","Bloco":"Bloco Bonfim","layer":"bloco_bonfim","path":"C:\\Users\\UsrMina07\\Desktop\\GILMAR\\Projeto Bonfim\\05. Arquivos Gis\\07. Temporários\\bloco_bonfim.shp","ORDEM":25,"LATITUDE":-5.77724438,"LONGITUDE":-36.1361053},"geometry":{"type":"MultiPolygon","coordinates":[[[[-36.12563018599991,-5.74784414599992,0.0],[-36.12563020199991,-5.774794363999945,0.0],[-36.131680255999925,-5.77479436099992,0.0],[-36.13168026699992,-5.794994523999947,0.0],[-36.13053025699992,-5.794994524999936,0.0],[-36.13053026599994,-5.810294648999957,0.0],[-36.1497304369999,-5.810294637999959,0.0],[-36.14973042999992,-5.797794536999959,0.0],[-36.1450503879999,-5.797794538999938,0.0],[-36.14505037799995,-5.779694392999943,0.0],[-36.140530337999905,-5.779694394999922,0.0],[-36.14053032999993,-5.766094284999951,0.0],[-36.13593028899993,-5.76609428799992,0.0],[-36.13593028299994,-5.756794212999921,0.0],[-36.13148329999996,-5.756794214999957,0.0],[-36.131483293999906,-5.747844142999952,0.0],[-36.12563018599991,-5.74784414599992,0.0]]]]}}]}