{"type":"FeatureCollection","features":[{"type":"Feature","properties":{"PROCESSO":"848228/2019","NUMERO":848228,"ANO":2019,"AREA_HA":10.06,"ID":"{93CD2DDA-7503-4742-8D80-22E41FF0099E}","FASE":"REQUERIMENTO DE LAVRA","ULT_EVENTO":"1764 - REQ LAV/RAL ANO BASE APRESENTADO EM 27/03/2026","NOME":"P J DE CARVALHO POLI & CIA LTDA","SUBS":"MINÉRIO DE TUNGSTÊNIO","USO":"Industrial","UF":"RN","DSProcesso":"848.228/2019","Bloco":null,"layer":"processo_50km","path":"C:\\Users\\UsrMina07\\Desktop\\GILMAR\\Projeto Bonfim\\05. Arquivos Gis\\07. Temporários\\processo_50km.shp|subset=\"SUBS\" IN (\r\n    'MINÉRIO DE TUNGSTÊNIO',\r\n    'TUNGSTÊNIO',\r\n    'SCHEELITA'\r\n)","ORDEM":58,"LATITUDE":-5.88385694,"LONGITUDE":-36.16295833},"geometry":{"type":"MultiPolygon","coordinates":[[[[-36.162622221999925,-5.882019443999923,0.0],[-36.16138888899991,-5.882019443999923,0.0],[-36.16138888899991,-5.883111110999948,0.0],[-36.1619305559999,-5.883111110999948,0.0],[-36.1619305559999,-5.884366666999938,0.0],[-36.162725,-5.884366666999938,0.0],[-36.162725,-5.885883332999924,0.0],[-36.163941666999904,-5.885883332999924,0.0],[-36.163941666999904,-5.886588888999938,0.0],[-36.16727972199993,-5.886588888999938,0.0],[-36.16727972199993,-5.886558610999941,0.0],[-36.16523888899991,-5.886558610999941,0.0],[-36.16523888899991,-5.88545,0.0],[-36.16458055599992,-5.88545,0.0],[-36.16458055599992,-5.884344443999908,0.0],[-36.16398611099993,-5.884344443999908,0.0],[-36.16398611099993,-5.883369443999925,0.0],[-36.16319166699992,-5.883369443999925,0.0],[-36.16319166699992,-5.882397221999952,0.0],[-36.162622221999925,-5.882397221999952,0.0],[-36.162622221999925,-5.882019443999923,0.0]]]]}}]}