{"type":"FeatureCollection","features":[{"type":"Feature","properties":{"PROCESSO":"848256/2022","NUMERO":848256,"ANO":2022,"AREA_HA":156.02,"ID":"{EAEE5843-9D67-45FB-8989-A30FD5F1A1A8}","FASE":"AUTORIZAÇÃO DE PESQUISA","ULT_EVENTO":"265 - AUT PESQ/PRORROGAÇÃO PRAZO ALVARÁ-SOLICITAÇÃO PROTOC EM 05/11/2025","NOME":"MINERADORA NOSSO SENHOR DO BONFIM LTDA","SUBS":"ILMENITA","USO":"Industrial","UF":"RN","DSProcesso":"848.256/2022","Bloco":"Bloco Bonfim","layer":"bloco_bonfim","path":"C:\\Users\\UsrMina07\\Desktop\\GILMAR\\Projeto Bonfim\\05. Arquivos Gis\\07. Temporários\\bloco_bonfim.shp","ORDEM":20,"LATITUDE":-5.75838514,"LONGITUDE":-36.10795502},"geometry":{"type":"MultiPolygon","coordinates":[[[[-36.106546943999945,-5.746089166999923,0.0],[-36.1065463889999,-5.775026943999933,0.0],[-36.115999443999954,-5.775027221999949,0.0],[-36.115999443999954,-5.770426388999908,0.0],[-36.11510083299993,-5.770426388999908,0.0],[-36.11510083299993,-5.769855555999925,0.0],[-36.11411333299992,-5.769855555999925,0.0],[-36.11411333299992,-5.768998610999915,0.0],[-36.112374443999954,-5.768998610999915,0.0],[-36.112374443999954,-5.767952777999938,0.0],[-36.111534166999945,-5.767952777999938,0.0],[-36.111534166999945,-5.766392777999954,0.0],[-36.11088416699994,-5.766392777999954,0.0],[-36.11088416699994,-5.763887221999937,0.0],[-36.11033277799993,-5.763887221999937,0.0],[-36.11033277799993,-5.760674721999919,0.0],[-36.10936333299992,-5.760674721999919,0.0],[-36.10936333299992,-5.756095555999934,0.0],[-36.11004111099993,-5.756095555999934,0.0],[-36.11004111099993,-5.753923332999932,0.0],[-36.10939388899993,-5.753923332999932,0.0],[-36.10939388899993,-5.750569166999924,0.0],[-36.108513332999905,-5.750569166999924,0.0],[-36.108513332999905,-5.74806222199993,0.0],[-36.10687583299995,-5.74806222199993,0.0],[-36.10687583299995,-5.746089166999923,0.0],[-36.106546943999945,-5.746089166999923,0.0]]]]}}]}