{"type":"FeatureCollection","features":[{"type":"Feature","properties":{"PROCESSO":"848529/2007","NUMERO":848529,"ANO":2007,"AREA_HA":4.18,"ID":"{2A80EDF1-AED9-4007-9C44-0220D57FE2F4}","FASE":"REQUERIMENTO DE PESQUISA","ULT_EVENTO":"122 - REQ PESQ/INDEFERIMENTO P/NÃO CUMPRIMENTO DE EXIGÊNCIA PUBL EM 20/07/2011","NOME":"GRANITI BRAZIL INDÚSTRIA E COMÉRCIO LTDA.","SUBS":"SCHEELITA","USO":"Industrial","UF":"RN","DSProcesso":"848.529/2007","Bloco":null,"layer":"processo_50km","path":"C:\\Users\\UsrMina07\\Desktop\\GILMAR\\Projeto Bonfim\\05. Arquivos Gis\\07. Temporários\\processo_50km.shp|subset=\"SUBS\" IN (\r\n    'MINÉRIO DE TUNGSTÊNIO',\r\n    'TUNGSTÊNIO',\r\n    'SCHEELITA'\r\n)","ORDEM":44,"LATITUDE":-5.8487305,"LONGITUDE":-36.13916569},"geometry":{"type":"MultiPolygon","coordinates":[[[[-36.13848126699992,-5.84997577799993,0.0],[-36.13985015599991,-5.849975779999909,0.0],[-36.13985006699994,-5.847485168999924,0.0],[-36.13848127399996,-5.847485214999949,0.0],[-36.13848126699992,-5.84997577799993,0.0]]]]}}]}