{"type":"FeatureCollection","features":[{"type":"Feature","properties":{"PROCESSO":"848081/2014","NUMERO":848081,"ANO":2014,"AREA_HA":1970.63,"ID":"{66AB8E31-68E3-4873-8357-9766F7B11638}","FASE":"REQUERIMENTO DE PESQUISA","ULT_EVENTO":"157 - REQ PESQ/DESISTÊNCIA REQUERIMENTO PESQUISA HOMOLOGADA PUBL EM 26/01/2016","NOME":"Zurenildo Roseno da Silva","SUBS":"MINÉRIO DE TUNGSTÊNIO","USO":"Industrial","UF":"RN","DSProcesso":"848.081/2014","Bloco":null,"layer":"processo_50km","path":"C:\\Users\\UsrMina07\\Desktop\\GILMAR\\Projeto Bonfim\\05. Arquivos Gis\\07. Temporários\\processo_50km.shp|subset=\"SUBS\" IN (\r\n    'MINÉRIO DE TUNGSTÊNIO',\r\n    'TUNGSTÊNIO',\r\n    'SCHEELITA'\r\n)","ORDEM":81,"LATITUDE":-6.0586448,"LONGITUDE":-36.18916232},"geometry":{"type":"MultiPolygon","coordinates":[[[[-36.16694489099996,-6.032677533999959,0.0],[-36.16694489899993,-6.032809480999958,0.0],[-36.16694490799995,-6.049031500999945,0.0],[-36.1665801659999,-6.049031500999945,0.0],[-36.166580171999954,-6.06825809399993,0.0],[-36.16784630899991,-6.068258091999951,0.0],[-36.176224160999936,-6.06825809399993,0.0],[-36.17622413999993,-6.068496705999905,0.0],[-36.17622413999993,-6.068503947999943,0.0],[-36.21174447799996,-6.068502170999921,0.0],[-36.21174447199991,-6.03372973799992,0.0],[-36.21174442799992,-6.03267750699996,0.0],[-36.16977519299991,-6.032677538999906,0.0],[-36.16694489099996,-6.032677533999959,0.0]]]]}}]}