{"type":"FeatureCollection","features":[{"type":"Feature","properties":{"PROCESSO":"848183/2026","NUMERO":848183,"ANO":2026,"AREA_HA":1531.89,"ID":"{673E5142-7687-4D95-A044-040EABDA4458}","FASE":"REQUERIMENTO DE PESQUISA","ULT_EVENTO":"100 - REQ PESQ/REQUERIMENTO PESQUISA PROTOC EM 15/07/2026","NOME":"BRAZILIAN STRATEGIC MINERALS LTDA","SUBS":"SCHEELITA","USO":"Industrial","UF":"RN","DSProcesso":"848.183/2026","Bloco":null,"layer":"processo_50km","path":"C:\\Users\\UsrMina07\\Desktop\\GILMAR\\Projeto Bonfim\\05. Arquivos Gis\\07. Temporários\\processo_50km.shp|subset=\"SUBS\" IN (\r\n    'MINÉRIO DE TUNGSTÊNIO',\r\n    'TUNGSTÊNIO',\r\n    'SCHEELITA'\r\n)","ORDEM":1,"LATITUDE":-5.58384653,"LONGITUDE":-36.543375},"geometry":{"type":"MultiPolygon","coordinates":[[[[-36.573368055999936,-5.594268055999919,0.0],[-36.573368055999936,-5.573425,0.0],[-36.513381943999946,-5.573425,0.0],[-36.513381943999946,-5.594268055999919,0.0],[-36.573368055999936,-5.594268055999919,0.0]]]]}}]}