{"type":"FeatureCollection","features":[{"type":"Feature","properties":{"PROCESSO":"848213/2014","NUMERO":848213,"ANO":2014,"AREA_HA":620.61,"ID":"{1BC41F04-83F5-427C-8897-BB062E1210E7}","FASE":"AUTORIZAÇÃO DE PESQUISA","ULT_EVENTO":"794 - AUT PESQ/RELATÓRIO FINAL PESQUISA POSITIVO PROTOC EM 02/04/2026","NOME":"MINERADORA NOSSO SENHOR DO BONFIM LTDA","SUBS":"MINÉRIO DE OURO","USO":"Industrial","UF":"RN","DSProcesso":"848.213/2014","Bloco":"Bloco Bonfim","layer":"bloco_bonfim","path":"C:\\Users\\UsrMina07\\Desktop\\GILMAR\\Projeto Bonfim\\05. Arquivos Gis\\07. Temporários\\bloco_bonfim.shp","ORDEM":52,"LATITUDE":-5.87970653,"LONGITUDE":-36.13211254},"geometry":{"type":"MultiPolygon","coordinates":[[[[-36.11283169899991,-5.85738374999994,0.0],[-36.11283155199993,-5.864377874999946,0.0],[-36.11283430699996,-5.864377874999946,0.0],[-36.11283430699996,-5.864226456999916,0.0],[-36.11301206199994,-5.864226456999916,0.0],[-36.11301206299993,-5.866351492999911,0.0],[-36.11301430899994,-5.866351492999911,0.0],[-36.11301430899994,-5.86642539099995,0.0],[-36.11243013699993,-5.86642539199994,0.0],[-36.11243013699993,-5.866427891999933,0.0],[-36.1149351599999,-5.866427889999954,0.0],[-36.11945047799992,-5.866427887999919,0.0],[-36.11945042499991,-5.87511879099992,0.0],[-36.11945659399993,-5.87511879099992,0.0],[-36.11945656599994,-5.875309902999959,0.0],[-36.12847194999995,-5.875309897999955,0.0],[-36.12847219999992,-5.884103147999951,0.0],[-36.1282121239999,-5.884103154999934,0.0],[-36.12821212699993,-5.884229753999932,0.0],[-36.12369770999993,-5.884229862999916,0.0],[-36.12369770799995,-5.884159328999942,0.0],[-36.119456570999944,-5.88415938199995,0.0],[-36.115179276999925,-5.884159434999958,0.0],[-36.115179276999925,-5.88416164399996,0.0],[-36.11517711599993,-5.884161598999924,0.0],[-36.11517711599993,-5.884254384999906,0.0],[-36.11066404799993,-5.884254387999931,0.0],[-36.11066404899992,-5.884104277999938,0.0],[-36.110661798999956,-5.884104244999946,0.0],[-36.11005283999992,-5.884104210999908,0.0],[-36.110052785999926,-5.884498038999936,0.0],[-36.110052638999946,-5.906212437999955,0.0],[-36.11553560199991,-5.906212419999918,0.0],[-36.11553561899996,-5.906795437999961,0.0],[-36.115569129999926,-5.906795437999961,0.0],[-36.11556913599992,-5.906208335999906,0.0],[-36.11556919499992,-5.90619150699996,0.0],[-36.136340066999935,-5.90619156899993,0.0],[-36.13634008099996,-5.906207928999947,0.0],[-36.13634008999992,-5.906795425999917,0.0],[-36.13676537799995,-5.906795425999917,0.0],[-36.13676537799995,-5.906375210999954,0.0],[-36.136768454999924,-5.906375210999954,0.0],[-36.136768453999935,-5.906352643999924,0.0],[-36.13931317899994,-5.906352642999934,0.0],[-36.13931317799995,-5.905466523999905,0.0],[-36.139312300999904,-5.905466523999905,0.0],[-36.139312300999904,-5.905464486999961,0.0],[-36.13873511699995,-5.905464514999949,0.0],[-36.13873511699995,-5.905095410999934,0.0],[-36.1387322299999,-5.905095410999934,0.0],[-36.13873225599991,-5.905633434999913,0.0],[-36.11163984199993,-5.905634110999927,0.0],[-36.111639865999905,-5.905598208999947,0.0],[-36.111639865999905,-5.889357243999939,0.0],[-36.11283015399994,-5.889357242999949,0.0],[-36.112830138999925,-5.890570649999916,0.0],[-36.1354064649999,-5.890570130999947,0.0],[-36.13540641199995,-5.88935658999992,0.0],[-36.136230362999925,-5.889356195999937,0.0],[-36.13575619199992,-5.88935584099994,0.0],[-36.13575619299991,-5.886078591999933,0.0],[-36.135753268999906,-5.886078591999933,0.0],[-36.135752804999925,-5.874907285999939,0.0],[-36.13311423899995,-5.874907389999919,0.0],[-36.13311412799993,-5.871879865999915,0.0],[-36.13094776899993,-5.871879940999918,0.0],[-36.13094753099995,-5.864642997999908,0.0],[-36.131200374999935,-5.864642989999936,0.0],[-36.13120037199991,-5.864565221999953,0.0],[-36.12571004599994,-5.864565378999941,0.0],[-36.12570987599992,-5.857329337999943,0.0],[-36.12591756599994,-5.857329332999939,0.0],[-36.12591756199993,-5.857184647999929,0.0],[-36.12822103199994,-5.857184588999928,0.0],[-36.12822102799993,-5.857049851999932,0.0],[-36.11919100599994,-5.857050031999961,0.0],[-36.11919100999995,-5.857383710999954,0.0],[-36.11283169899991,-5.85738374999994,0.0]]]]}}]}