{"type":"FeatureCollection","features":[{"type":"Feature","properties":{"PROCESSO":"848305/2012","NUMERO":848305,"ANO":2012,"AREA_HA":20.77,"ID":"{5A7DC9D9-DADA-4020-B1D9-B9ED7407C9BB}","FASE":"AUTORIZAÇÃO DE PESQUISA","ULT_EVENTO":"794 - AUT PESQ/RELATÓRIO FINAL PESQUISA POSITIVO PROTOC EM 25/09/2024","NOME":"MINERADORA NOSSO SENHOR DO BONFIM LTDA","SUBS":"ILMENITA","USO":"Industrial","UF":"RN","DSProcesso":"848.305/2012","Bloco":"Bloco Bonfim","layer":"bloco_bonfim","path":"C:\\Users\\UsrMina07\\Desktop\\GILMAR\\Projeto Bonfim\\05. Arquivos Gis\\07. Temporários\\bloco_bonfim.shp","ORDEM":43,"LATITUDE":-5.84545646,"LONGITUDE":-36.1306264},"geometry":{"type":"MultiPolygon","coordinates":[[[[-36.13272835899994,-5.839808151999932,0.0],[-36.132728362999956,-5.846134659999962,0.0],[-36.13272747099995,-5.846134659999962,0.0],[-36.13272747099995,-5.846137204999934,0.0],[-36.13112734799995,-5.846137202999955,0.0],[-36.13112734799995,-5.846134731999939,0.0],[-36.13092417699994,-5.846134731999939,0.0],[-36.130922512999916,-5.846134660999951,0.0],[-36.13092251199993,-5.844778260999931,0.0],[-36.13033028499996,-5.844778260999931,0.0],[-36.130330287999925,-5.849927412999932,0.0],[-36.13293104599995,-5.849927409999907,0.0],[-36.13293104599995,-5.849929657999951,0.0],[-36.130330287999925,-5.849929629999906,0.0],[-36.130330287999925,-5.850394972999936,0.0],[-36.13533033199991,-5.850394970999957,0.0],[-36.13533033199991,-5.849462242999948,0.0],[-36.133093585999916,-5.849462145999951,0.0],[-36.13309329799995,-5.849451385999942,0.0],[-36.13309331599993,-5.849450389999959,0.0],[-36.13309317499994,-5.839808151999932,0.0],[-36.13272835899994,-5.839808151999932,0.0]]]]}}]}