{"type":"FeatureCollection","features":[{"type":"Feature","properties":{"PROCESSO":"848178/2024","NUMERO":848178,"ANO":2024,"AREA_HA":996.86,"ID":"{93CD4586-AD9B-440A-BBD7-A62678CE3D8A}","FASE":"AUTORIZAÇÃO DE PESQUISA","ULT_EVENTO":"1884 - AUT PESQ/RELATÓRIO PESQU PROVENIENTE CESSÃO PARCIAL PROTOC EM 25/09/2024","NOME":"SUPERGRAN MINERACAO LTDA","SUBS":"MINÉRIO DE OURO","USO":"Industrial","UF":"RN","DSProcesso":"848.178/2024","Bloco":"Bloco Bonfim","layer":"bloco_bonfim","path":"C:\\Users\\UsrMina07\\Desktop\\GILMAR\\Projeto Bonfim\\05. Arquivos Gis\\07. Temporários\\bloco_bonfim.shp","ORDEM":64,"LATITUDE":-5.93181556,"LONGITUDE":-36.31604417},"geometry":{"type":"MultiPolygon","coordinates":[[[[-36.32981666699993,-5.913277499999936,0.0],[-36.30227222199994,-5.913277499999936,0.0],[-36.30227222199994,-5.934979721999923,0.0],[-36.310850832999904,-5.934979721999923,0.0],[-36.310850832999904,-5.93804027799996,0.0],[-36.31089777799991,-5.93804027799996,0.0],[-36.31089777799991,-5.948997221999946,0.0],[-36.32981611099996,-5.948997221999946,0.0],[-36.32981611099996,-5.928651388999924,0.0],[-36.32620388899994,-5.928651388999924,0.0],[-36.32620388899994,-5.915087499999913,0.0],[-36.32981666699993,-5.915087499999913,0.0],[-36.32981666699993,-5.913277499999936,0.0]]]]}}]}