{"type":"FeatureCollection","features":[{"type":"Feature","properties":{"PROCESSO":"848333/2023","NUMERO":848333,"ANO":2023,"AREA_HA":329.82,"ID":"{69982CE8-F166-477D-957A-3FCC3A6CB819}","FASE":"AUTORIZAÇÃO DE PESQUISA","ULT_EVENTO":"264 - AUT PESQ/TAH - PAGAMENTO EFETUADO EM 31/07/2026","NOME":"AMASON RESOURCE GROUP DO BRASIL LTDA","SUBS":"SCHEELITA","USO":"Industrial","UF":"RN","DSProcesso":"848.333/2023","Bloco":null,"layer":"processo_50km","path":"C:\\Users\\UsrMina07\\Desktop\\GILMAR\\Projeto Bonfim\\05. Arquivos Gis\\07. Temporários\\processo_50km.shp|subset=\"SUBS\" IN (\r\n    'MINÉRIO DE TUNGSTÊNIO',\r\n    'TUNGSTÊNIO',\r\n    'SCHEELITA'\r\n)","ORDEM":15,"LATITUDE":-5.73680624,"LONGITUDE":-35.89158736},"geometry":{"type":"MultiPolygon","coordinates":[[[[-35.898686666999936,-5.725669443999948,0.0],[-35.898686666999936,-5.728851388999942,0.0],[-35.88478584299992,-5.728851353999914,0.0],[-35.88478582999994,-5.737879137999926,0.0],[-35.88478582999994,-5.73789411499996,0.0],[-35.88478581299995,-5.746922009999935,0.0],[-35.88478582099992,-5.747316445999957,0.0],[-35.89838888899993,-5.747316388999934,0.0],[-35.89838888899993,-5.735733332999928,0.0],[-35.89964166699991,-5.735733332999928,0.0],[-35.89964166699991,-5.735666666999919,0.0],[-35.89964166699991,-5.732558332999929,0.0],[-35.90057361099991,-5.732558332999929,0.0],[-35.90057361099991,-5.725669443999948,0.0],[-35.898686666999936,-5.725669443999948,0.0]]]]}}]}