{"type":"FeatureCollection","features":[{"type":"Feature","properties":{"PROCESSO":"848188/2021","NUMERO":848188,"ANO":2021,"AREA_HA":182.09,"ID":"{FECE855D-63C8-4402-BDEA-91F54ACF17E1}","FASE":"AUTORIZAÇÃO DE PESQUISA","ULT_EVENTO":"794 - AUT PESQ/RELATÓRIO FINAL PESQUISA POSITIVO PROTOC EM 25/09/2024","NOME":"MINERADORA NOSSO SENHOR DO BONFIM LTDA","SUBS":"ILMENITA","USO":"Industrial","UF":"RN","DSProcesso":"848.188/2021","Bloco":"Bloco Bonfim","layer":"bloco_bonfim","path":"C:\\Users\\UsrMina07\\Desktop\\GILMAR\\Projeto Bonfim\\05. Arquivos Gis\\07. Temporários\\bloco_bonfim.shp","ORDEM":24,"LATITUDE":-5.78266319,"LONGITUDE":-36.11261944},"geometry":{"type":"MultiPolygon","coordinates":[[[[-36.121898846999954,-5.775022777999936,0.0],[-36.121898804999944,-5.77502465099991,0.0],[-36.121799611999904,-5.775024647999942,0.0],[-36.11720651599995,-5.775024643999927,0.0],[-36.11600666699991,-5.775024623999911,0.0],[-36.11600666699991,-5.775022667999906,0.0],[-36.11599944999995,-5.775022667999906,0.0],[-36.11599944999995,-5.775027148999925,0.0],[-36.106997777999936,-5.775027078999926,0.0],[-36.10699749999992,-5.788481943999955,0.0],[-36.11911771399991,-5.788481960999945,0.0],[-36.11911771299992,-5.784365277999939,0.0],[-36.118241319999925,-5.784365277999939,0.0],[-36.11824117999993,-5.780961097999921,0.0],[-36.11718145399993,-5.780961097999921,0.0],[-36.117181451999954,-5.775034684999923,0.0],[-36.12207577899994,-5.775034683999934,0.0],[-36.12207577899994,-5.774916110999925,0.0],[-36.121898846999954,-5.774916110999925,0.0],[-36.121898846999954,-5.775022777999936,0.0]]]]}}]}