{"type":"FeatureCollection","features":[{"type":"Feature","properties":{"PROCESSO":"848210/2014","NUMERO":848210,"ANO":2014,"AREA_HA":914.99,"ID":"{CE05E67E-17A1-4760-9188-1B304285A17D}","FASE":"REQUERIMENTO DE PESQUISA","ULT_EVENTO":"157 - REQ PESQ/DESISTÊNCIA REQUERIMENTO PESQUISA HOMOLOGADA PUBL EM 26/01/2016","NOME":"Zurenildo Roseno da Silva","SUBS":"MINÉRIO DE TUNGSTÊNIO","USO":"Industrial","UF":"RN","DSProcesso":"848.210/2014","Bloco":null,"layer":"processo_50km","path":"C:\\Users\\UsrMina07\\Desktop\\GILMAR\\Projeto Bonfim\\05. Arquivos Gis\\07. Temporários\\processo_50km.shp|subset=\"SUBS\" IN (\r\n    'MINÉRIO DE TUNGSTÊNIO',\r\n    'TUNGSTÊNIO',\r\n    'SCHEELITA'\r\n)","ORDEM":62,"LATITUDE":-5.91655356,"LONGITUDE":-36.14768951},"geometry":{"type":"MultiPolygon","coordinates":[[[[-36.155326378999916,-5.91004382999995,0.0],[-36.13676537999993,-5.910044137999932,0.0],[-36.13676454699993,-5.910043784999914,0.0],[-36.136764558999914,-5.928813658999957,0.0],[-36.12795031299993,-5.92881366499995,0.0],[-36.127950308999914,-5.923012783999923,0.0],[-36.12050315999994,-5.923012787999937,0.0],[-36.12050315999994,-5.923016443999927,0.0],[-36.11937001599995,-5.923016469999936,0.0],[-36.119369966999955,-5.929638244999921,0.0],[-36.128290061999905,-5.929638274999945,0.0],[-36.128290111999945,-5.937793191999958,0.0],[-36.137230400999954,-5.937793058999944,0.0],[-36.159899770999914,-5.937793161999934,0.0],[-36.159899769999925,-5.936350650999941,0.0],[-36.158614479999926,-5.936350650999941,0.0],[-36.158614464999914,-5.910094327999957,0.0],[-36.15599666299994,-5.910094329999936,0.0],[-36.155996657999935,-5.901089811999952,0.0],[-36.15532915199992,-5.901089811999952,0.0],[-36.155329156999926,-5.910043773999917,0.0],[-36.155326378999916,-5.91004382999995,0.0]]]]}}]}