{"type":"FeatureCollection","features":[{"type":"Feature","properties":{"PROCESSO":"848099/2006","NUMERO":848099,"ANO":2006,"AREA_HA":1145.02,"ID":"{14DF6EB2-ABD1-47CC-B87A-8EF254CBF638}","FASE":"REQUERIMENTO DE LAVRA","ULT_EVENTO":"336 - REQ LAV/DOCUMENTO DIVERSO PROTOC EM 21/12/2017","NOME":"Bodó Mineração Ltda","SUBS":"MINÉRIO DE TUNGSTÊNIO","USO":"Industrial","UF":"RN","DSProcesso":"848.099/2006","Bloco":null,"layer":"processo_50km","path":"C:\\Users\\UsrMina07\\Desktop\\GILMAR\\Projeto Bonfim\\05. Arquivos Gis\\07. Temporários\\processo_50km.shp|subset=\"SUBS\" IN (\r\n    'MINÉRIO DE TUNGSTÊNIO',\r\n    'TUNGSTÊNIO',\r\n    'SCHEELITA'\r\n)","ORDEM":75,"LATITUDE":-5.98110891,"LONGITUDE":-36.42221604},"geometry":{"type":"MultiPolygon","coordinates":[[[[-36.42313130799994,-5.977847493999946,0.0],[-36.411397037999905,-5.977847500999928,0.0],[-36.41139703199991,-5.968222422999929,0.0],[-36.40053915699991,-5.968222984999954,0.0],[-36.400539168999956,-5.98806008899993,0.0],[-36.40427753599994,-5.988060086999951,0.0],[-36.40427753699993,-5.991179000999921,0.0],[-36.41543679999995,-5.984370327999954,0.0],[-36.424271879999935,-5.986248392999926,0.0],[-36.42427067199992,-5.986250390999942,0.0],[-36.42427204799992,-5.986250683999913,0.0],[-36.41800541199996,-5.996617267999909,0.0],[-36.41317223699991,-5.997154319999936,0.0],[-36.44389400499995,-5.997152912999923,0.0],[-36.44389204299995,-5.968221569999912,0.0],[-36.423131302999934,-5.968222137999931,0.0],[-36.42313130799994,-5.977847493999946,0.0]]]]}}]}