{"type":"FeatureCollection","features":[{"type":"Feature","properties":{"PROCESSO":"848208/2019","NUMERO":848208,"ANO":2019,"AREA_HA":46.06,"ID":"{DCD933FD-269E-4513-BE77-E652786F30D7}","FASE":"AUTORIZAÇÃO DE PESQUISA","ULT_EVENTO":"264 - AUT PESQ/TAH - PAGAMENTO EFETUADO EM 30/01/2026","NOME":"ARY GONCALVES DE ANDRADE","SUBS":"SCHEELITA","USO":"Industrial","UF":"RN","DSProcesso":"848.208/2019","Bloco":null,"layer":"processo_50km","path":"C:\\Users\\UsrMina07\\Desktop\\GILMAR\\Projeto Bonfim\\05. Arquivos Gis\\07. Temporários\\processo_50km.shp|subset=\"SUBS\" IN (\r\n    'MINÉRIO DE TUNGSTÊNIO',\r\n    'TUNGSTÊNIO',\r\n    'SCHEELITA'\r\n)","ORDEM":55,"LATITUDE":-5.87978736,"LONGITUDE":-36.11280153},"geometry":{"type":"MultiPolygon","coordinates":[[[[-36.110664166999925,-5.884254443999907,0.0],[-36.11517722199994,-5.884254443999907,0.0],[-36.11517722199994,-5.884161388999928,0.0],[-36.11494138899991,-5.884161388999928,0.0],[-36.11494138899991,-5.875470555999925,0.0],[-36.114935277999905,-5.875470555999925,0.0],[-36.11066166699993,-5.875470555999925,0.0],[-36.11066166699993,-5.884104166999919,0.0],[-36.110664166999925,-5.884104166999919,0.0],[-36.110664166999925,-5.884254443999907,0.0]]]]}}]}