{"type":"FeatureCollection","features":[{"type":"Feature","properties":{"PROCESSO":"848126/1996","NUMERO":848126,"ANO":1996,"AREA_HA":50.0,"ID":"{95CDE62F-CE1C-411C-B9DB-21BE3AFCDDEA}","FASE":"LAVRA GARIMPEIRA","ULT_EVENTO":"1668 - PLG/DOCUMENTO DIVERSO PROTOC EM 16/09/2009","NOME":"ISACIO DA CUNHA CAVALCANTI SOBRINHO","SUBS":"SCHEELITA","USO":"Demais substâncias","UF":"RN","DSProcesso":"848.126/1996","Bloco":null,"layer":"processo_50km","path":"C:\\Users\\UsrMina07\\Desktop\\GILMAR\\Projeto Bonfim\\05. Arquivos Gis\\07. Temporários\\processo_50km.shp|subset=\"SUBS\" IN (\r\n    'MINÉRIO DE TUNGSTÊNIO',\r\n    'TUNGSTÊNIO',\r\n    'SCHEELITA'\r\n)","ORDEM":26,"LATITUDE":-5.78850752,"LONGITUDE":-36.30255814},"geometry":{"type":"MultiPolygon","coordinates":[[[[-36.30481536699995,-5.783986121999931,0.0],[-36.30030093899995,-5.783986106999919,0.0],[-36.30030087299991,-5.793028919999927,0.0],[-36.30481537199995,-5.793028934999938,0.0],[-36.30481536699995,-5.783986121999931,0.0]]]]}}]}