{"type":"FeatureCollection","features":[{"type":"Feature","properties":{"PROCESSO":"848342/2014","NUMERO":848342,"ANO":2014,"AREA_HA":1908.45,"ID":"{DBDCFB63-40DE-4F09-BD21-6D69E264743D}","FASE":"AUTORIZAÇÃO DE PESQUISA","ULT_EVENTO":"264 - AUT PESQ/TAH - PAGAMENTO EFETUADO EM 30/07/2026","NOME":"MINERADORA NOSSO SENHOR DO BONFIM LTDA","SUBS":"ILMENITA","USO":"Industrial","UF":"RN","DSProcesso":"848.342/2014","Bloco":"Bloco Bonfim","layer":"bloco_bonfim","path":"C:\\Users\\UsrMina07\\Desktop\\GILMAR\\Projeto Bonfim\\05. Arquivos Gis\\07. Temporários\\bloco_bonfim.shp","ORDEM":23,"LATITUDE":-5.78515813,"LONGITUDE":-36.2120996},"geometry":{"type":"MultiPolygon","coordinates":[[[[-36.18527489399992,-5.762115337999944,0.0],[-36.18527489499991,-5.763734239999906,0.0],[-36.18521057499993,-5.763734239999906,0.0],[-36.18521120799994,-5.77602489599991,0.0],[-36.185575516999904,-5.77602489599991,0.0],[-36.185574054999904,-5.791503015999922,0.0],[-36.198692008999956,-5.791504109999948,0.0],[-36.198692001999916,-5.79146473499992,0.0],[-36.19869197399993,-5.790559726999959,0.0],[-36.211371253999914,-5.790559419999909,0.0],[-36.211371254999904,-5.790884444999961,0.0],[-36.211374031999924,-5.790884444999961,0.0],[-36.211374030999934,-5.790559409999958,0.0],[-36.234252503999926,-5.790558648999934,0.0],[-36.23751649299993,-5.790558552999926,0.0],[-36.23751649199994,-5.790559704999907,0.0],[-36.23751725999995,-5.801334513999961,0.0],[-36.23751893399992,-5.801334513999961,0.0],[-36.237518931999944,-5.801744516999918,0.0],[-36.23763343899992,-5.801744516999918,0.0],[-36.23763343899992,-5.801460625999937,0.0],[-36.238623927999924,-5.801460525999914,0.0],[-36.238624741999956,-5.779757679999932,0.0],[-36.23974384299993,-5.779757711999935,0.0],[-36.23974383399991,-5.763644205999924,0.0],[-36.239748482999914,-5.763644205999924,0.0],[-36.239748482999914,-5.763605587999962,0.0],[-36.23974846199991,-5.762115318999918,0.0],[-36.224275518999946,-5.76211539399992,0.0],[-36.22373106999993,-5.762115392999931,0.0],[-36.22373106999993,-5.762114186999952,0.0],[-36.18730108199992,-5.762115320999953,0.0],[-36.18527489399992,-5.762115337999944,0.0]]]]}}]}