{"type":"FeatureCollection","features":[{"type":"Feature","properties":{"PROCESSO":"848082/2014","NUMERO":848082,"ANO":2014,"AREA_HA":1792.67,"ID":"{20C08847-30AB-42AD-88B7-7CD6961B51EA}","FASE":"REQUERIMENTO DE PESQUISA","ULT_EVENTO":"157 - REQ PESQ/DESISTÊNCIA REQUERIMENTO PESQUISA HOMOLOGADA PUBL EM 01/07/2020","NOME":"Zurenildo Roseno da Silva","SUBS":"MINÉRIO DE TUNGSTÊNIO","USO":"Industrial","UF":"RN","DSProcesso":"848.082/2014","Bloco":null,"layer":"processo_50km","path":"C:\\Users\\UsrMina07\\Desktop\\GILMAR\\Projeto Bonfim\\05. Arquivos Gis\\07. Temporários\\processo_50km.shp|subset=\"SUBS\" IN (\r\n    'MINÉRIO DE TUNGSTÊNIO',\r\n    'TUNGSTÊNIO',\r\n    'SCHEELITA'\r\n)","ORDEM":66,"LATITUDE":-5.95653345,"LONGITUDE":-36.18058694},"geometry":{"type":"MultiPolygon","coordinates":[[[[-36.17930325799995,-5.933577182999954,0.0],[-36.17930330299993,-5.936340644999916,0.0],[-36.16095894499995,-5.936340786999949,0.0],[-36.16095894499995,-5.936353149999945,0.0],[-36.16095894599994,-5.938444277999906,0.0],[-36.16409008499994,-5.938444275999927,0.0],[-36.16409008499994,-5.938450664999948,0.0],[-36.164090106999936,-5.974616234999928,0.0],[-36.164090106999936,-5.974622623999949,0.0],[-36.16223953499991,-5.974622624999938,0.0],[-36.16223957199992,-5.975395963999915,0.0],[-36.162239573999955,-5.978792996999914,0.0],[-36.19708519799991,-5.978791932999911,0.0],[-36.197082321999915,-5.933589059999917,0.0],[-36.197085932999926,-5.933589059999917,0.0],[-36.197085932999926,-5.933576438999921,0.0],[-36.18421609599994,-5.933576614999936,0.0],[-36.17930325799995,-5.933577182999954,0.0]]]]}}]}