{"type":"FeatureCollection","features":[{"type":"Feature","properties":{"PROCESSO":"848167/2016","NUMERO":848167,"ANO":2016,"AREA_HA":1971.56,"ID":"{6DA0D99C-2398-45DD-852B-30B3EDD5E1F7}","FASE":"AUTORIZAÇÃO DE PESQUISA","ULT_EVENTO":"236 - AUT PESQ/DOCUMENTO DIVERSO PROTOC EM 10/02/2026","NOME":"CLEANTO CARLOS REGO","SUBS":"MINÉRIO DE TUNGSTÊNIO","USO":"Industrial","UF":"RN","DSProcesso":"848.167/2016","Bloco":null,"layer":"processo_50km","path":"C:\\Users\\UsrMina07\\Desktop\\GILMAR\\Projeto Bonfim\\05. Arquivos Gis\\07. Temporários\\processo_50km.shp|subset=\"SUBS\" IN (\r\n    'MINÉRIO DE TUNGSTÊNIO',\r\n    'TUNGSTÊNIO',\r\n    'SCHEELITA'\r\n)","ORDEM":35,"LATITUDE":-5.83481401,"LONGITUDE":-36.02586111},"geometry":{"type":"MultiPolygon","coordinates":[[[[-36.008755555999926,-5.811286110999959,0.0],[-36.008755555999926,-5.85834194399996,0.0],[-36.04296666699992,-5.858341902999939,0.0],[-36.04296666699992,-5.811286110999959,0.0],[-36.008755555999926,-5.811286110999959,0.0]]]]}}]}