{"type":"FeatureCollection","features":[{"type":"Feature","properties":{"PROCESSO":"848018/2021","NUMERO":848018,"ANO":2021,"AREA_HA":263.8,"ID":"{5ED96EF0-0BD5-4914-9F02-69C05C25ABA2}","FASE":"DIREITO DE REQUERER A LAVRA","ULT_EVENTO":"291 - DIR REQ LAV/RELATÓRIO PESQUISA APROVADO C/REDUÇÃO ÁREA PUBL EM 22/01/2024","NOME":"carlos richard da silva cruz","SUBS":"SCHEELITA","USO":"Industrial","UF":"RN","DSProcesso":"848.018/2021","Bloco":null,"layer":"processo_50km","path":"C:\\Users\\UsrMina07\\Desktop\\GILMAR\\Projeto Bonfim\\05. Arquivos Gis\\07. Temporários\\processo_50km.shp|subset=\"SUBS\" IN (\r\n    'MINÉRIO DE TUNGSTÊNIO',\r\n    'TUNGSTÊNIO',\r\n    'SCHEELITA'\r\n)","ORDEM":16,"LATITUDE":-5.73782958,"LONGITUDE":-35.91306486},"geometry":{"type":"MultiPolygon","coordinates":[[[[-35.91751638899996,-5.725734721999913,0.0],[-35.90861333299995,-5.725734721999913,0.0],[-35.90861333299995,-5.74992444399993,0.0],[-35.91751638899996,-5.74992444399993,0.0],[-35.91751638899996,-5.725734721999913,0.0]]]]}}]}