{"type":"FeatureCollection","features":[{"type":"Feature","properties":{"PROCESSO":"848078/2018","NUMERO":848078,"ANO":2018,"AREA_HA":55.38,"ID":"{F32DDBEE-4EE7-49BF-9C65-5F1372D59698}","FASE":"AUTORIZAÇÃO DE PESQUISA","ULT_EVENTO":"794 - AUT PESQ/RELATÓRIO FINAL PESQUISA POSITIVO PROTOC EM 02/04/2026","NOME":"EDEM EMPRESA DE DESENVOLVIMENTO EM MINERACAO E PARTICIPACOES LTDA","SUBS":"ILMENITA","USO":"Industrial","UF":"RN","DSProcesso":"848.078/2018","Bloco":"Bloco Bonfim","layer":"bloco_bonfim","path":"C:\\Users\\UsrMina07\\Desktop\\GILMAR\\Projeto Bonfim\\05. Arquivos Gis\\07. Temporários\\bloco_bonfim.shp","ORDEM":45,"LATITUDE":-5.85426431,"LONGITUDE":-36.12850806},"geometry":{"type":"MultiPolygon","coordinates":[[[[-36.12582305299992,-5.84945031399991,0.0],[-36.125823048999905,-5.856002748999913,0.0],[-36.12588727699995,-5.856002749999959,0.0],[-36.12588727799994,-5.856440280999948,0.0],[-36.12838780599992,-5.856440277999923,0.0],[-36.12838780499993,-5.85600275999991,0.0],[-36.132613507999906,-5.856002776999958,0.0],[-36.13261350599993,-5.856440255999928,0.0],[-36.13415402599992,-5.856440261999921,0.0],[-36.13415402599992,-5.85630281199991,0.0],[-36.136016388999906,-5.856302760999938,0.0],[-36.136016388999906,-5.855973347999907,0.0],[-36.13119307699992,-5.855973350999932,0.0],[-36.13119307499994,-5.852555267999946,0.0],[-36.136016388999906,-5.852555264999921,0.0],[-36.136016388999906,-5.852100822999944,0.0],[-36.13580839899993,-5.852100821999954,0.0],[-36.135808417999954,-5.849462371999948,0.0],[-36.1357494799999,-5.849462260999928,0.0],[-36.13533033199991,-5.849462242999948,0.0],[-36.13533033199991,-5.850394970999957,0.0],[-36.130330287999925,-5.850394972999936,0.0],[-36.130330287999925,-5.849929629999906,0.0],[-36.125886814999944,-5.849929581999959,0.0],[-36.12588682199993,-5.84945031399991,0.0],[-36.12582305299992,-5.84945031399991,0.0]]]]}}]}