{"type":"FeatureCollection","features":[{"type":"Feature","properties":{"PROCESSO":"848588/2008","NUMERO":848588,"ANO":2008,"AREA_HA":658.25,"ID":"{7C53D460-878B-4D32-B4FC-B991DBA64E02}","FASE":"CONCESSÃO DE LAVRA","ULT_EVENTO":"470 - CONC LAV/EXIGÊNCIA PUBL EM 31/07/2026","NOME":"MINERADORA NOSSO SENHOR DO BONFIM LTDA","SUBS":"MINÉRIO DE BISMUTO","USO":"Industrial","UF":"RN","DSProcesso":"848.588/2008","Bloco":"Bloco Bonfim","layer":"bloco_bonfim","path":"C:\\Users\\UsrMina07\\Desktop\\GILMAR\\Projeto Bonfim\\05. Arquivos Gis\\07. Temporários\\bloco_bonfim.shp","ORDEM":39,"LATITUDE":-5.83674624,"LONGITUDE":-36.13320933},"geometry":{"type":"MultiPolygon","coordinates":[[[[-36.155754403999936,-5.851103296999952,0.0],[-36.15479300699991,-5.851103297999941,0.0],[-36.15479300499993,-5.848911613999917,0.0],[-36.15443883499995,-5.848911613999917,0.0],[-36.154438833999905,-5.847097710999947,0.0],[-36.154049941999915,-5.847097710999947,0.0],[-36.154049939999936,-5.84448657899992,0.0],[-36.15366938199992,-5.84448657899992,0.0],[-36.15366937999994,-5.842269893999912,0.0],[-36.15302215299994,-5.842269893999912,0.0],[-36.1530221509999,-5.840172654999947,0.0],[-36.152405478999924,-5.840172655999936,0.0],[-36.152405477999935,-5.837836525999933,0.0],[-36.15169991499994,-5.837836525999933,0.0],[-36.15169991399995,-5.835649563999937,0.0],[-36.151261021999915,-5.835649563999937,0.0],[-36.151261020999925,-5.833384545999934,0.0],[-36.147627375999946,-5.833384547999913,0.0],[-36.14762737199993,-5.82540309399991,0.0],[-36.14664430799991,-5.825403094999956,0.0],[-36.14664430599993,-5.823075298999925,0.0],[-36.14589152199994,-5.823075298999925,0.0],[-36.14589151999991,-5.820841668999947,0.0],[-36.144944289999955,-5.820841669999936,0.0],[-36.14494428899991,-5.819277768999939,0.0],[-36.142119263999916,-5.819277770999918,0.0],[-36.14211926799993,-5.826331160999928,0.0],[-36.14051369799995,-5.826331161999917,0.0],[-36.14051369799995,-5.826447551999934,0.0],[-36.14173315399995,-5.826447550999944,0.0],[-36.14173315499994,-5.828875348999929,0.0],[-36.142880386999934,-5.82887534799994,0.0],[-36.14288038899991,-5.831442034999952,0.0],[-36.14421928999991,-5.831442033999906,0.0],[-36.144219291999946,-5.834964284999955,0.0],[-36.14545541399991,-5.834964283999909,0.0],[-36.14545541599995,-5.838604590999921,0.0],[-36.146222089999924,-5.838604590999921,0.0],[-36.1462220919999,-5.842439343999956,0.0],[-36.14706654399993,-5.84243934299991,0.0],[-36.147066544999916,-5.845318533999944,0.0],[-36.14792488599994,-5.845318532999954,0.0],[-36.14792488799992,-5.848631059999946,0.0],[-36.14866933999991,-5.848631058999956,0.0],[-36.14866934199995,-5.852456089999919,0.0],[-36.14658321199994,-5.852456091999954,0.0],[-36.14658321099995,-5.851161636999962,0.0],[-36.14603598399992,-5.851161636999962,0.0],[-36.14603598299993,-5.849033841999926,0.0],[-36.14454708099993,-5.849033842999916,0.0],[-36.14454707999994,-5.847911611999962,0.0],[-36.14385818499994,-5.847911611999962,0.0],[-36.14385818399995,-5.846272709999937,0.0],[-36.14316928899996,-5.846272710999926,0.0],[-36.14316928799991,-5.844772697999929,0.0],[-36.14244705999994,-5.844772698999918,0.0],[-36.14244705899995,-5.843411576999927,0.0],[-36.14193594299991,-5.843411576999927,0.0],[-36.14193594199992,-5.841078223999943,0.0],[-36.14128871299994,-5.841078224999933,0.0],[-36.14128871199995,-5.838464314999953,0.0],[-36.14073315199994,-5.838464314999953,0.0],[-36.1407331499999,-5.835655958999951,0.0],[-36.14002203299992,-5.83565595999994,0.0],[-36.140022029999955,-5.831814261999909,0.0],[-36.13323585899991,-5.831814264999934,0.0],[-36.13323585599994,-5.826331165999932,0.0],[-36.12062907599994,-5.826331173999961,0.0],[-36.12062907899991,-5.83193732999996,0.0],[-36.12568551299995,-5.831937326999935,0.0],[-36.12568551699991,-5.83817709899995,0.0],[-36.12911665899992,-5.838177096999914,0.0],[-36.129116660999955,-5.84251768799993,0.0],[-36.13001944699994,-5.84251768799993,0.0],[-36.13001944899992,-5.844778260999931,0.0],[-36.13092251199993,-5.844778260999931,0.0],[-36.130922512999916,-5.846134660999951,0.0],[-36.132728362999956,-5.846134659999962,0.0],[-36.13272835899994,-5.839804885999911,0.0],[-36.133116694999956,-5.839804885999911,0.0],[-36.133116694999956,-5.839497383999912,0.0],[-36.136692559999915,-5.839497381999934,0.0],[-36.13669256299994,-5.844489088999921,0.0],[-36.13849841299992,-5.844489087999932,0.0],[-36.1384984149999,-5.847563556999944,0.0],[-36.14030426399995,-5.847563555999955,0.0],[-36.14030426699992,-5.852084980999905,0.0],[-36.14013287599994,-5.852084980999905,0.0],[-36.14013287699993,-5.852555262999942,0.0],[-36.13119307499994,-5.852555267999946,0.0],[-36.13119307699992,-5.855973350999932,0.0],[-36.155754406999904,-5.855973336999909,0.0],[-36.155754403999936,-5.851103296999952,0.0]]]]}}]}