{"type":"FeatureCollection","features":[{"type":"Feature","properties":{"PROCESSO":"848102/2007","NUMERO":848102,"ANO":2007,"AREA_HA":1165.45,"ID":"{4069F5DF-70B4-4DB5-B1DE-11C30168735E}","FASE":"AUTORIZAÇÃO DE PESQUISA","ULT_EVENTO":"694 - PAGAMENTO VISTORIA FISCALIZAÇÃO EFETUADO EM 10/08/2010","NOME":"SHAMROCK MINERALS DO BRASIL LTDA.","SUBS":"SCHEELITA","USO":"Industrial","UF":"RN","DSProcesso":"848.102/2007","Bloco":null,"layer":"processo_50km","path":"C:\\Users\\UsrMina07\\Desktop\\GILMAR\\Projeto Bonfim\\05. Arquivos Gis\\07. Temporários\\processo_50km.shp|subset=\"SUBS\" IN (\r\n    'MINÉRIO DE TUNGSTÊNIO',\r\n    'TUNGSTÊNIO',\r\n    'SCHEELITA'\r\n)","ORDEM":74,"LATITUDE":-5.97355533,"LONGITUDE":-36.38691703},"geometry":{"type":"MultiPolygon","coordinates":[[[[-36.37336915499992,-5.959048835999909,0.0],[-36.373369176999915,-5.995220746999905,0.0],[-36.3948532359999,-5.995220312999948,0.0],[-36.394853104999925,-5.991902530999937,0.0],[-36.397959372999935,-5.991902397999922,0.0],[-36.39795919799991,-5.988061942999934,0.0],[-36.40046561999992,-5.988061822999953,0.0],[-36.40046417599996,-5.959048153999959,0.0],[-36.37336915499992,-5.959048835999909,0.0]]]]}}]}