{"type":"FeatureCollection","features":[{"type":"Feature","properties":{"PROCESSO":"848393/2023","NUMERO":848393,"ANO":2023,"AREA_HA":47.33,"ID":"{113BBCC2-DABF-4088-9A29-8BF0C264FD02}","FASE":"REQUERIMENTO DE LAVRA GARIMPEIRA","ULT_EVENTO":"333 - REQ PLG/REQUERIMENTO LAVRA GARIMPEIRA PROTOC EM 10/11/2023","NOME":"CATALISA MINERADORA LTDA","SUBS":"SCHEELITA","USO":"Industrial","UF":"RN","DSProcesso":"848.393/2023","Bloco":null,"layer":"processo_50km","path":"C:\\Users\\UsrMina07\\Desktop\\GILMAR\\Projeto Bonfim\\05. Arquivos Gis\\07. Temporários\\processo_50km.shp|subset=\"SUBS\" IN (\r\n    'MINÉRIO DE TUNGSTÊNIO',\r\n    'TUNGSTÊNIO',\r\n    'SCHEELITA'\r\n)","ORDEM":82,"LATITUDE":-6.06094444,"LONGITUDE":-36.213975},"geometry":{"type":"MultiPolygon","coordinates":[[[[-36.21784444399992,-6.058286110999916,0.0],[-36.21784444399992,-6.053891666999959,0.0],[-36.21375,-6.053891666999959,0.0],[-36.21375,-6.058219443999917,0.0],[-36.21203611099992,-6.058219443999917,0.0],[-36.21203611099992,-6.063572221999948,0.0],[-36.21591388899992,-6.063572221999948,0.0],[-36.21591388899992,-6.058316666999929,0.0],[-36.21784444399992,-6.058316666999929,0.0],[-36.21784444399992,-6.058286110999916,0.0]]]]}}]}