{"type":"FeatureCollection","features":[{"type":"Feature","properties":{"PROCESSO":"848186/2026","NUMERO":848186,"ANO":2026,"AREA_HA":1530.73,"ID":"{3FF19377-183C-4983-9728-D6D1E05761F8}","FASE":"REQUERIMENTO DE PESQUISA","ULT_EVENTO":"100 - REQ PESQ/REQUERIMENTO PESQUISA PROTOC EM 15/07/2026","NOME":"BRAZILIAN STRATEGIC MINERALS LTDA","SUBS":"SCHEELITA","USO":"Industrial","UF":"RN","DSProcesso":"848.186/2026","Bloco":null,"layer":"processo_50km","path":"C:\\Users\\UsrMina07\\Desktop\\GILMAR\\Projeto Bonfim\\05. Arquivos Gis\\07. Temporários\\processo_50km.shp|subset=\"SUBS\" IN (\r\n    'MINÉRIO DE TUNGSTÊNIO',\r\n    'TUNGSTÊNIO',\r\n    'SCHEELITA'\r\n)","ORDEM":8,"LATITUDE":-5.6574325,"LONGITUDE":-36.51556958},"geometry":{"type":"MultiPolygon","coordinates":[[[[-36.49604611099994,-5.665626943999939,0.0],[-36.53509305599994,-5.665626943999939,0.0],[-36.53509305599994,-5.645646943999907,0.0],[-36.57336888899994,-5.645646943999907,0.0],[-36.57336888899994,-5.636785,0.0],[-36.513381943999946,-5.636785,0.0],[-36.513381943999946,-5.649238055999945,0.0],[-36.49604611099994,-5.649238055999945,0.0],[-36.49604611099994,-5.665626943999939,0.0]]]]}}]}