{"type":"FeatureCollection","features":[{"type":"Feature","properties":{"PROCESSO":"848125/2017","NUMERO":848125,"ANO":2017,"AREA_HA":36.46,"ID":"{084329B0-1D43-4F54-9752-B33FC5B8620B}","FASE":"AUTORIZAÇÃO DE PESQUISA","ULT_EVENTO":"178 - AUT PESQ/TAH - NOTIFICAÇÃO ADMINISTRATIVA PGTO DÉBITO PUBL EM 03/06/2024","NOME":"MARCELO MARIO PORTO FILHO","SUBS":"MINÉRIO DE TUNGSTÊNIO","USO":"Industrial","UF":"RN","DSProcesso":"848.125/2017","Bloco":null,"layer":"processo_50km","path":"C:\\Users\\UsrMina07\\Desktop\\GILMAR\\Projeto Bonfim\\05. Arquivos Gis\\07. Temporários\\processo_50km.shp|subset=\"SUBS\" IN (\r\n    'MINÉRIO DE TUNGSTÊNIO',\r\n    'TUNGSTÊNIO',\r\n    'SCHEELITA'\r\n)","ORDEM":76,"LATITUDE":-5.99056201,"LONGITUDE":-36.40111842},"geometry":{"type":"MultiPolygon","coordinates":[[[[-36.400465556999904,-5.98679166699992,0.0],[-36.40046561999992,-5.988061822999953,0.0],[-36.39795919799991,-5.988061942999934,0.0],[-36.397959372999935,-5.991900478999924,0.0],[-36.40225656299992,-5.991900313999906,0.0],[-36.402256690999934,-5.994478750999917,0.0],[-36.40455531999993,-5.994478749999928,0.0],[-36.40455540699992,-5.992403227999944,0.0],[-36.40348630699992,-5.99167013999994,0.0],[-36.40631111099992,-5.989945017999958,0.0],[-36.40631111099992,-5.989938242999926,0.0],[-36.40427753699993,-5.991179000999921,0.0],[-36.40427753599994,-5.988060086999951,0.0],[-36.400539168999956,-5.98806008899993,0.0],[-36.40053916799991,-5.98679166699992,0.0],[-36.400465556999904,-5.98679166699992,0.0]]]]}}]}