{"type":"FeatureCollection","features":[{"type":"Feature","properties":{"PROCESSO":"848166/2016","NUMERO":848166,"ANO":2016,"AREA_HA":1607.94,"ID":"{D08FA51E-249F-4546-B21D-F38864558CAD}","FASE":"AUTORIZAÇÃO DE PESQUISA","ULT_EVENTO":"264 - AUT PESQ/TAH - PAGAMENTO EFETUADO EM 13/01/2022","NOME":"CLEANTO CARLOS REGO","SUBS":"MINÉRIO DE TUNGSTÊNIO","USO":"Industrial","UF":"RN","DSProcesso":"848.166/2016","Bloco":null,"layer":"processo_50km","path":"C:\\Users\\UsrMina07\\Desktop\\GILMAR\\Projeto Bonfim\\05. Arquivos Gis\\07. Temporários\\processo_50km.shp|subset=\"SUBS\" IN (\r\n    'MINÉRIO DE TUNGSTÊNIO',\r\n    'TUNGSTÊNIO',\r\n    'SCHEELITA'\r\n)","ORDEM":46,"LATITUDE":-5.85093777,"LONGITUDE":-36.08110513},"geometry":{"type":"MultiPolygon","coordinates":[[[[-36.06116302599992,-5.8394,0.0],[-36.06116302999993,-5.854466711999919,0.0],[-36.072901961999946,-5.854466646999924,0.0],[-36.07290200299991,-5.858341906999954,0.0],[-36.04334613399993,-5.858341860999928,0.0],[-36.008755555999926,-5.85834194399996,0.0],[-36.008755555999926,-5.86433827299993,0.0],[-36.04334587799991,-5.864338262999922,0.0],[-36.04334587099993,-5.867123551999953,0.0],[-36.05142764799996,-5.867123528999912,0.0],[-36.081170690999954,-5.867123553999932,0.0],[-36.10104722199992,-5.867123610999954,0.0],[-36.10104722199992,-5.847408888999951,0.0],[-36.087169443999926,-5.847408888999951,0.0],[-36.087169443999926,-5.8394,0.0],[-36.06116666699995,-5.8394,0.0],[-36.06116302599992,-5.8394,0.0]]]]}}]}