{"type":"FeatureCollection","features":[{"type":"Feature","properties":{"PROCESSO":"848318/2011","NUMERO":848318,"ANO":2011,"AREA_HA":898.54,"ID":"{6C4D1D0B-9D09-4B21-9CFE-ECCE865CE5DB}","FASE":"DIREITO DE REQUERER A LAVRA","ULT_EVENTO":"255 - AUT PESQ/CUMPRIMENTO EXIGÊNCIA PROTOC EM 28/01/2025","NOME":"EMPROGEO LTDA","SUBS":"MÁRMORE","USO":"Revestimento","UF":"RN","DSProcesso":"848.318/2011","Bloco":"Bloco Bonfim","layer":"bloco_bonfim","path":"C:\\Users\\UsrMina07\\Desktop\\GILMAR\\Projeto Bonfim\\05. Arquivos Gis\\07. Temporários\\bloco_bonfim.shp","ORDEM":72,"LATITUDE":-5.97648009,"LONGITUDE":-36.46711514},"geometry":{"type":"MultiPolygon","coordinates":[[[[-36.4445355709999,-5.968044345999942,0.0],[-36.44453566899995,-5.983340471999952,0.0],[-36.484884129999955,-5.98334213499993,0.0],[-36.48969463699996,-5.983342259999915,0.0],[-36.48969463699996,-5.98333582999993,0.0],[-36.48969467099994,-5.965256795999949,0.0],[-36.47931104399993,-5.965256801999942,0.0],[-36.47931100799991,-5.96962332499993,0.0],[-36.479310970999904,-5.969624336999914,0.0],[-36.46034413499996,-5.969624348999957,0.0],[-36.4603441509999,-5.969622667999943,0.0],[-36.46034426199992,-5.965255980999927,0.0],[-36.44453568299991,-5.965255989999946,0.0],[-36.4445355709999,-5.968044345999942,0.0]]]]}}]}