{"type":"FeatureCollection","features":[{"type":"Feature","properties":{"PROCESSO":"848231/2012","NUMERO":848231,"ANO":2012,"AREA_HA":54.03,"ID":"{22D1AFDE-CBD4-4BE2-B3B3-BA25D1A54ABD}","FASE":"AUTORIZAÇÃO DE PESQUISA","ULT_EVENTO":"2275 - APTO DISP/ÁREA APTA PARA DISPONIBILIDADE EM 29/04/2025","NOME":"COOPERATIVA DOS MINERADORES DE SAO TOME","SUBS":"SCHEELITA","USO":"Industrial","UF":"RN","DSProcesso":"848.231/2012","Bloco":null,"layer":"processo_50km","path":"C:\\Users\\UsrMina07\\Desktop\\GILMAR\\Projeto Bonfim\\05. Arquivos Gis\\07. Temporários\\processo_50km.shp|subset=\"SUBS\" IN (\r\n    'MINÉRIO DE TUNGSTÊNIO',\r\n    'TUNGSTÊNIO',\r\n    'SCHEELITA'\r\n)","ORDEM":69,"LATITUDE":-5.96628272,"LONGITUDE":-36.14285012},"geometry":{"type":"MultiPolygon","coordinates":[[[[-36.14152628399995,-5.957948643999941,0.0],[-36.1415262939999,-5.974616804999926,0.0],[-36.14417404999995,-5.974616800999911,0.0],[-36.14417384099994,-5.957948644999931,0.0],[-36.14152628399995,-5.957948643999941,0.0]]]]}}]}