{"type":"FeatureCollection","features":[{"type":"Feature","properties":{"PROCESSO":"848016/2016","NUMERO":848016,"ANO":2016,"AREA_HA":935.95,"ID":"{89C31624-DC16-4450-A3B2-B426FC94240A}","FASE":"AUTORIZAÇÃO DE PESQUISA","ULT_EVENTO":"794 - AUT PESQ/RELATÓRIO FINAL PESQUISA POSITIVO PROTOC EM 02/04/2026","NOME":"MINERADORA NOSSO SENHOR DO BONFIM LTDA","SUBS":"MINÉRIO DE BISMUTO","USO":"Industrial","UF":"RN","DSProcesso":"848.016/2016","Bloco":"Bloco Bonfim","layer":"bloco_bonfim","path":"C:\\Users\\UsrMina07\\Desktop\\GILMAR\\Projeto Bonfim\\05. Arquivos Gis\\07. Temporários\\bloco_bonfim.shp","ORDEM":48,"LATITUDE":-5.87339361,"LONGITUDE":-36.14393486},"geometry":{"type":"MultiPolygon","coordinates":[[[[-36.10575045199994,-5.855530847999944,0.0],[-36.10575033999993,-5.857360949999929,0.0],[-36.10981578299993,-5.857361112999911,0.0],[-36.10981562199993,-5.859161600999926,0.0],[-36.11042076699994,-5.859161607999908,0.0],[-36.11042078899993,-5.857382805999919,0.0],[-36.112831713999924,-5.857382831999928,0.0],[-36.11283157299994,-5.857383679999941,0.0],[-36.119191059999935,-5.857383660999915,0.0],[-36.119191057999956,-5.85705001599996,0.0],[-36.12822106899995,-5.857049786999937,0.0],[-36.12822107099993,-5.857184654999912,0.0],[-36.125917530999914,-5.857184684999936,0.0],[-36.12591753299995,-5.857329387999926,0.0],[-36.12570993799994,-5.857329390999951,0.0],[-36.125710022999954,-5.864565327999912,0.0],[-36.13120032499995,-5.864565249999941,0.0],[-36.13120032599994,-5.864643022999928,0.0],[-36.130947514999946,-5.864643026999943,0.0],[-36.130947772999946,-5.871879969999952,0.0],[-36.13311414699996,-5.871879932999946,0.0],[-36.133114202999934,-5.874907444999906,0.0],[-36.1357527909999,-5.874907253999936,0.0],[-36.13575330099991,-5.886078610999959,0.0],[-36.13575615199994,-5.886078610999959,0.0],[-36.135756158999925,-5.874910837999948,0.0],[-36.136558031999925,-5.874910837999948,0.0],[-36.136558032999915,-5.879142821999949,0.0],[-36.13762533899995,-5.879142821999949,0.0],[-36.13762534399996,-5.88394552099993,0.0],[-36.14214059699992,-5.883945507999954,0.0],[-36.1421405719999,-5.879141937999918,0.0],[-36.14249638699994,-5.879141936999929,0.0],[-36.14249642599992,-5.886323658999913,0.0],[-36.14368306299991,-5.88632365199993,0.0],[-36.143683101999954,-5.892326339999954,0.0],[-36.15475554299991,-5.892326053999909,0.0],[-36.15475553199991,-5.856302248999953,0.0],[-36.13840111099995,-5.856302695999943,0.0],[-36.13840111099995,-5.863542561999907,0.0],[-36.13979784399993,-5.863542551999956,0.0],[-36.139797991999956,-5.864643952999927,0.0],[-36.13121301299992,-5.864644126999906,0.0],[-36.13121301299992,-5.864574450999953,0.0],[-36.13700133999993,-5.864574433999906,0.0],[-36.13700133399993,-5.863542709999933,0.0],[-36.13839833299994,-5.863542561999907,0.0],[-36.13839833299994,-5.856302695999943,0.0],[-36.13415402599992,-5.85630281199991,0.0],[-36.13415402599992,-5.856440261999921,0.0],[-36.13261350599993,-5.856440255999928,0.0],[-36.132613507999906,-5.856002776999958,0.0],[-36.12838780499993,-5.85600275999991,0.0],[-36.12838780599992,-5.856440277999923,0.0],[-36.12588727799994,-5.856440280999948,0.0],[-36.12588727699995,-5.856002749999959,0.0],[-36.12582306699994,-5.856002748999913,0.0],[-36.12582306799993,-5.856535869999959,0.0],[-36.124423565999905,-5.856535873999917,0.0],[-36.124423548999914,-5.855529227999909,0.0],[-36.11283176299992,-5.855529429999933,0.0],[-36.11283173399994,-5.855530844999919,0.0],[-36.10575045199994,-5.855530847999944,0.0]]]]}}]}