{"type":"FeatureCollection","features":[{"type":"Feature","properties":{"PROCESSO":"848111/2000","NUMERO":848111,"ANO":2000,"AREA_HA":800.81,"ID":"{2438898A-4370-4898-A121-44ABEA4BA9CC}","FASE":"CONCESSÃO DE LAVRA","ULT_EVENTO":"418 - CONC LAV/RAL ANO BASE APRESENTADO EM 11/03/2026","NOME":"MINERACAO E COMERCIO ITAOBI LTDA","SUBS":"QUARTZITO","USO":"Revestimento","UF":"RN","DSProcesso":"848.111/2000","Bloco":"Bloco Bonfim","layer":"bloco_bonfim","path":"C:\\Users\\UsrMina07\\Desktop\\GILMAR\\Projeto Bonfim\\05. Arquivos Gis\\07. Temporários\\bloco_bonfim.shp","ORDEM":31,"LATITUDE":-5.80955785,"LONGITUDE":-36.11670391},"geometry":{"type":"MultiPolygon","coordinates":[[[[-36.11185732799993,-5.821674751999922,0.0],[-36.130247769999926,-5.821674462999908,0.0],[-36.13024692099992,-5.794545910999943,0.0],[-36.12115017299993,-5.794546193999906,0.0],[-36.12115017599996,-5.799164563999909,0.0],[-36.110290078999924,-5.799164570999949,0.0],[-36.110290075999956,-5.794546199999957,0.0],[-36.10697643499992,-5.794546201999935,0.0],[-36.10697615999993,-5.798692346999928,0.0],[-36.10316057099993,-5.798692348999907,0.0],[-36.1031603049999,-5.819951131999915,0.0],[-36.11185732699994,-5.819951126999911,0.0],[-36.11185732799993,-5.821674751999922,0.0]]]]}}]}