{"type":"FeatureCollection","features":[{"type":"Feature","properties":{"PROCESSO":"848384/2012","NUMERO":848384,"ANO":2012,"AREA_HA":1157.65,"ID":"{25A0C3F8-C2EB-4C1D-8CFD-A5F0BDB8C73F}","FASE":"AUTORIZAÇÃO DE PESQUISA","ULT_EVENTO":"2481 - AUT PESQ/VENCIMENTO ALVARÁ ALTERADO RESOLUÇÃO 76/2021-COVID EM 01/10/2021","NOME":"MINERADORA NOSSO SENHOR DO BONFIM LTDA","SUBS":"MINÉRIO DE TUNGSTÊNIO","USO":"Industrial","UF":"RN","DSProcesso":"848.384/2012","Bloco":null,"layer":"processo_50km","path":"C:\\Users\\UsrMina07\\Desktop\\GILMAR\\Projeto Bonfim\\05. Arquivos Gis\\07. Temporários\\processo_50km.shp|subset=\"SUBS\" IN (\r\n    'MINÉRIO DE TUNGSTÊNIO',\r\n    'TUNGSTÊNIO',\r\n    'SCHEELITA'\r\n)","ORDEM":17,"LATITUDE":-5.74764091,"LONGITUDE":-36.20603127},"geometry":{"type":"MultiPolygon","coordinates":[[[[-36.1877454559999,-5.736310683999932,0.0],[-36.187745468999935,-5.758971143999929,0.0],[-36.18730102099994,-5.758971144999919,0.0],[-36.18730102299992,-5.762115336999955,0.0],[-36.22431801899995,-5.762114204999932,0.0],[-36.22431633799994,-5.736309551999909,0.0],[-36.1877454559999,-5.736310683999932,0.0]]]]}}]}