{"type":"FeatureCollection","features":[{"type":"Feature","properties":{"PROCESSO":"848302/2016","NUMERO":848302,"ANO":2016,"AREA_HA":1258.57,"ID":"{F695C087-99CA-4FB9-A628-1B65DBD5B43F}","FASE":"AUTORIZAÇÃO DE PESQUISA","ULT_EVENTO":"236 - AUT PESQ/DOCUMENTO DIVERSO PROTOC EM 02/05/2024","NOME":"MINERADORA NOSSO SENHOR DO BONFIM LTDA","SUBS":"MINÉRIO DE TUNGSTÊNIO","USO":"Industrial","UF":"RN","DSProcesso":"848.302/2016","Bloco":"Bloco Bonfim","layer":"bloco_bonfim","path":"C:\\Users\\UsrMina07\\Desktop\\GILMAR\\Projeto Bonfim\\05. Arquivos Gis\\07. Temporários\\bloco_bonfim.shp","ORDEM":7,"LATITUDE":-5.64666667,"LONGITUDE":-36.10514028},"geometry":{"type":"MultiPolygon","coordinates":[[[[-36.11695833299996,-5.611235277999924,0.0],[-36.11695833299996,-5.628261110999915,0.0],[-36.094361110999955,-5.628261110999915,0.0],[-36.094361110999955,-5.627531388999955,0.0],[-36.08416305599991,-5.627531388999955,0.0],[-36.08416305599991,-5.642044721999923,0.0],[-36.09035222199992,-5.642044721999923,0.0],[-36.09035222199992,-5.639794443999961,0.0],[-36.09944666699994,-5.639794443999961,0.0],[-36.09944666699994,-5.642883332999929,0.0],[-36.098055555999906,-5.642883332999929,0.0],[-36.098055555999906,-5.649444443999926,0.0],[-36.09333333299992,-5.649444443999926,0.0],[-36.09333333299992,-5.642883332999929,0.0],[-36.09432527799993,-5.642883332999929,0.0],[-36.09432527799993,-5.641605832999915,0.0],[-36.09190111099991,-5.641605832999915,0.0],[-36.09190111099991,-5.643888888999925,0.0],[-36.08416305599991,-5.643888888999925,0.0],[-36.08416305599991,-5.651833332999956,0.0],[-36.111541666999926,-5.651833332999956,0.0],[-36.111541666999926,-5.678988888999925,0.0],[-36.112225,-5.678988888999925,0.0],[-36.112225,-5.629305555999906,0.0],[-36.139305555999954,-5.629305555999906,0.0],[-36.139305555999954,-5.611235277999924,0.0],[-36.11695833299996,-5.611235277999924,0.0]]]]}}]}