{"type":"FeatureCollection","features":[{"type":"Feature","properties":{"PROCESSO":"848174/2017","NUMERO":848174,"ANO":2017,"AREA_HA":16.69,"ID":"{E186B54E-3FA7-4C23-9CED-B7F58D45E1F0}","FASE":"AUTORIZAÇÃO DE PESQUISA","ULT_EVENTO":"794 - AUT PESQ/RELATÓRIO FINAL PESQUISA POSITIVO PROTOC EM 25/09/2024","NOME":"MINERADORA NOSSO SENHOR DO BONFIM LTDA","SUBS":"MINÉRIO DE OURO","USO":"Industrial","UF":"RN","DSProcesso":"848.174/2017","Bloco":"Bloco Bonfim","layer":"bloco_bonfim","path":"C:\\Users\\UsrMina07\\Desktop\\GILMAR\\Projeto Bonfim\\05. Arquivos Gis\\07. Temporários\\bloco_bonfim.shp","ORDEM":21,"LATITUDE":-5.78490831,"LONGITUDE":-36.13165779},"geometry":{"type":"MultiPolygon","coordinates":[[[[-36.12550681099992,-5.747659146999922,0.0],[-36.125506801999904,-5.774893413999905,0.0],[-36.131635203999906,-5.774893377999945,0.0],[-36.13163543199994,-5.794923211999958,0.0],[-36.13047881399996,-5.794923223999945,0.0],[-36.13047895799991,-5.810386426999912,0.0],[-36.1495317209999,-5.810385926999913,0.0],[-36.14953173799995,-5.810788332999948,0.0],[-36.1497304369999,-5.810788332999948,0.0],[-36.1497304369999,-5.810294637999959,0.0],[-36.13053026599994,-5.810294648999957,0.0],[-36.13053025699992,-5.794994524999936,0.0],[-36.13168026699992,-5.794994523999947,0.0],[-36.131680255999925,-5.77479436099992,0.0],[-36.12563020199991,-5.774794363999945,0.0],[-36.12563018599991,-5.74784414599992,0.0],[-36.131483293999906,-5.747844142999952,0.0],[-36.13148329999996,-5.756794214999957,0.0],[-36.13593028299994,-5.756794212999921,0.0],[-36.13593028299994,-5.756594209999946,0.0],[-36.13193024699996,-5.756594212999914,0.0],[-36.13193024199995,-5.747286388999953,0.0],[-36.13169974999994,-5.747286388999953,0.0],[-36.131699770999944,-5.747658834999925,0.0],[-36.12550681099992,-5.747659146999922,0.0]]]]}}]}