{"type":"FeatureCollection","features":[{"type":"Feature","properties":{"PROCESSO":"848283/2016","NUMERO":848283,"ANO":2016,"AREA_HA":1981.81,"ID":"{B3F8FAC4-B123-44C7-AF06-823A0010DCE9}","FASE":"AUTORIZAÇÃO DE PESQUISA","ULT_EVENTO":"540 - AUT PESQ/TRANSF DIREITOS-CESSÃO PARCIAL EFETIVADA EM 24/03/2025","NOME":"MINERADORA NOSSO SENHOR DO BONFIM LTDA","SUBS":"MINÉRIO DE OURO","USO":"Industrial","UF":"RN","DSProcesso":"848.283/2016","Bloco":"Bloco Bonfim","layer":"bloco_bonfim","path":"C:\\Users\\UsrMina07\\Desktop\\GILMAR\\Projeto Bonfim\\05. Arquivos Gis\\07. Temporários\\bloco_bonfim.shp","ORDEM":61,"LATITUDE":-5.90513958,"LONGITUDE":-36.32078639},"geometry":{"type":"MultiPolygon","coordinates":[[[[-36.31175611099991,-5.874395,0.0],[-36.31175611099991,-5.913277499999936,0.0],[-36.30227222199994,-5.913277499999936,0.0],[-36.30227228599995,-5.91327926799994,0.0],[-36.30227222199994,-5.91552113399996,0.0],[-36.30227222199994,-5.934979774999931,0.0],[-36.31085064599995,-5.934980076999921,0.0],[-36.31085062799991,-5.938040325999907,0.0],[-36.310897506999936,-5.938040327999943,0.0],[-36.31089751399992,-5.948997221999946,0.0],[-36.32981611099996,-5.948997221999946,0.0],[-36.32981611099996,-5.928651388999924,0.0],[-36.32620388899994,-5.928651388999924,0.0],[-36.32620388899994,-5.915087499999913,0.0],[-36.32629401899993,-5.915087498999924,0.0],[-36.32981666699993,-5.915087516999961,0.0],[-36.32981666699993,-5.915047043999948,0.0],[-36.32981666699993,-5.897001666999927,0.0],[-36.33433194399993,-5.897001666999927,0.0],[-36.33433194399993,-5.874395,0.0],[-36.31175611099991,-5.874395,0.0]]]]}}]}