{"type":"FeatureCollection","features":[{"type":"Feature","properties":{"PROCESSO":"848134/1996","NUMERO":848134,"ANO":1996,"AREA_HA":50.0,"ID":"{D73752E5-F4D9-4B14-A6F9-A41384BC1495}","FASE":"LAVRA GARIMPEIRA","ULT_EVENTO":"530 - PLG/EXIGÊNCIA PUBL EM 10/11/2025","NOME":"ALFREDO HEIN NETO","SUBS":"SCHEELITA","USO":"Demais substâncias","UF":"RN","DSProcesso":"848.134/1996","Bloco":null,"layer":"processo_50km","path":"C:\\Users\\UsrMina07\\Desktop\\GILMAR\\Projeto Bonfim\\05. Arquivos Gis\\07. Temporários\\processo_50km.shp|subset=\"SUBS\" IN (\r\n    'MINÉRIO DE TUNGSTÊNIO',\r\n    'TUNGSTÊNIO',\r\n    'SCHEELITA'\r\n)","ORDEM":30,"LATITUDE":-5.80659428,"LONGITUDE":-36.30706698},"geometry":{"type":"MultiPolygon","coordinates":[[[[-36.30480967799991,-5.802072887999941,0.0],[-36.30480968299992,-5.811115695999945,0.0],[-36.30932432599991,-5.81111567499994,0.0],[-36.30932424899993,-5.802072867999925,0.0],[-36.30480967799991,-5.802072887999941,0.0]]]]}}]}