{"type":"FeatureCollection","features":[{"type":"Feature","properties":{"PROCESSO":"848253/2022","NUMERO":848253,"ANO":2022,"AREA_HA":166.78,"ID":"{A12DCA32-FBAE-44E9-AAEB-856CA0310BE3}","FASE":"AUTORIZAÇÃO DE PESQUISA","ULT_EVENTO":"265 - AUT PESQ/PRORROGAÇÃO PRAZO ALVARÁ-SOLICITAÇÃO PROTOC EM 18/12/2025","NOME":"MINERADORA NOSSO SENHOR DO BONFIM LTDA","SUBS":"ILMENITA","USO":"Industrial","UF":"RN","DSProcesso":"848.253/2022","Bloco":"Bloco Bonfim","layer":"bloco_bonfim","path":"C:\\Users\\UsrMina07\\Desktop\\GILMAR\\Projeto Bonfim\\05. Arquivos Gis\\07. Temporários\\bloco_bonfim.shp","ORDEM":37,"LATITUDE":-5.83984153,"LONGITUDE":-36.14375542},"geometry":{"type":"MultiPolygon","coordinates":[[[[-36.14658333299991,-5.852456110999924,0.0],[-36.14866944399995,-5.852456110999924,0.0],[-36.14866944399995,-5.848631110999918,0.0],[-36.147925,-5.848631110999918,0.0],[-36.147925,-5.845318610999925,0.0],[-36.14706666699993,-5.845318610999925,0.0],[-36.14706666699993,-5.842439443999922,0.0],[-36.14622222199995,-5.842439443999922,0.0],[-36.14622222199995,-5.838604721999957,0.0],[-36.14545527799993,-5.838604721999957,0.0],[-36.14545527799993,-5.834964166999953,0.0],[-36.1442191669999,-5.834964166999953,0.0],[-36.1442191669999,-5.831441943999948,0.0],[-36.14288027799995,-5.831441943999948,0.0],[-36.14288027799995,-5.828875277999941,0.0],[-36.14173305599991,-5.828875277999941,0.0],[-36.14173305599991,-5.826447499999915,0.0],[-36.1405136109999,-5.826447499999915,0.0],[-36.1405136109999,-5.826331110999945,0.0],[-36.13323583299996,-5.826331110999945,0.0],[-36.13323583299996,-5.831814166999948,0.0],[-36.140021943999955,-5.831814166999948,0.0],[-36.140021943999955,-5.835655832999919,0.0],[-36.14073305599993,-5.835655832999919,0.0],[-36.14073305599993,-5.838464443999953,0.0],[-36.141288610999936,-5.838464443999953,0.0],[-36.141288610999936,-5.841078332999928,0.0],[-36.141935832999934,-5.841078332999928,0.0],[-36.141935832999934,-5.843411666999941,0.0],[-36.142446943999914,-5.843411666999941,0.0],[-36.142446943999914,-5.844772777999935,0.0],[-36.14316916699994,-5.844772777999935,0.0],[-36.14316916699994,-5.846272777999957,0.0],[-36.14385805599994,-5.846272777999957,0.0],[-36.14385805599994,-5.847911666999948,0.0],[-36.144546943999956,-5.847911666999948,0.0],[-36.144546943999956,-5.849033888999941,0.0],[-36.146036110999944,-5.849033888999941,0.0],[-36.146036110999944,-5.851161666999928,0.0],[-36.14658333299991,-5.851161666999928,0.0],[-36.14658333299991,-5.852456110999924,0.0]]]]}}]}