{"type":"FeatureCollection","features":[{"type":"Feature","properties":{"PROCESSO":"848216/2014","NUMERO":848216,"ANO":2014,"AREA_HA":55.8,"ID":"{7FD417B3-6C23-4C50-8F32-B4ECF7DBF710}","FASE":"AUTORIZAÇÃO DE PESQUISA","ULT_EVENTO":"794 - AUT PESQ/RELATÓRIO FINAL PESQUISA POSITIVO PROTOC EM 25/09/2024","NOME":"MINERADORA NOSSO SENHOR DO BONFIM LTDA","SUBS":"MINÉRIO DE OURO","USO":"Industrial","UF":"RN","DSProcesso":"848.216/2014","Bloco":"Bloco Bonfim","layer":"bloco_bonfim","path":"C:\\Users\\UsrMina07\\Desktop\\GILMAR\\Projeto Bonfim\\05. Arquivos Gis\\07. Temporários\\bloco_bonfim.shp","ORDEM":41,"LATITUDE":-5.84364797,"LONGITUDE":-36.1279575},"geometry":{"type":"MultiPolygon","coordinates":[[[[-36.12866191899991,-5.838350799999944,0.0],[-36.12866191899991,-5.838356262999923,0.0],[-36.12589558499991,-5.83835625699993,0.0],[-36.12589552599991,-5.849927416999947,0.0],[-36.130330287999925,-5.849927412999932,0.0],[-36.13033028499996,-5.844778260999931,0.0],[-36.13001944899992,-5.844778260999931,0.0],[-36.13001944699994,-5.84251768799993,0.0],[-36.129116660999955,-5.84251768799993,0.0],[-36.12911681399993,-5.838350766999952,0.0],[-36.12866191899991,-5.838350799999944,0.0]]]]}}]}