{"type":"FeatureCollection","features":[{"type":"Feature","properties":{"PROCESSO":"848599/2008","NUMERO":848599,"ANO":2008,"AREA_HA":50.0,"ID":"{0D43B4FF-F7F1-41C3-9B77-D1E4914F3A2B}","FASE":"LAVRA GARIMPEIRA","ULT_EVENTO":"513 - PLG/PERMISSÃO LAVRA GARIMPEIRA PUBL EM 04/11/2014","NOME":"joao bosco andrade e sousa","SUBS":"SCHEELITA","USO":"Industrial","UF":"RN","DSProcesso":"848.599/2008","Bloco":null,"layer":"processo_50km","path":"C:\\Users\\UsrMina07\\Desktop\\GILMAR\\Projeto Bonfim\\05. Arquivos Gis\\07. Temporários\\processo_50km.shp|subset=\"SUBS\" IN (\r\n    'MINÉRIO DE TUNGSTÊNIO',\r\n    'TUNGSTÊNIO',\r\n    'SCHEELITA'\r\n)","ORDEM":50,"LATITUDE":-5.87094931,"LONGITUDE":-36.11719282},"geometry":{"type":"MultiPolygon","coordinates":[[[[-36.1149351599999,-5.866427889999954,0.0],[-36.114935164999906,-5.875470740999958,0.0],[-36.11945048299992,-5.875470738999923,0.0],[-36.11945047799992,-5.866427887999919,0.0],[-36.1149351599999,-5.866427889999954,0.0]]]]}}]}