{"type":"FeatureCollection","features":[{"type":"Feature","properties":{"PROCESSO":"848142/2026","NUMERO":848142,"ANO":2026,"AREA_HA":1553.74,"ID":"{A294C022-36C4-403A-8C3A-763811F2D745}","FASE":"AUTORIZAÇÃO DE PESQUISA","ULT_EVENTO":"100 - REQ PESQ/REQUERIMENTO PESQUISA PROTOC EM 01/06/2026","NOME":"C A DE ASSUNCAO GEOMETRIC CONSULTORIA AMBIENTAL","SUBS":"MINÉRIO DE TUNGSTÊNIO","USO":"Industrial","UF":"RN","DSProcesso":"848.142/2026","Bloco":null,"layer":"processo_50km","path":"C:\\Users\\UsrMina07\\Desktop\\GILMAR\\Projeto Bonfim\\05. Arquivos Gis\\07. Temporários\\processo_50km.shp|subset=\"SUBS\" IN (\r\n    'MINÉRIO DE TUNGSTÊNIO',\r\n    'TUNGSTÊNIO',\r\n    'SCHEELITA'\r\n)","ORDEM":6,"LATITUDE":-5.62990758,"LONGITUDE":-36.59305972},"geometry":{"type":"MultiPolygon","coordinates":[[[[-36.612645,-5.646220559999961,0.0],[-36.612645,-5.613719169999911,0.0],[-36.57347443999993,-5.613719169999911,0.0],[-36.57347443999993,-5.646096,0.0],[-36.612625,-5.646096,0.0],[-36.612625,-5.646220559999961,0.0],[-36.612645,-5.646220559999961,0.0]]]]}}]}