{"type":"FeatureCollection","features":[{"type":"Feature","properties":{"PROCESSO":"848598/2008","NUMERO":848598,"ANO":2008,"AREA_HA":48.05,"ID":"{F57970DF-43E1-40CE-9F50-D2134A4D8AEA}","FASE":"LAVRA GARIMPEIRA","ULT_EVENTO":"523 - PLG/RENOVAÇÃO DO PRAZO PLG PUBL EM 25/05/2026","NOME":"ARY GONCALVES DE ANDRADE","SUBS":"SCHEELITA","USO":"Industrial","UF":"RN","DSProcesso":"848.598/2008","Bloco":null,"layer":"processo_50km","path":"C:\\Users\\UsrMina07\\Desktop\\GILMAR\\Projeto Bonfim\\05. Arquivos Gis\\07. Temporários\\processo_50km.shp|subset=\"SUBS\" IN (\r\n    'MINÉRIO DE TUNGSTÊNIO',\r\n    'TUNGSTÊNIO',\r\n    'SCHEELITA'\r\n)","ORDEM":53,"LATITUDE":-5.879815,"LONGITUDE":-36.11719894},"geometry":{"type":"MultiPolygon","coordinates":[[[[-36.114941280999915,-5.884161644999949,0.0],[-36.115179276999925,-5.88416164399996,0.0],[-36.115179276999925,-5.884159434999958,0.0],[-36.11945659899993,-5.88415938199995,0.0],[-36.11945659399993,-5.87511879099992,0.0],[-36.119450367999946,-5.87511879099992,0.0],[-36.119450370999914,-5.875470607999944,0.0],[-36.11494127599991,-5.87547062799996,0.0],[-36.114941280999915,-5.884161644999949,0.0]]]]}}]}