{"type":"FeatureCollection","features":[{"type":"Feature","properties":{"PROCESSO":"848313/2015","NUMERO":848313,"ANO":2015,"AREA_HA":734.26,"ID":"{D98309AD-6D6A-49A9-9598-6BCFE7B3627C}","FASE":"AUTORIZAÇÃO DE PESQUISA","ULT_EVENTO":"794 - AUT PESQ/RELATÓRIO FINAL PESQUISA POSITIVO PROTOC EM 16/05/2024","NOME":"MINERADORA NOSSO SENHOR DO BONFIM LTDA","SUBS":"MINÉRIO DE TUNGSTÊNIO","USO":"Industrial","UF":"RN","DSProcesso":"848.313/2015","Bloco":"Bloco Bonfim","layer":"bloco_bonfim","path":"C:\\Users\\UsrMina07\\Desktop\\GILMAR\\Projeto Bonfim\\05. Arquivos Gis\\07. Temporários\\bloco_bonfim.shp","ORDEM":51,"LATITUDE":-5.87731806,"LONGITUDE":-36.16179597},"geometry":{"type":"MultiPolygon","coordinates":[[[[-36.15475555599994,-5.856302221999954,0.0],[-36.15475555599994,-5.897061943999915,0.0],[-36.155329372999915,-5.897061943999915,0.0],[-36.15532914999994,-5.886233326999957,0.0],[-36.15599569799991,-5.886233310999955,0.0],[-36.15599640699992,-5.897061943999915,0.0],[-36.156002765999915,-5.897061943999915,0.0],[-36.15600276299995,-5.891102786999909,0.0],[-36.16164031299991,-5.891102783999941,0.0],[-36.16164035699995,-5.897061958999927,0.0],[-36.172933610999905,-5.897061943999915,0.0],[-36.172933610999905,-5.89110833299992,0.0],[-36.16727972199993,-5.89110833299992,0.0],[-36.16727972199993,-5.886588888999938,0.0],[-36.163941666999904,-5.886588888999938,0.0],[-36.163941666999904,-5.885883332999924,0.0],[-36.162725,-5.885883332999924,0.0],[-36.162725,-5.884366666999938,0.0],[-36.1619305559999,-5.884366666999938,0.0],[-36.1619305559999,-5.883111110999948,0.0],[-36.16138888899991,-5.883111110999948,0.0],[-36.16138888899991,-5.882019443999923,0.0],[-36.162622221999925,-5.882019443999923,0.0],[-36.162622221999925,-5.882397221999952,0.0],[-36.16319166699992,-5.882397221999952,0.0],[-36.16319166699992,-5.883369443999925,0.0],[-36.16398611099993,-5.883369443999925,0.0],[-36.16398611099993,-5.884344443999908,0.0],[-36.16458055599992,-5.884344443999908,0.0],[-36.16458055599992,-5.88545,0.0],[-36.16523888899991,-5.88545,0.0],[-36.16523888899991,-5.886558610999941,0.0],[-36.16727972199993,-5.886558610999941,0.0],[-36.16727972199993,-5.885231110999939,0.0],[-36.17366638899995,-5.885231110999939,0.0],[-36.17366638899995,-5.883872221999923,0.0],[-36.178570555999954,-5.883872221999923,0.0],[-36.178570555999954,-5.876638888999935,0.0],[-36.172926666999956,-5.876638888999935,0.0],[-36.172926666999956,-5.877997221999919,0.0],[-36.16883638899992,-5.877997221999919,0.0],[-36.16883638899992,-5.869506001999923,0.0],[-36.168020751999904,-5.869505990999926,0.0],[-36.168020320999915,-5.858954199999914,0.0],[-36.16883638899992,-5.85895417699993,0.0],[-36.16883638899992,-5.858600849999959,0.0],[-36.16845646599995,-5.858600849999959,0.0],[-36.168456464999906,-5.856495,0.0],[-36.15553051599994,-5.856495007999911,0.0],[-36.15553051599994,-5.856302221999954,0.0],[-36.15475555599994,-5.856302221999954,0.0]]]]}}]}