{"type":"FeatureCollection","features":[{"type":"Feature","properties":{"PROCESSO":"848597/2008","NUMERO":848597,"ANO":2008,"AREA_HA":46.06,"ID":"{1CDC975D-A85F-44AF-B491-64C0C5737AAB}","FASE":"LAVRA GARIMPEIRA","ULT_EVENTO":"1299 - PLG/OPÇÃO REGIME AUTORIZAÇÃO PESQ AUTORIZADA PUBL EM 07/02/2020","NOME":"ARY GONCALVES DE ANDRADE","SUBS":"SCHEELITA","USO":"Industrial","UF":"RN","DSProcesso":"848.597/2008","Bloco":null,"layer":"processo_50km","path":"C:\\Users\\UsrMina07\\Desktop\\GILMAR\\Projeto Bonfim\\05. Arquivos Gis\\07. Temporários\\processo_50km.shp|subset=\"SUBS\" IN (\r\n    'MINÉRIO DE TUNGSTÊNIO',\r\n    'TUNGSTÊNIO',\r\n    'SCHEELITA'\r\n)","ORDEM":54,"LATITUDE":-5.87978745,"LONGITUDE":-36.11280154},"geometry":{"type":"MultiPolygon","coordinates":[[[[-36.11066404799993,-5.884254387999931,0.0],[-36.11517711599993,-5.884254384999906,0.0],[-36.11517711599993,-5.88416150899991,0.0],[-36.11494125899992,-5.88416150899991,0.0],[-36.114941323999915,-5.87547062799996,0.0],[-36.11493521199992,-5.87547062799996,0.0],[-36.11066179399995,-5.875470613999937,0.0],[-36.110661798999956,-5.884104277999938,0.0],[-36.11066404899992,-5.884104277999938,0.0],[-36.11066404799993,-5.884254387999931,0.0]]]]}}]}