{"type":"FeatureCollection","features":[{"type":"Feature","properties":{"PROCESSO":"894/1944","NUMERO":894,"ANO":1944,"AREA_HA":189.58,"ID":"{C43EE709-F95F-4982-9695-F33EEC63EC48}","FASE":"CONCESSÃO DE LAVRA","ULT_EVENTO":"418 - CONC LAV/RAL ANO BASE APRESENTADO EM 12/03/2026","NOME":"METAIS DO SERIDO S/A-METASA","SUBS":"TUNGSTÊNIO","USO":"Demais substâncias","UF":"RN","DSProcesso":"000.894/1944","Bloco":null,"layer":"processo_50km","path":"C:\\Users\\UsrMina07\\Desktop\\GILMAR\\Projeto Bonfim\\05. Arquivos Gis\\07. Temporários\\processo_50km.shp|subset=\"SUBS\" IN (\r\n    'MINÉRIO DE TUNGSTÊNIO',\r\n    'TUNGSTÊNIO',\r\n    'SCHEELITA'\r\n)","ORDEM":77,"LATITUDE":-5.98896041,"LONGITUDE":-36.41527868},"geometry":{"type":"MultiPolygon","coordinates":[[[[-36.41543806899995,-5.984371136999926,0.0],[-36.40348630699992,-5.99167013999994,0.0],[-36.41172139199995,-5.997315534999927,0.0],[-36.41800541199996,-5.996617267999909,0.0],[-36.42427204799992,-5.986250683999913,0.0],[-36.41543806899995,-5.984371136999926,0.0]]]]}}]}