{"type":"FeatureCollection","features":[{"type":"Feature","properties":{"PROCESSO":"848312/2015","NUMERO":848312,"ANO":2015,"AREA_HA":1951.15,"ID":"{F683464B-1C7D-454A-BE4B-E3D551678917}","FASE":"AUTORIZAÇÃO DE PESQUISA","ULT_EVENTO":"694 - PAGAMENTO VISTORIA FISCALIZAÇÃO EFETUADO EM 29/04/2024","NOME":"MINERADORA NOSSO SENHOR DO BONFIM LTDA","SUBS":"ILMENITA","USO":"Industrial","UF":"RN","DSProcesso":"848.312/2015","Bloco":"Bloco Bonfim","layer":"bloco_bonfim","path":"C:\\Users\\UsrMina07\\Desktop\\GILMAR\\Projeto Bonfim\\05. Arquivos Gis\\07. Temporários\\bloco_bonfim.shp","ORDEM":11,"LATITUDE":-5.67056236,"LONGITUDE":-36.12577641},"geometry":{"type":"MultiPolygon","coordinates":[[[[-36.112236666999934,-5.629943429999912,0.0],[-36.112236666999934,-5.683569166999916,0.0],[-36.115760060999946,-5.683569234999936,0.0],[-36.121261433999905,-5.683569340999952,0.0],[-36.12126129899991,-5.692417551999938,0.0],[-36.121261388999926,-5.692612221999923,0.0],[-36.13193021099994,-5.692612370999939,0.0],[-36.139316063999956,-5.692612358999952,0.0],[-36.13931605699992,-5.691934010999944,0.0],[-36.13931622299992,-5.65755555599992,0.0],[-36.13908944399992,-5.65755555599992,0.0],[-36.13908944399992,-5.657473610999944,0.0],[-36.138959721999925,-5.657473610999944,0.0],[-36.138959721999925,-5.657313888999909,0.0],[-36.13884611099991,-5.657313888999909,0.0],[-36.13884611099991,-5.657152499999938,0.0],[-36.13868472199994,-5.657152499999938,0.0],[-36.13868472199994,-5.656966388999933,0.0],[-36.13856249999992,-5.656966388999933,0.0],[-36.13856249999992,-5.656801666999911,0.0],[-36.138425,-5.656801666999911,0.0],[-36.138425,-5.656617777999941,0.0],[-36.138318055999946,-5.656617777999941,0.0],[-36.138318055999946,-5.65648,0.0],[-36.13817916699992,-5.65648,0.0],[-36.13817916699992,-5.656288610999923,0.0],[-36.13806388899991,-5.656288610999923,0.0],[-36.13806388899991,-5.65614527799994,0.0],[-36.13794666699994,-5.65614527799994,0.0],[-36.13794666699994,-5.655992221999952,0.0],[-36.137804443999926,-5.655992221999952,0.0],[-36.137804443999926,-5.655811943999936,0.0],[-36.13769972199992,-5.655811943999936,0.0],[-36.13769972199992,-5.655673610999941,0.0],[-36.137607777999904,-5.655673610999941,0.0],[-36.137607777999904,-5.655556388999912,0.0],[-36.13750638899995,-5.655556388999912,0.0],[-36.13750638899995,-5.655428332999918,0.0],[-36.13742361099992,-5.655428332999918,0.0],[-36.13742361099992,-5.655321666999953,0.0],[-36.13732277799994,-5.655321666999953,0.0],[-36.13732277799994,-5.65519833299993,0.0],[-36.13725388899991,-5.65519833299993,0.0],[-36.13725388899991,-5.655106110999952,0.0],[-36.13718527799995,-5.655106110999952,0.0],[-36.13718527799995,-5.655016110999952,0.0],[-36.13710472199995,-5.655016110999952,0.0],[-36.13710472199995,-5.654927777999944,0.0],[-36.13701444399993,-5.654927777999944,0.0],[-36.13701444399993,-5.654803888999936,0.0],[-36.13694333299992,-5.654803888999936,0.0],[-36.13694333299992,-5.654715,0.0],[-36.13687,-5.654715,0.0],[-36.13687,-5.654634443999953,0.0],[-36.136815277999915,-5.654634443999953,0.0],[-36.136815277999915,-5.654545277999944,0.0],[-36.136724166999954,-5.654545277999944,0.0],[-36.136724166999954,-5.654436666999914,0.0],[-36.13666111099991,-5.654436666999914,0.0],[-36.13666111099991,-5.654354721999937,0.0],[-36.13661222199994,-5.654354721999937,0.0],[-36.13661222199994,-5.654279721999956,0.0],[-36.136535,-5.654279721999956,0.0],[-36.136535,-5.654197499999952,0.0],[-36.13647138899995,-5.654197499999952,0.0],[-36.13647138899995,-5.654147499999908,0.0],[-36.13638333299991,-5.654147499999908,0.0],[-36.13638333299991,-5.654080832999909,0.0],[-36.13625972199992,-5.654080832999909,0.0],[-36.13625972199992,-5.653933332999941,0.0],[-36.13616666699994,-5.653933332999941,0.0],[-36.13616666699994,-5.653842777999955,0.0],[-36.136085,-5.653842777999955,0.0],[-36.136085,-5.653764443999933,0.0],[-36.13599722199996,-5.653764443999933,0.0],[-36.13599722199996,-5.653699443999926,0.0],[-36.1358891669999,-5.653699443999926,0.0],[-36.1358891669999,-5.653597777999948,0.0],[-36.135797777999926,-5.653597777999948,0.0],[-36.135797777999926,-5.653503610999906,0.0],[-36.135707777999926,-5.653503610999906,0.0],[-36.135707777999926,-5.653418332999934,0.0],[-36.135598332999905,-5.653418332999934,0.0],[-36.135598332999905,-5.65331916699995,0.0],[-36.135545555999954,-5.65331916699995,0.0],[-36.135545555999954,-5.653274721999935,0.0],[-36.13544527799991,-5.653274721999935,0.0],[-36.13544527799991,-5.65317222199991,0.0],[-36.13536833299992,-5.65317222199991,0.0],[-36.13536833299992,-5.653096943999913,0.0],[-36.13529833299992,-5.653096943999913,0.0],[-36.13529833299992,-5.65303,0.0],[-36.135254166999914,-5.65303,0.0],[-36.135254166999914,-5.652968332999933,0.0],[-36.135183610999945,-5.652968332999933,0.0],[-36.135183610999945,-5.652873332999945,0.0],[-36.13511777799994,-5.652873332999945,0.0],[-36.13511777799994,-5.652775277999922,0.0],[-36.135061943999915,-5.652775277999922,0.0],[-36.135061943999915,-5.652689443999918,0.0],[-36.13498888899994,-5.652689443999918,0.0],[-36.13498888899994,-5.652608332999932,0.0],[-36.13491,-5.652608332999932,0.0],[-36.13491,-5.652493610999954,0.0],[-36.134846943999946,-5.652493610999954,0.0],[-36.134846943999946,-5.652398332999951,0.0],[-36.13479055599993,-5.652398332999951,0.0],[-36.13479055599993,-5.652309443999911,0.0],[-36.134751388999916,-5.652309443999911,0.0],[-36.134751388999916,-5.652241666999942,0.0],[-36.13470055599993,-5.652241666999942,0.0],[-36.13470055599993,-5.652170832999957,0.0],[-36.13464694399994,-5.652170832999957,0.0],[-36.13464694399994,-5.652093888999957,0.0],[-36.134615277999956,-5.652093888999957,0.0],[-36.134615277999956,-5.652052777999927,0.0],[-36.134525277999956,-5.652052777999927,0.0],[-36.134525277999956,-5.651943610999922,0.0],[-36.134466388999954,-5.651943610999922,0.0],[-36.134466388999954,-5.651834443999917,0.0],[-36.13437333299993,-5.651834443999917,0.0],[-36.13437333299993,-5.651705555999911,0.0],[-36.1342924999999,-5.651705555999911,0.0],[-36.1342924999999,-5.651604721999945,0.0],[-36.13425222199993,-5.651604721999945,0.0],[-36.13425222199993,-5.651535277999926,0.0],[-36.13422305599994,-5.651535277999926,0.0],[-36.13422305599994,-5.65147944399996,0.0],[-36.134186110999906,-5.65147944399996,0.0],[-36.134186110999906,-5.651416388999905,0.0],[-36.13414555599991,-5.651416388999905,0.0],[-36.13414555599991,-5.651346943999954,0.0],[-36.13409305599993,-5.651346943999954,0.0],[-36.13409305599993,-5.651277499999935,0.0],[-36.13402888899992,-5.651277499999935,0.0],[-36.13402888899992,-5.651183332999949,0.0],[-36.13396527799995,-5.651183332999949,0.0],[-36.13396527799995,-5.65108749999996,0.0],[-36.13391388899993,-5.65108749999996,0.0],[-36.13391388899993,-5.651015277999932,0.0],[-36.133872777999954,-5.651015277999932,0.0],[-36.133872777999954,-5.650966943999947,0.0],[-36.13382749999994,-5.650966943999947,0.0],[-36.13382749999994,-5.650933332999955,0.0],[-36.133775,-5.650933332999955,0.0],[-36.133775,-5.650893055999916,0.0],[-36.133731388999934,-5.650893055999916,0.0],[-36.133731388999934,-5.650858055999947,0.0],[-36.13368555599993,-5.650858055999947,0.0],[-36.13368555599993,-5.650821943999915,0.0],[-36.13365138899991,-5.650821943999915,0.0],[-36.13365138899991,-5.65079333299991,0.0],[-36.13361444399993,-5.65079333299991,0.0],[-36.13361444399993,-5.650764721999906,0.0],[-36.1335733329999,-5.650764721999906,0.0],[-36.1335733329999,-5.650734721999925,0.0],[-36.13354,-5.650734721999925,0.0],[-36.13354,-5.650707777999912,0.0],[-36.13350638899993,-5.650707777999912,0.0],[-36.13350638899993,-5.650680277999925,0.0],[-36.13346361099991,-5.650680277999925,0.0],[-36.13346361099991,-5.650649443999953,0.0],[-36.13343583299991,-5.650649443999953,0.0],[-36.13343583299991,-5.65062638899991,0.0],[-36.133401388999914,-5.65062638899991,0.0],[-36.133401388999914,-5.650601388999917,0.0],[-36.13336472199995,-5.650601388999917,0.0],[-36.13336472199995,-5.650574166999945,0.0],[-36.13333833299993,-5.650574166999945,0.0],[-36.13333833299993,-5.650551110999913,0.0],[-36.13329722199995,-5.650551110999913,0.0],[-36.13329722199995,-5.650521110999932,0.0],[-36.133268055999906,-5.650521110999932,0.0],[-36.133268055999906,-5.650495277999937,0.0],[-36.133238055999925,-5.650495277999937,0.0],[-36.133238055999925,-5.650473332999923,0.0],[-36.133199443999956,-5.650473332999923,0.0],[-36.133199443999956,-5.650443888999916,0.0],[-36.133165,-5.650443888999916,0.0],[-36.133165,-5.650416943999915,0.0],[-36.13314583299996,-5.650416943999915,0.0],[-36.13314583299996,-5.650400832999935,0.0],[-36.13311583299992,-5.650400832999935,0.0],[-36.13311583299992,-5.650379721999911,0.0],[-36.13308749999993,-5.650379721999911,0.0],[-36.13308749999993,-5.650357777999943,0.0],[-36.13307,-5.650357777999943,0.0],[-36.13307,-5.65034333299991,0.0],[-36.13305555599993,-5.65034333299991,0.0],[-36.13305555599993,-5.650331943999959,0.0],[-36.133025,-5.650331943999959,0.0],[-36.133025,-5.650309721999918,0.0],[-36.13300111099994,-5.650309721999918,0.0],[-36.13300111099994,-5.650289166999926,0.0],[-36.13298194399994,-5.650289166999926,0.0],[-36.13298194399994,-5.650276666999957,0.0],[-36.132965277999915,-5.650276666999957,0.0],[-36.132965277999915,-5.650262777999956,0.0],[-36.1329477779999,-5.650262777999956,0.0],[-36.1329477779999,-5.650247777999937,0.0],[-36.13291833299991,-5.650247777999937,0.0],[-36.13291833299991,-5.650225832999922,0.0],[-36.13289361099993,-5.650225832999922,0.0],[-36.13289361099993,-5.65020527799993,0.0],[-36.13287388899994,-5.65020527799993,0.0],[-36.13287388899994,-5.65019,0.0],[-36.13284722199995,-5.65019,0.0],[-36.13284722199995,-5.650170277999905,0.0],[-36.13281749999993,-5.650170277999905,0.0],[-36.13281749999993,-5.650146666999945,0.0],[-36.13279638899991,-5.650146666999945,0.0],[-36.13279638899991,-5.65013,0.0],[-36.13276611099991,-5.65013,0.0],[-36.13276611099991,-5.650107777999949,0.0],[-36.13274555599992,-5.650107777999949,0.0],[-36.13274555599992,-5.650091110999938,0.0],[-36.132727777999946,-5.650091110999938,0.0],[-36.132727777999946,-5.650074443999927,0.0],[-36.132705277999946,-5.650074443999927,0.0],[-36.132705277999946,-5.650056943999914,0.0],[-36.13268388899991,-5.650056943999914,0.0],[-36.13268388899991,-5.650041388999909,0.0],[-36.13266638899995,-5.650041388999909,0.0],[-36.13266638899995,-5.650027221999949,0.0],[-36.132655,-5.650027221999949,0.0],[-36.132655,-5.650018055999908,0.0],[-36.13263972199991,-5.650018055999908,0.0],[-36.13263972199991,-5.650006666999957,0.0],[-36.13262361099993,-5.650006666999957,0.0],[-36.13262361099993,-5.649993888999916,0.0],[-36.13260833299995,-5.649993888999916,0.0],[-36.13260833299995,-5.649984443999926,0.0],[-36.132595832999925,-5.649984443999926,0.0],[-36.132595832999925,-5.649971943999958,0.0],[-36.13258666699994,-5.649971943999958,0.0],[-36.13258666699994,-5.649965277999911,0.0],[-36.13257194399995,-5.649965277999911,0.0],[-36.13257194399995,-5.64995388899996,0.0],[-36.13255138899996,-5.64995388899996,0.0],[-36.13255138899996,-5.649939721999942,0.0],[-36.132531110999935,-5.649939721999942,0.0],[-36.132531110999935,-5.649927499999933,0.0],[-36.132473055999924,-5.649927499999933,0.0],[-36.132473055999924,-5.649882777999949,0.0],[-36.132423055999936,-5.649882777999949,0.0],[-36.132423055999936,-5.649844166999912,0.0],[-36.13237611099993,-5.649844166999912,0.0],[-36.13237611099993,-5.649808332999953,0.0],[-36.132333332999906,-5.649808332999953,0.0],[-36.132333332999906,-5.649778610999931,0.0],[-36.132305,-5.649778610999931,0.0],[-36.132305,-5.64975249999992,0.0],[-36.132268610999915,-5.64975249999992,0.0],[-36.132268610999915,-5.64973,0.0],[-36.13218944399995,-5.64973,0.0],[-36.13218944399995,-5.649769443999958,0.0],[-36.13207333299994,-5.649769443999958,0.0],[-36.13207333299994,-5.649805,0.0],[-36.13195777799996,-5.649805,0.0],[-36.13195777799996,-5.649841943999945,0.0],[-36.13183222199996,-5.649841943999945,0.0],[-36.13183222199996,-5.649899166999944,0.0],[-36.13164555599991,-5.649899166999944,0.0],[-36.13164555599991,-5.649950277999949,0.0],[-36.13147777799992,-5.649950277999949,0.0],[-36.13147777799992,-5.649990277999962,0.0],[-36.13133194399995,-5.649990277999962,0.0],[-36.13133194399995,-5.650028888999941,0.0],[-36.13119555599991,-5.650028888999941,0.0],[-36.13119555599991,-5.650065,0.0],[-36.131058055999915,-5.650065,0.0],[-36.131058055999915,-5.65011805599994,0.0],[-36.1309019439999,-5.65011805599994,0.0],[-36.1309019439999,-5.650151943999958,0.0],[-36.130795,-5.650151943999958,0.0],[-36.130795,-5.650172777999956,0.0],[-36.13048,-5.650172777999956,0.0],[-36.13048,-5.650150832999941,0.0],[-36.13035916699994,-5.650150832999941,0.0],[-36.13035916699994,-5.650137499999914,0.0],[-36.13018194399996,-5.650137499999914,0.0],[-36.13018194399996,-5.650118610999925,0.0],[-36.13004666699993,-5.650118610999925,0.0],[-36.13004666699993,-5.650104443999908,0.0],[-36.129891666999924,-5.650104443999908,0.0],[-36.129891666999924,-5.650095,0.0],[-36.12976916699995,-5.650095,0.0],[-36.12976916699995,-5.650084166999932,0.0],[-36.12950111099991,-5.650084166999932,0.0],[-36.12950111099991,-5.650057777999962,0.0],[-36.129330832999926,-5.650057777999962,0.0],[-36.129330832999926,-5.650043332999928,0.0],[-36.128764443999955,-5.650043332999928,0.0],[-36.128764443999955,-5.649998332999928,0.0],[-36.12842027799991,-5.649998332999928,0.0],[-36.12842027799991,-5.649963610999919,0.0],[-36.12793611099994,-5.649963610999919,0.0],[-36.12793611099994,-5.649988888999928,0.0],[-36.126867777999905,-5.649988888999928,0.0],[-36.126867777999905,-5.650010555999927,0.0],[-36.12612166699995,-5.650010555999927,0.0],[-36.12612166699995,-5.649952499999927,0.0],[-36.125922499999945,-5.649952499999927,0.0],[-36.125922499999945,-5.649853610999912,0.0],[-36.12577083299993,-5.649853610999912,0.0],[-36.12577083299993,-5.64977222199991,0.0],[-36.12564166699991,-5.64977222199991,0.0],[-36.12564166699991,-5.649703332999934,0.0],[-36.12552527799994,-5.649703332999934,0.0],[-36.12552527799994,-5.649642221999954,0.0],[-36.125431943999956,-5.649642221999954,0.0],[-36.125431943999956,-5.649597221999954,0.0],[-36.12534249999993,-5.649597221999954,0.0],[-36.12534249999993,-5.649552221999954,0.0],[-36.12525805599995,-5.649552221999954,0.0],[-36.12525805599995,-5.649509443999932,0.0],[-36.125174166999955,-5.649509443999932,0.0],[-36.125174166999955,-5.649468888999934,0.0],[-36.125085,-5.649468888999934,0.0],[-36.125085,-5.649421943999926,0.0],[-36.12497888899992,-5.649421943999926,0.0],[-36.12497888899992,-5.649366388999908,0.0],[-36.12487861099993,-5.649366388999908,0.0],[-36.12487861099993,-5.64931527799996,0.0],[-36.124764443999936,-5.64931527799996,0.0],[-36.124764443999936,-5.649225832999946,0.0],[-36.12466027799991,-5.649225832999946,0.0],[-36.12466027799991,-5.649148055999945,0.0],[-36.124555277999946,-5.649148055999945,0.0],[-36.124555277999946,-5.649073332999933,0.0],[-36.12443388899993,-5.649073332999933,0.0],[-36.12443388899993,-5.648984166999924,0.0],[-36.12430861099995,-5.648984166999924,0.0],[-36.12430861099995,-5.648890832999939,0.0],[-36.124192499999936,-5.648890832999939,0.0],[-36.124192499999936,-5.648801943999956,0.0],[-36.12408472199991,-5.648801943999956,0.0],[-36.12408472199991,-5.648716388999958,0.0],[-36.12397583299992,-5.648716388999958,0.0],[-36.12397583299992,-5.648639166999942,0.0],[-36.12386222199996,-5.648639166999942,0.0],[-36.12386222199996,-5.648548888999926,0.0],[-36.12372888899995,-5.648548888999926,0.0],[-36.12372888899995,-5.648455,0.0],[-36.12358555599991,-5.648455,0.0],[-36.12358555599991,-5.648350555999912,0.0],[-36.123440832999904,-5.648350555999912,0.0],[-36.123440832999904,-5.648237499999937,0.0],[-36.12331722199991,-5.648237499999937,0.0],[-36.12331722199991,-5.648147777999952,0.0],[-36.1232280559999,-5.648147777999952,0.0],[-36.1232280559999,-5.648071388999938,0.0],[-36.12310861099991,-5.648071388999938,0.0],[-36.12310861099991,-5.647981943999923,0.0],[-36.122998888999916,-5.647981943999923,0.0],[-36.122998888999916,-5.6479,0.0],[-36.12287388899995,-5.6479,0.0],[-36.12287388899995,-5.647806110999909,0.0],[-36.12272361099991,-5.647806110999909,0.0],[-36.12272361099991,-5.647691943999916,0.0],[-36.12254472199993,-5.647691943999916,0.0],[-36.12254472199993,-5.647557499999948,0.0],[-36.122422221999955,-5.647557499999948,0.0],[-36.122422221999955,-5.647474443999954,0.0],[-36.122255555999914,-5.647474443999954,0.0],[-36.122255555999914,-5.647354721999932,0.0],[-36.12211944399991,-5.647354721999932,0.0],[-36.12211944399991,-5.64725083299993,0.0],[-36.12195833299995,-5.64725083299993,0.0],[-36.12195833299995,-5.647125555999935,0.0],[-36.121803332999946,-5.647125555999935,0.0],[-36.121803332999946,-5.647008332999917,0.0],[-36.12164722199992,-5.647008332999917,0.0],[-36.12164722199992,-5.6469,0.0],[-36.121475277999934,-5.6469,0.0],[-36.121475277999934,-5.64676611099992,0.0],[-36.12129277799994,-5.64676611099992,0.0],[-36.12129277799994,-5.646626943999934,0.0],[-36.12112694399991,-5.646626943999934,0.0],[-36.12112694399991,-5.646500832999948,0.0],[-36.12093555599995,-5.646500832999948,0.0],[-36.12093555599995,-5.646375832999922,0.0],[-36.120805832999906,-5.646375832999922,0.0],[-36.120805832999906,-5.646154166999906,0.0],[-36.12072305599992,-5.646154166999906,0.0],[-36.12072305599992,-5.645984721999923,0.0],[-36.12063194399991,-5.645984721999923,0.0],[-36.12063194399991,-5.645740277999948,0.0],[-36.12050888899995,-5.645740277999948,0.0],[-36.12050888899995,-5.64545222199996,0.0],[-36.12043055599992,-5.64545222199996,0.0],[-36.12043055599992,-5.645305555999926,0.0],[-36.12036249999994,-5.645305555999926,0.0],[-36.12036249999994,-5.645152221999922,0.0],[-36.120277777999945,-5.645152221999922,0.0],[-36.120277777999945,-5.644941666999955,0.0],[-36.12018972199991,-5.644941666999955,0.0],[-36.12018972199991,-5.644752499999925,0.0],[-36.12009833299993,-5.644752499999925,0.0],[-36.12009833299993,-5.644536943999924,0.0],[-36.119997499999954,-5.644536943999924,0.0],[-36.119997499999954,-5.644314721999933,0.0],[-36.11993444399991,-5.644314721999933,0.0],[-36.11993444399991,-5.644156943999917,0.0],[-36.11982249999994,-5.644156943999917,0.0],[-36.11982249999994,-5.643918332999931,0.0],[-36.11973055599992,-5.643918332999931,0.0],[-36.11973055599992,-5.643715277999945,0.0],[-36.119642221999925,-5.643715277999945,0.0],[-36.119642221999925,-5.64351611099994,0.0],[-36.119567221999944,-5.64351611099994,0.0],[-36.119567221999944,-5.643336388999955,0.0],[-36.11946638899991,-5.643336388999955,0.0],[-36.11946638899991,-5.643117777999919,0.0],[-36.119417777999956,-5.643117777999919,0.0],[-36.119417777999956,-5.64299555599996,0.0],[-36.11934166699996,-5.64299555599996,0.0],[-36.11934166699996,-5.642844166999907,0.0],[-36.11926583299993,-5.642844166999907,0.0],[-36.11926583299993,-5.642669443999921,0.0],[-36.11920055599995,-5.642669443999921,0.0],[-36.11920055599995,-5.64254388899991,0.0],[-36.11900138899995,-5.64254388899991,0.0],[-36.11900138899995,-5.642495555999915,0.0],[-36.11873666699995,-5.642495555999915,0.0],[-36.11873666699995,-5.64245944399994,0.0],[-36.11849111099991,-5.64245944399994,0.0],[-36.11849111099991,-5.642428888999916,0.0],[-36.11826444399992,-5.642428888999916,0.0],[-36.11826444399992,-5.642399443999921,0.0],[-36.11807749999991,-5.642399443999921,0.0],[-36.11807749999991,-5.642378332999954,0.0],[-36.11794583299991,-5.642378332999954,0.0],[-36.11794583299991,-5.642391666999913,0.0],[-36.11789194399995,-5.642391666999913,0.0],[-36.11789194399995,-5.642423332999954,0.0],[-36.1177952779999,-5.642423332999954,0.0],[-36.1177952779999,-5.642447777999905,0.0],[-36.1177138889999,-5.642447777999905,0.0],[-36.1177138889999,-5.642472221999924,0.0],[-36.11763611099991,-5.642472221999924,0.0],[-36.11763611099991,-5.642499721999911,0.0],[-36.11754333299996,-5.642499721999911,0.0],[-36.11754333299996,-5.642525832999922,0.0],[-36.11745888899992,-5.642525832999922,0.0],[-36.11745888899992,-5.642543610999951,0.0],[-36.117391943999905,-5.642543610999951,0.0],[-36.117391943999905,-5.642576388999942,0.0],[-36.11728805599995,-5.642576388999942,0.0],[-36.11728805599995,-5.642601666999951,0.0],[-36.11720388899994,-5.642601666999951,0.0],[-36.11720388899994,-5.64262333299996,0.0],[-36.11712722199991,-5.64262333299996,0.0],[-36.11712722199991,-5.64266,0.0],[-36.11700694399991,-5.64266,0.0],[-36.11700694399991,-5.642686110999932,0.0],[-36.11691805599992,-5.642686110999932,0.0],[-36.11691805599992,-5.642730555999947,0.0],[-36.116784443999904,-5.642730555999947,0.0],[-36.116784443999904,-5.642770277999944,0.0],[-36.11665,-5.642770277999944,0.0],[-36.11665,-5.642817777999937,0.0],[-36.11650305599994,-5.642817777999937,0.0],[-36.11650305599994,-5.64287,0.0],[-36.116343610999934,-5.64287,0.0],[-36.116343610999934,-5.642918332999955,0.0],[-36.116205832999924,-5.642918332999955,0.0],[-36.116205832999924,-5.642938055999934,0.0],[-36.11592111099992,-5.642938055999934,0.0],[-36.11592111099992,-5.642873055999928,0.0],[-36.115772499999935,-5.642873055999928,0.0],[-36.115772499999935,-5.642820832999917,0.0],[-36.115653332999955,-5.642820832999917,0.0],[-36.115653332999955,-5.642783055999928,0.0],[-36.1155694439999,-5.642783055999928,0.0],[-36.1155694439999,-5.642752777999931,0.0],[-36.115418888999955,-5.642752777999931,0.0],[-36.115418888999955,-5.642697221999924,0.0],[-36.11532916699991,-5.642697221999924,0.0],[-36.11532916699991,-5.64266583299991,0.0],[-36.115285,-5.64266583299991,0.0],[-36.115285,-5.642651388999923,0.0],[-36.11522527799991,-5.642651388999923,0.0],[-36.11522527799991,-5.642630277999956,0.0],[-36.11516694399995,-5.642630277999956,0.0],[-36.11516694399995,-5.642610555999909,0.0],[-36.11511861099996,-5.642610555999909,0.0],[-36.11511861099996,-5.642593888999954,0.0],[-36.115058888999954,-5.642593888999954,0.0],[-36.115058888999954,-5.642576110999926,0.0],[-36.115006388999916,-5.642576110999926,0.0],[-36.115006388999916,-5.642557499999953,0.0],[-36.11493555599992,-5.642557499999953,0.0],[-36.11493555599992,-5.642533610999919,0.0],[-36.11485944399993,-5.642533610999919,0.0],[-36.11485944399993,-5.64250833299991,0.0],[-36.11477916699994,-5.64250833299991,0.0],[-36.11477916699994,-5.642482499999915,0.0],[-36.11467,-5.642482499999915,0.0],[-36.11467,-5.642451388999916,0.0],[-36.114572221999936,-5.642451388999916,0.0],[-36.114572221999936,-5.642419166999957,0.0],[-36.114527221999936,-5.642419166999957,0.0],[-36.114527221999936,-5.642453055999908,0.0],[-36.114455,-5.642453055999908,0.0],[-36.114455,-5.642484443999933,0.0],[-36.11440027799995,-5.642484443999933,0.0],[-36.11440027799995,-5.642535555999928,0.0],[-36.114308610999956,-5.642535555999928,0.0],[-36.114308610999956,-5.642574721999949,0.0],[-36.11422111099995,-5.642574721999949,0.0],[-36.11422111099995,-5.642606943999908,0.0],[-36.114147777999904,-5.642606943999908,0.0],[-36.114147777999904,-5.642656666999926,0.0],[-36.114065,-5.642656666999926,0.0],[-36.114065,-5.642711666999958,0.0],[-36.113948888999914,-5.642711666999958,0.0],[-36.113948888999914,-5.64274,0.0],[-36.11388166699993,-5.64274,0.0],[-36.11388166699993,-5.64279027799995,0.0],[-36.11380277799992,-5.64279027799995,0.0],[-36.11380277799992,-5.64284194399994,0.0],[-36.11368694399994,-5.64284194399994,0.0],[-36.11368694399994,-5.642886666999914,0.0],[-36.11363722199991,-5.642886666999914,0.0],[-36.11363722199991,-5.643009721999931,0.0],[-36.113396666999904,-5.643009721999931,0.0],[-36.113396666999904,-5.643144721999931,0.0],[-36.11313055599993,-5.643144721999931,0.0],[-36.11313055599993,-5.643285277999951,0.0],[-36.11287444399994,-5.643285277999951,0.0],[-36.11287444399994,-5.643415,0.0],[-36.112583610999934,-5.643415,0.0],[-36.112583610999934,-5.643532221999919,0.0],[-36.11244444399995,-5.643532221999919,0.0],[-36.11244444399995,-5.642005555999958,0.0],[-36.112619166999934,-5.642005555999958,0.0],[-36.112619166999934,-5.641890555999908,0.0],[-36.112858055999936,-5.641890555999908,0.0],[-36.112858055999936,-5.641759166999918,0.0],[-36.113105832999906,-5.641759166999918,0.0],[-36.113105832999906,-5.641627777999929,0.0],[-36.11344638899993,-5.641627777999929,0.0],[-36.11344638899993,-5.641480832999946,0.0],[-36.113807221999934,-5.641480832999946,0.0],[-36.113807221999934,-5.641370555999913,0.0],[-36.11402972199994,-5.641370555999913,0.0],[-36.11402972199994,-5.641273610999917,0.0],[-36.11427805599993,-5.641273610999917,0.0],[-36.11427805599993,-5.641195277999941,0.0],[-36.11557527799994,-5.641195277999941,0.0],[-36.11557527799994,-5.64127777799996,0.0],[-36.117095555999924,-5.64127777799996,0.0],[-36.117095555999924,-5.641261388999908,0.0],[-36.11763388899993,-5.641261388999908,0.0],[-36.11763388899993,-5.641223332999914,0.0],[-36.118142777999935,-5.641223332999914,0.0],[-36.118142777999935,-5.641155555999944,0.0],[-36.11877416699991,-5.641155555999944,0.0],[-36.11877416699991,-5.641276388999927,0.0],[-36.118987499999946,-5.641276388999927,0.0],[-36.118987499999946,-5.641391666999937,0.0],[-36.119246388999954,-5.641391666999937,0.0],[-36.119246388999954,-5.641542777999916,0.0],[-36.11953833299992,-5.641542777999916,0.0],[-36.11953833299992,-5.641707221999923,0.0],[-36.11978694399994,-5.641707221999923,0.0],[-36.11978694399994,-5.641843888999915,0.0],[-36.119892499999935,-5.641843888999915,0.0],[-36.119892499999935,-5.641906943999913,0.0],[-36.120025,-5.641906943999913,0.0],[-36.120025,-5.641975832999947,0.0],[-36.1201066669999,-5.641975832999947,0.0],[-36.1201066669999,-5.642120277999936,0.0],[-36.12018583299994,-5.642120277999936,0.0],[-36.12018583299994,-5.642258332999916,0.0],[-36.12024388899994,-5.642258332999916,0.0],[-36.12024388899994,-5.64237,0.0],[-36.120305,-5.64237,0.0],[-36.120305,-5.642509443999927,0.0],[-36.120367777999945,-5.642509443999927,0.0],[-36.120367777999945,-5.642629721999924,0.0],[-36.12044694399992,-5.642629721999924,0.0],[-36.12044694399992,-5.642772221999905,0.0],[-36.12051722199993,-5.642772221999905,0.0],[-36.12051722199993,-5.642917499999953,0.0],[-36.12057749999991,-5.642917499999953,0.0],[-36.12057749999991,-5.643031943999915,0.0],[-36.12064111099994,-5.643031943999915,0.0],[-36.12064111099994,-5.643161388999943,0.0],[-36.12071138899995,-5.643161388999943,0.0],[-36.12071138899995,-5.643287777999944,0.0],[-36.12077972199995,-5.643287777999944,0.0],[-36.12077972199995,-5.643418332999943,0.0],[-36.120839443999955,-5.643418332999943,0.0],[-36.120839443999955,-5.643532777999951,0.0],[-36.120896666999954,-5.643532777999951,0.0],[-36.120896666999954,-5.643642221999926,0.0],[-36.12095527799994,-5.643642221999926,0.0],[-36.12095527799994,-5.643758610999953,0.0],[-36.121023332999926,-5.643758610999953,0.0],[-36.121023332999926,-5.643894443999955,0.0],[-36.12108861099995,-5.643894443999955,0.0],[-36.12108861099995,-5.644004443999961,0.0],[-36.12114749999995,-5.644004443999961,0.0],[-36.12114749999995,-5.644122499999924,0.0],[-36.12122,-5.644122499999924,0.0],[-36.12122,-5.644258332999925,0.0],[-36.12126916699992,-5.644258332999925,0.0],[-36.12126916699992,-5.644358610999916,0.0],[-36.121313055999906,-5.644358610999916,0.0],[-36.121313055999906,-5.644446666999954,0.0],[-36.121366388999945,-5.644446666999954,0.0],[-36.121366388999945,-5.644552777999934,0.0],[-36.12142611099995,-5.644552777999934,0.0],[-36.12142611099995,-5.644650555999931,0.0],[-36.12150388899994,-5.644650555999931,0.0],[-36.12150388899994,-5.644808888999933,0.0],[-36.12155472199993,-5.644808888999933,0.0],[-36.12155472199993,-5.644901666999942,0.0],[-36.12162555599991,-5.644901666999942,0.0],[-36.12162555599991,-5.64504166699993,0.0],[-36.12170138899995,-5.64504166699993,0.0],[-36.12170138899995,-5.645177777999947,0.0],[-36.121774443999925,-5.645177777999947,0.0],[-36.121774443999925,-5.645319721999954,0.0],[-36.12187861099994,-5.645319721999954,0.0],[-36.12187861099994,-5.645515832999934,0.0],[-36.12196861099994,-5.645515832999934,0.0],[-36.12196861099994,-5.645655277999936,0.0],[-36.12210194399995,-5.645655277999936,0.0],[-36.12210194399995,-5.64577,0.0],[-36.122242221999954,-5.64577,0.0],[-36.122242221999954,-5.645902221999961,0.0],[-36.12235611099993,-5.645902221999961,0.0],[-36.12235611099993,-5.64599527799993,0.0],[-36.12251166699991,-5.64599527799993,0.0],[-36.12251166699991,-5.646142221999924,0.0],[-36.122661388999916,-5.646142221999924,0.0],[-36.122661388999916,-5.646279443999958,0.0],[-36.12278583299991,-5.646279443999958,0.0],[-36.12278583299991,-5.646385,0.0],[-36.12285888899993,-5.646385,0.0],[-36.12285888899993,-5.646463888999961,0.0],[-36.12294861099991,-5.646463888999961,0.0],[-36.12294861099991,-5.646548610999957,0.0],[-36.12305027799994,-5.646548610999957,0.0],[-36.12305027799994,-5.646642221999912,0.0],[-36.12314722199994,-5.646642221999912,0.0],[-36.12314722199994,-5.646727777999956,0.0],[-36.12325333299992,-5.646727777999956,0.0],[-36.12325333299992,-5.646827777999931,0.0],[-36.12333944399995,-5.646827777999931,0.0],[-36.12333944399995,-5.646911666999927,0.0],[-36.12342,-5.646911666999927,0.0],[-36.12342,-5.646983332999923,0.0],[-36.123507221999944,-5.646983332999923,0.0],[-36.123507221999944,-5.647067221999919,0.0],[-36.12359777799992,-5.647067221999919,0.0],[-36.12359777799992,-5.647148332999961,0.0],[-36.123632777999944,-5.647148332999961,0.0],[-36.123632777999944,-5.647175555999922,0.0],[-36.12367472199992,-5.647175555999922,0.0],[-36.12367472199992,-5.647220555999922,0.0],[-36.123710555999935,-5.647220555999922,0.0],[-36.123710555999935,-5.64725055599996,0.0],[-36.123751943999935,-5.64725055599996,0.0],[-36.123751943999935,-5.647291388999918,0.0],[-36.123793055999954,-5.647291388999918,0.0],[-36.123793055999954,-5.647328610999921,0.0],[-36.12383222199992,-5.647328610999921,0.0],[-36.12383222199992,-5.647366666999915,0.0],[-36.1238674999999,-5.647366666999915,0.0],[-36.1238674999999,-5.647396666999953,0.0],[-36.12390722199996,-5.647396666999953,0.0],[-36.12390722199996,-5.647435277999932,0.0],[-36.12395361099993,-5.647435277999932,0.0],[-36.12395361099993,-5.647477777999939,0.0],[-36.123995832999924,-5.647477777999939,0.0],[-36.123995832999924,-5.64751805599991,0.0],[-36.12403083299995,-5.64751805599991,0.0],[-36.12403083299995,-5.64754611099994,0.0],[-36.12409444399992,-5.64754611099994,0.0],[-36.12409444399992,-5.64758472199992,0.0],[-36.12415722199995,-5.64758472199992,0.0],[-36.12415722199995,-5.647619721999945,0.0],[-36.12424583299992,-5.647619721999945,0.0],[-36.12424583299992,-5.647677499999929,0.0],[-36.12428083299994,-5.647677499999929,0.0],[-36.12428083299994,-5.647700277999945,0.0],[-36.12434111099992,-5.647700277999945,0.0],[-36.12434111099992,-5.647737777999907,0.0],[-36.124406388999944,-5.647737777999907,0.0],[-36.124406388999944,-5.647781110999915,0.0],[-36.12446972199996,-5.647781110999915,0.0],[-36.12446972199996,-5.647820555999942,0.0],[-36.124535832999925,-5.647820555999942,0.0],[-36.124535832999925,-5.647858332999931,0.0],[-36.12458611099993,-5.647858332999931,0.0],[-36.12458611099993,-5.647886943999936,0.0],[-36.12465944399992,-5.647886943999936,0.0],[-36.12465944399992,-5.647927777999939,0.0],[-36.124715,-5.647927777999939,0.0],[-36.124715,-5.647965555999917,0.0],[-36.124766388999944,-5.647965555999917,0.0],[-36.124766388999944,-5.64800277799992,0.0],[-36.12481388899994,-5.64800277799992,0.0],[-36.12481388899994,-5.648032221999927,0.0],[-36.12487666699991,-5.648032221999927,0.0],[-36.12487666699991,-5.64807305599993,0.0],[-36.12493249999994,-5.64807305599993,0.0],[-36.12493249999994,-5.648106110999947,0.0],[-36.12499194399993,-5.648106110999947,0.0],[-36.12499194399993,-5.648146388999919,0.0],[-36.12503888899994,-5.648146388999919,0.0],[-36.12503888899994,-5.648172221999914,0.0],[-36.12509888899996,-5.648172221999914,0.0],[-36.12509888899996,-5.64820722199994,0.0],[-36.125151943999924,-5.64820722199994,0.0],[-36.125151943999924,-5.64824277799994,0.0],[-36.12522444399991,-5.64824277799994,0.0],[-36.12522444399991,-5.64829416699996,0.0],[-36.12528055599995,-5.64829416699996,0.0],[-36.12528055599995,-5.648325555999918,0.0],[-36.12533055599994,-5.648325555999918,0.0],[-36.12533055599994,-5.648356388999957,0.0],[-36.125385,-5.648356388999957,0.0],[-36.125385,-5.648392499999943,0.0],[-36.12542055599994,-5.648392499999943,0.0],[-36.12542055599994,-5.64841611099996,0.0],[-36.125474166999936,-5.64841611099996,0.0],[-36.125474166999936,-5.648448610999935,0.0],[-36.12552972199995,-5.648448610999935,0.0],[-36.12552972199995,-5.648483332999945,0.0],[-36.125576666999905,-5.648483332999945,0.0],[-36.125576666999905,-5.648513055999956,0.0],[-36.12562611099992,-5.648513055999956,0.0],[-36.12562611099992,-5.648545277999915,0.0],[-36.125672221999935,-5.648545277999915,0.0],[-36.125672221999935,-5.648572221999927,0.0],[-36.12571972199993,-5.648572221999927,0.0],[-36.12571972199993,-5.648604166999917,0.0],[-36.12576833299994,-5.648604166999917,0.0],[-36.12576833299994,-5.64863472199994,0.0],[-36.12581249999994,-5.64863472199994,0.0],[-36.12581249999994,-5.648663332999945,0.0],[-36.125845,-5.648663332999945,0.0],[-36.125845,-5.648682777999909,0.0],[-36.125869166999905,-5.648682777999909,0.0],[-36.125869166999905,-5.648698888999945,0.0],[-36.125889721999954,-5.648698888999945,0.0],[-36.125889721999954,-5.648712221999915,0.0],[-36.12590916699992,-5.648712221999915,0.0],[-36.12590916699992,-5.648724166999955,0.0],[-36.12593333299992,-5.648724166999955,0.0],[-36.12593333299992,-5.648739166999917,0.0],[-36.12595083299993,-5.648739166999917,0.0],[-36.12595083299993,-5.64875,0.0],[-36.12597333299993,-5.64875,0.0],[-36.12597333299993,-5.648763888999952,0.0],[-36.12599722199991,-5.648763888999952,0.0],[-36.12599722199991,-5.648778610999955,0.0],[-36.12601388899992,-5.648778610999955,0.0],[-36.12601388899992,-5.64879,0.0],[-36.12603666699994,-5.64879,0.0],[-36.12603666699994,-5.648803888999907,0.0],[-36.12605888899992,-5.648803888999907,0.0],[-36.12605888899992,-5.648818610999911,0.0],[-36.12607666699995,-5.648818610999911,0.0],[-36.12607666699995,-5.648829166999917,0.0],[-36.12610027799991,-5.648829166999917,0.0],[-36.12610027799991,-5.64884388899992,0.0],[-36.12612,-5.64884388899992,0.0],[-36.12612,-5.648856388999945,0.0],[-36.12614611099991,-5.648856388999945,0.0],[-36.12614611099991,-5.648872221999909,0.0],[-36.126164443999926,-5.648872221999909,0.0],[-36.126164443999926,-5.648884721999934,0.0],[-36.12618638899994,-5.648884721999934,0.0],[-36.12618638899994,-5.64889722199996,0.0],[-36.12621638899992,-5.64889722199996,0.0],[-36.12621638899992,-5.648915832999933,0.0],[-36.126235,-5.648915832999933,0.0],[-36.126235,-5.648928332999958,0.0],[-36.12625833299995,-5.648928332999958,0.0],[-36.12625833299995,-5.648943055999951,0.0],[-36.12627555599994,-5.648943055999951,0.0],[-36.12627555599994,-5.64895249999995,0.0],[-36.12631194399995,-5.64895249999995,0.0],[-36.12631194399995,-5.648974443999919,0.0],[-36.12634,-5.648974443999919,0.0],[-36.12634,-5.64899,0.0],[-36.12637305599992,-5.64899,0.0],[-36.12637305599992,-5.649013332999914,0.0],[-36.126409166999906,-5.649013332999914,0.0],[-36.126409166999906,-5.649036666999962,0.0],[-36.12643777799991,-5.649036666999962,0.0],[-36.12643777799991,-5.649053610999943,0.0],[-36.126475555999946,-5.649053610999943,0.0],[-36.126475555999946,-5.649076388999958,0.0],[-36.126578055999914,-5.649076388999958,0.0],[-36.126578055999914,-5.649065555999925,0.0],[-36.126667777999955,-5.649065555999925,0.0],[-36.126667777999955,-5.64905861099993,0.0],[-36.12674027799994,-5.64905861099993,0.0],[-36.12674027799994,-5.64905194399995,0.0],[-36.12680194399991,-5.64905194399995,0.0],[-36.12680194399991,-5.649041666999949,0.0],[-36.12689166699994,-5.649041666999949,0.0],[-36.12689166699994,-5.649032777999935,0.0],[-36.126966388999904,-5.649032777999935,0.0],[-36.126966388999904,-5.649022221999928,0.0],[-36.12706777799991,-5.649022221999928,0.0],[-36.12706777799991,-5.649013055999944,0.0],[-36.127145,-5.649013055999944,0.0],[-36.127145,-5.64900138899992,0.0],[-36.127229721999925,-5.64900138899992,0.0],[-36.127229721999925,-5.648988888999952,0.0],[-36.127355,-5.648988888999952,0.0],[-36.127355,-5.648979443999906,0.0],[-36.127441666999914,-5.648979443999906,0.0],[-36.127441666999914,-5.648972221999941,0.0],[-36.12751388899994,-5.648972221999941,0.0],[-36.12751388899994,-5.648962221999909,0.0],[-36.127605,-5.648962221999909,0.0],[-36.127605,-5.648956666999936,0.0],[-36.12765194399992,-5.648956666999936,0.0],[-36.12765194399992,-5.648950555999932,0.0],[-36.12771305599995,-5.648950555999932,0.0],[-36.12771305599995,-5.648945277999928,0.0],[-36.12779055599992,-5.648945277999928,0.0],[-36.12779055599992,-5.648937221999915,0.0],[-36.12783194399992,-5.648937221999915,0.0],[-36.12783194399992,-5.648931666999943,0.0],[-36.12788249999994,-5.648931666999943,0.0],[-36.12788249999994,-5.648925832999907,0.0],[-36.12792972199992,-5.648925832999907,0.0],[-36.12792972199992,-5.648919443999944,0.0],[-36.127978610999946,-5.648919443999944,0.0],[-36.127978610999946,-5.648913055999913,0.0],[-36.128030277999926,-5.648913055999913,0.0],[-36.128030277999926,-5.648905832999958,0.0],[-36.12809277799994,-5.648905832999958,0.0],[-36.12809277799994,-5.648896110999942,0.0],[-36.12817333299995,-5.648896110999942,0.0],[-36.12817333299995,-5.648884721999934,0.0],[-36.12841166699991,-5.648884721999934,0.0],[-36.12841166699991,-5.648878888999946,0.0],[-36.12854361099994,-5.648878888999946,0.0],[-36.12854361099994,-5.64887,0.0],[-36.12865388899991,-5.64887,0.0],[-36.12865388899991,-5.648861110999917,0.0],[-36.128751388999945,-5.648861110999917,0.0],[-36.128751388999945,-5.648851110999942,0.0],[-36.129028888999926,-5.648851110999942,0.0],[-36.129028888999926,-5.648835832999907,0.0],[-36.12945583299995,-5.648835832999907,0.0],[-36.12945583299995,-5.648827499999925,0.0],[-36.12968583299994,-5.648827499999925,0.0],[-36.12968583299994,-5.648816666999949,0.0],[-36.12993638899991,-5.648816666999949,0.0],[-36.12993638899991,-5.648805555999957,0.0],[-36.13017833299995,-5.648805555999957,0.0],[-36.13017833299995,-5.648795277999909,0.0],[-36.130457221999905,-5.648795277999909,0.0],[-36.130457221999905,-5.648781388999907,0.0],[-36.130797499999915,-5.648781388999907,0.0],[-36.130797499999915,-5.648768610999923,0.0],[-36.131108610999945,-5.648768610999923,0.0],[-36.131108610999945,-5.648752221999928,0.0],[-36.13144305599991,-5.648752221999928,0.0],[-36.13144305599991,-5.648725,0.0],[-36.13214083299994,-5.648725,0.0],[-36.13214083299994,-5.648698332999913,0.0],[-36.13282555599994,-5.648698332999913,0.0],[-36.13282555599994,-5.648721110999929,0.0],[-36.13294694399991,-5.648721110999929,0.0],[-36.13294694399991,-5.648786110999936,0.0],[-36.133064443999956,-5.648786110999936,0.0],[-36.133064443999956,-5.648844166999936,0.0],[-36.133185832999914,-5.648844166999936,0.0],[-36.133185832999914,-5.648903055999938,0.0],[-36.133302777999916,-5.648903055999938,0.0],[-36.133302777999916,-5.648958055999913,0.0],[-36.13343,-5.648958055999913,0.0],[-36.13343,-5.649024166999936,0.0],[-36.13355,-5.649024166999936,0.0],[-36.13355,-5.649086666999949,0.0],[-36.13367249999993,-5.649086666999949,0.0],[-36.13367249999993,-5.649143332999927,0.0],[-36.133816388999946,-5.649143332999927,0.0],[-36.133816388999946,-5.649195,0.0],[-36.13388277799993,-5.649195,0.0],[-36.13388277799993,-5.64925722199996,0.0],[-36.133950832999915,-5.64925722199996,0.0],[-36.133950832999915,-5.649317777999954,0.0],[-36.133995555999945,-5.649317777999954,0.0],[-36.133995555999945,-5.64936972199996,0.0],[-36.13403083299994,-5.64936972199996,0.0],[-36.13403083299994,-5.64941222199991,0.0],[-36.13408333299992,-5.64941222199991,0.0],[-36.13408333299992,-5.649468610999918,0.0],[-36.134125,-5.649468610999918,0.0],[-36.134125,-5.649517777999961,0.0],[-36.13416222199993,-5.649517777999961,0.0],[-36.13416222199993,-5.64956861099995,0.0],[-36.13421361099995,-5.64956861099995,0.0],[-36.13421361099995,-5.649623610999924,0.0],[-36.13425694399996,-5.649623610999924,0.0],[-36.13425694399996,-5.649683610999944,0.0],[-36.134297499999946,-5.649683610999944,0.0],[-36.134297499999946,-5.649738888999934,0.0],[-36.13433388899995,-5.649738888999934,0.0],[-36.13433388899995,-5.649778332999915,0.0],[-36.134374721999905,-5.649778332999915,0.0],[-36.134374721999905,-5.649831388999928,0.0],[-36.13440305599994,-5.649831388999928,0.0],[-36.13440305599994,-5.649867499999914,0.0],[-36.13443777799995,-5.649867499999914,0.0],[-36.13443777799995,-5.64991,0.0],[-36.13446611099994,-5.64991,0.0],[-36.13446611099994,-5.649945555999921,0.0],[-36.1345,-5.649945555999921,0.0],[-36.1345,-5.649986666999951,0.0],[-36.13453666699991,-5.649986666999951,0.0],[-36.13453666699991,-5.650030555999933,0.0],[-36.13457444399995,-5.650030555999933,0.0],[-36.13457444399995,-5.650061666999932,0.0],[-36.134595832999935,-5.650061666999932,0.0],[-36.134595832999935,-5.650103055999921,0.0],[-36.134619166999926,-5.650103055999921,0.0],[-36.134619166999926,-5.650137499999914,0.0],[-36.134655832999954,-5.650137499999914,0.0],[-36.134655832999954,-5.650178055999959,0.0],[-36.134688610999945,-5.650178055999959,0.0],[-36.134688610999945,-5.650216943999908,0.0],[-36.13471888899994,-5.650216943999908,0.0],[-36.13471888899994,-5.650256110999919,0.0],[-36.13475,-5.650256110999919,0.0],[-36.13475,-5.650297221999949,0.0],[-36.13478027799994,-5.650297221999949,0.0],[-36.13478027799994,-5.650335277999943,0.0],[-36.134811388999935,-5.650335277999943,0.0],[-36.134811388999935,-5.650370832999954,0.0],[-36.13484944399994,-5.650370832999954,0.0],[-36.13484944399994,-5.650415277999912,0.0],[-36.134891110999945,-5.650415277999912,0.0],[-36.134891110999945,-5.650463332999948,0.0],[-36.13493277799995,-5.650463332999948,0.0],[-36.13493277799995,-5.650523888999942,0.0],[-36.13497805599991,-5.650523888999942,0.0],[-36.13497805599991,-5.650583888999961,0.0],[-36.13500888899995,-5.650583888999961,0.0],[-36.13500888899995,-5.650628888999961,0.0],[-36.135039443999915,-5.650628888999961,0.0],[-36.135039443999915,-5.65067694399994,0.0],[-36.135077777999925,-5.65067694399994,0.0],[-36.135077777999925,-5.650735277999956,0.0],[-36.13510749999995,-5.650735277999956,0.0],[-36.13510749999995,-5.650793055999941,0.0],[-36.13515361099991,-5.650793055999941,0.0],[-36.13515361099991,-5.650864166999952,0.0],[-36.135196110999914,-5.650864166999952,0.0],[-36.135196110999914,-5.650934443999915,0.0],[-36.13523777799992,-5.650934443999915,0.0],[-36.13523777799992,-5.651003888999924,0.0],[-36.13526888899992,-5.651003888999924,0.0],[-36.13526888899992,-5.651055,0.0],[-36.13530111099993,-5.651055,0.0],[-36.13530111099993,-5.651104166999914,0.0],[-36.13532944399992,-5.651104166999914,0.0],[-36.13532944399992,-5.651153055999941,0.0],[-36.135357221999925,-5.651153055999941,0.0],[-36.135357221999925,-5.651200832999962,0.0],[-36.13539083299992,-5.651200832999962,0.0],[-36.13539083299992,-5.65125166699994,0.0],[-36.1354166669999,-5.65125166699994,0.0],[-36.1354166669999,-5.651293332999956,0.0],[-36.135435,-5.651293332999956,0.0],[-36.135435,-5.65132583299993,0.0],[-36.13546444399992,-5.65132583299993,0.0],[-36.13546444399992,-5.651366110999959,0.0],[-36.135493055999916,-5.651366110999959,0.0],[-36.135493055999916,-5.651416666999921,0.0],[-36.13552861099993,-5.651416666999921,0.0],[-36.13552861099993,-5.651471388999937,0.0],[-36.135559721999925,-5.651471388999937,0.0],[-36.135559721999925,-5.651528332999931,0.0],[-36.13559388899995,-5.651528332999931,0.0],[-36.13559388899995,-5.651583055999936,0.0],[-36.135624166999946,-5.651583055999936,0.0],[-36.135624166999946,-5.651632499999948,0.0],[-36.13565583299993,-5.651632499999948,0.0],[-36.13565583299993,-5.651683610999953,0.0],[-36.13569416699994,-5.651683610999953,0.0],[-36.13569416699994,-5.651748055999917,0.0],[-36.13572805599995,-5.651748055999917,0.0],[-36.13572805599995,-5.651803055999949,0.0],[-36.135761388999924,-5.651803055999949,0.0],[-36.135761388999924,-5.65185833299995,0.0],[-36.135793888999956,-5.65185833299995,0.0],[-36.135793888999956,-5.651910832999931,0.0],[-36.13582777799991,-5.651910832999931,0.0],[-36.13582777799991,-5.651963332999912,0.0],[-36.13585611099995,-5.651963332999912,0.0],[-36.13585611099995,-5.652011943999923,0.0],[-36.13588472199996,-5.652011943999923,0.0],[-36.13588472199996,-5.652057777999914,0.0],[-36.135908610999934,-5.652057777999914,0.0],[-36.135908610999934,-5.652096943999936,0.0],[-36.13593,-5.652096943999936,0.0],[-36.13593,-5.65213,0.0],[-36.13595277799993,-5.65213,0.0],[-36.13595277799993,-5.652170277999915,0.0],[-36.13597444399994,-5.652170277999915,0.0],[-36.13597444399994,-5.652200555999912,0.0],[-36.13599416699992,-5.652200555999912,0.0],[-36.13599416699992,-5.652230832999919,0.0],[-36.13602138899995,-5.652230832999919,0.0],[-36.13602138899995,-5.652267221999921,0.0],[-36.13608111099995,-5.652267221999921,0.0],[-36.13608111099995,-5.652320277999934,0.0],[-36.136115555999936,-5.652320277999934,0.0],[-36.136115555999936,-5.652360555999906,0.0],[-36.13614555599992,-5.652360555999906,0.0],[-36.13614555599992,-5.652393055999937,0.0],[-36.1361816669999,-5.652393055999937,0.0],[-36.1361816669999,-5.652427777999947,0.0],[-36.136217777999946,-5.652427777999947,0.0],[-36.136217777999946,-5.652462499999956,0.0],[-36.13624388899996,-5.652462499999956,0.0],[-36.13624388899996,-5.65248749999995,0.0],[-36.136273332999906,-5.65248749999995,0.0],[-36.136273332999906,-5.652517777999947,0.0],[-36.13629694399992,-5.652517777999947,0.0],[-36.13629694399992,-5.652540832999932,0.0],[-36.13633111099995,-5.652540832999932,0.0],[-36.13633111099995,-5.652573332999907,0.0],[-36.13636777799991,-5.652573332999907,0.0],[-36.13636777799991,-5.652609721999909,0.0],[-36.13639916699992,-5.652609721999909,0.0],[-36.13639916699992,-5.652643055999931,0.0],[-36.13644166699993,-5.652643055999931,0.0],[-36.13644166699993,-5.652685,0.0],[-36.136471943999936,-5.652685,0.0],[-36.136471943999936,-5.652714721999928,0.0],[-36.13650555599992,-5.652714721999928,0.0],[-36.13650555599992,-5.652747777999934,0.0],[-36.13653694399994,-5.652747777999934,0.0],[-36.13653694399994,-5.652778888999933,0.0],[-36.13656166699991,-5.652778888999933,0.0],[-36.13656166699991,-5.652803610999911,0.0],[-36.13659805599991,-5.652803610999911,0.0],[-36.13659805599991,-5.652839443999937,0.0],[-36.13663472199994,-5.652839443999937,0.0],[-36.13663472199994,-5.652874443999906,0.0],[-36.136688610999954,-5.652874443999906,0.0],[-36.136688610999954,-5.652922499999931,0.0],[-36.13672555599993,-5.652922499999931,0.0],[-36.13672555599993,-5.652961388999927,0.0],[-36.13676333299992,-5.652961388999927,0.0],[-36.13676333299992,-5.652996666999911,0.0],[-36.13679444399992,-5.652996666999911,0.0],[-36.13679444399992,-5.65303,0.0],[-36.13682527799995,-5.65303,0.0],[-36.13682527799995,-5.653058332999933,0.0],[-36.136866110999904,-5.653058332999933,0.0],[-36.136866110999904,-5.65309777799996,0.0],[-36.136911110999904,-5.65309777799996,0.0],[-36.136911110999904,-5.653141943999913,0.0],[-36.13694194399994,-5.653141943999913,0.0],[-36.13694194399994,-5.653175277999935,0.0],[-36.13699333299991,-5.653175277999935,0.0],[-36.13699333299991,-5.653227777999916,0.0],[-36.13703388899995,-5.653227777999916,0.0],[-36.13703388899995,-5.653267777999929,0.0],[-36.13708027799993,-5.653267777999929,0.0],[-36.13708027799993,-5.653313055999945,0.0],[-36.13711972199991,-5.653313055999945,0.0],[-36.13711972199991,-5.653352499999926,0.0],[-36.13716416699992,-5.653352499999926,0.0],[-36.13716416699992,-5.653405555999939,0.0],[-36.13719277799993,-5.653405555999939,0.0],[-36.13719277799993,-5.653463055999907,0.0],[-36.137242777999916,-5.653463055999907,0.0],[-36.137242777999916,-5.653528055999914,0.0],[-36.13727222199992,-5.653528055999914,0.0],[-36.13727222199992,-5.653586666999956,0.0],[-36.13731055599993,-5.653586666999956,0.0],[-36.13731055599993,-5.653653332999909,0.0],[-36.13733694399991,-5.653653332999909,0.0],[-36.13733694399991,-5.653694443999939,0.0],[-36.13736305599991,-5.653694443999939,0.0],[-36.13736305599991,-5.653736943999945,0.0],[-36.13739888899994,-5.653736943999945,0.0],[-36.13739888899994,-5.653788610999925,0.0],[-36.137432221999916,-5.653788610999925,0.0],[-36.137432221999916,-5.653838888999928,0.0],[-36.13746638899994,-5.653838888999928,0.0],[-36.13746638899994,-5.653902221999942,0.0],[-36.13749666699994,-5.653902221999942,0.0],[-36.13749666699994,-5.653955,0.0],[-36.13753861099991,-5.653955,0.0],[-36.13753861099991,-5.654022221999924,0.0],[-36.13757361099994,-5.654022221999924,0.0],[-36.13757361099994,-5.654072499999927,0.0],[-36.13760305599993,-5.654072499999927,0.0],[-36.13760305599993,-5.654127221999943,0.0],[-36.13763138899992,-5.654127221999943,0.0],[-36.13763138899992,-5.65417055599994,0.0],[-36.1376622219999,-5.65417055599994,0.0],[-36.1376622219999,-5.654219166999951,0.0],[-36.137691110999924,-5.654219166999951,0.0],[-36.137691110999924,-5.654265555999928,0.0],[-36.13771472199994,-5.654265555999928,0.0],[-36.13771472199994,-5.654306943999927,0.0],[-36.137755,-5.654306943999927,0.0],[-36.137755,-5.654370832999916,0.0],[-36.13779388899991,-5.654370832999916,0.0],[-36.13779388899991,-5.654430555999909,0.0],[-36.137839166999925,-5.654430555999909,0.0],[-36.137839166999925,-5.654484166999907,0.0],[-36.13786888899995,-5.654484166999907,0.0],[-36.13786888899995,-5.65454277799995,0.0],[-36.137919721999936,-5.65454277799995,0.0],[-36.137919721999936,-5.654624721999937,0.0],[-36.13798666699995,-5.654624721999937,0.0],[-36.13798666699995,-5.654705555999954,0.0],[-36.13804,-5.654705555999954,0.0],[-36.13804,-5.654771943999947,0.0],[-36.13806805599995,-5.654771943999947,0.0],[-36.13806805599995,-5.654808610999908,0.0],[-36.13809861099992,-5.654808610999908,0.0],[-36.13809861099992,-5.654845832999911,0.0],[-36.13812749999994,-5.654845832999911,0.0],[-36.13812749999994,-5.65487944399996,0.0],[-36.13815472199991,-5.65487944399996,0.0],[-36.13815472199991,-5.654910832999917,0.0],[-36.138185,-5.654910832999917,0.0],[-36.138185,-5.654947221999919,0.0],[-36.13821583299995,-5.654947221999919,0.0],[-36.13821583299995,-5.65497972199995,0.0],[-36.13825249999991,-5.65497972199995,0.0],[-36.13825249999991,-5.655023888999949,0.0],[-36.1382783329999,-5.655023888999949,0.0],[-36.1382783329999,-5.655057777999957,0.0],[-36.13830749999994,-5.655057777999957,0.0],[-36.13830749999994,-5.655094721999944,0.0],[-36.13833833299992,-5.655094721999944,0.0],[-36.13833833299992,-5.655126110999959,0.0],[-36.13836861099992,-5.655126110999959,0.0],[-36.13836861099992,-5.655166943999916,0.0],[-36.13840027799995,-5.655166943999916,0.0],[-36.13840027799995,-5.65519555599991,0.0],[-36.1384255559999,-5.65519555599991,0.0],[-36.1384255559999,-5.65523694399991,0.0],[-36.138461666999945,-5.65523694399991,0.0],[-36.138461666999945,-5.655276666999953,0.0],[-36.138503888999935,-5.655276666999953,0.0],[-36.138503888999935,-5.655327777999958,0.0],[-36.138543055999946,-5.655327777999958,0.0],[-36.138543055999946,-5.65537166699994,0.0],[-36.138588055999946,-5.65537166699994,0.0],[-36.138588055999946,-5.655425555999955,0.0],[-36.138625,-5.655425555999955,0.0],[-36.138625,-5.655466110999953,0.0],[-36.138680277999924,-5.655466110999953,0.0],[-36.138680277999924,-5.655534166999928,0.0],[-36.13872694399993,-5.655534166999928,0.0],[-36.13872694399993,-5.655586110999934,0.0],[-36.13877138899994,-5.655586110999934,0.0],[-36.13877138899994,-5.655637499999955,0.0],[-36.13881944399992,-5.655637499999955,0.0],[-36.13881944399992,-5.655694443999948,0.0],[-36.13888388899994,-5.655694443999948,0.0],[-36.13888388899994,-5.655774166999947,0.0],[-36.13894249999993,-5.655774166999947,0.0],[-36.13894249999993,-5.655836110999928,0.0],[-36.13900138899993,-5.655836110999928,0.0],[-36.13900138899993,-5.655909721999933,0.0],[-36.13905305599991,-5.655909721999933,0.0],[-36.13905305599991,-5.655970277999927,0.0],[-36.139115277999906,-5.655970277999927,0.0],[-36.139115277999906,-5.65602055599993,0.0],[-36.13919611099993,-5.65602055599993,0.0],[-36.13919611099993,-5.656105277999927,0.0],[-36.13931622299992,-5.656105277999927,0.0],[-36.139316057999906,-5.629312716999948,0.0],[-36.13931190799991,-5.629312716999948,0.0],[-36.112236680999956,-5.629312777999928,0.0],[-36.112236666999934,-5.629943429999912,0.0]]]]}}]}