{"type":"FeatureCollection","features":[{"type":"Feature","properties":{"PROCESSO":"848185/2026","NUMERO":848185,"ANO":2026,"AREA_HA":1531.86,"ID":"{DE4C747A-0122-446A-9C13-CC7532CA1CF4}","FASE":"REQUERIMENTO DE PESQUISA","ULT_EVENTO":"100 - REQ PESQ/REQUERIMENTO PESQUISA PROTOC EM 15/07/2026","NOME":"BRAZILIAN STRATEGIC MINERALS LTDA","SUBS":"SCHEELITA","USO":"Industrial","UF":"RN","DSProcesso":"848.185/2026","Bloco":null,"layer":"processo_50km","path":"C:\\Users\\UsrMina07\\Desktop\\GILMAR\\Projeto Bonfim\\05. Arquivos Gis\\07. Temporários\\processo_50km.shp|subset=\"SUBS\" IN (\r\n    'MINÉRIO DE TUNGSTÊNIO',\r\n    'TUNGSTÊNIO',\r\n    'SCHEELITA'\r\n)","ORDEM":5,"LATITUDE":-5.62632694,"LONGITUDE":-36.54337542},"geometry":{"type":"MultiPolygon","coordinates":[[[[-36.57336888899994,-5.636748888999932,0.0],[-36.57336888899994,-5.615905,0.0],[-36.513381943999946,-5.615905,0.0],[-36.513381943999946,-5.636748888999932,0.0],[-36.57336888899994,-5.636748888999932,0.0]]]]}}]}