{"type":"FeatureCollection","features":[{"type":"Feature","properties":{"PROCESSO":"848217/2023","NUMERO":848217,"ANO":2023,"AREA_HA":9.24,"ID":"{D8CC7867-200E-410B-AF2F-91BF5FDAA144}","FASE":"REQUERIMENTO DE LAVRA GARIMPEIRA","ULT_EVENTO":"793 - REQ PLG/DOCUMENTO DIVERSO PROTOC EM 01/10/2023","NOME":"FRANCISCO BEZERRA JUNIOR","SUBS":"SCHEELITA","USO":"Industrial","UF":"RN","DSProcesso":"848.217/2023","Bloco":null,"layer":"processo_50km","path":"C:\\Users\\UsrMina07\\Desktop\\GILMAR\\Projeto Bonfim\\05. Arquivos Gis\\07. Temporários\\processo_50km.shp|subset=\"SUBS\" IN (\r\n    'MINÉRIO DE TUNGSTÊNIO',\r\n    'TUNGSTÊNIO',\r\n    'SCHEELITA'\r\n)","ORDEM":22,"LATITUDE":-5.763145,"LONGITUDE":-36.12184929},"geometry":{"type":"MultiPolygon","coordinates":[[[[-36.116006943999935,-5.755077542999913,0.0],[-36.11600680499993,-5.775022667999906,0.0],[-36.11600680499993,-5.775024672999962,0.0],[-36.11720645199995,-5.775024682999913,0.0],[-36.11720638899993,-5.771138888999928,0.0],[-36.116036943999916,-5.771138888999928,0.0],[-36.116036943999916,-5.755151110999918,0.0],[-36.121799721999935,-5.755151110999918,0.0],[-36.12179966699995,-5.775024684999948,0.0],[-36.121898846999954,-5.775024685999938,0.0],[-36.1218988679999,-5.775022777999936,0.0],[-36.1218988679999,-5.774916110999925,0.0],[-36.12189888899991,-5.755076110999937,0.0],[-36.12187154599991,-5.755076110999937,0.0],[-36.12187154599991,-5.755077539999945,0.0],[-36.116006943999935,-5.755077542999913,0.0]]]]}}]}