{"type":"FeatureCollection","features":[{"type":"Feature","properties":{"PROCESSO":"848314/2015","NUMERO":848314,"ANO":2015,"AREA_HA":402.98,"ID":"{94883F01-119C-417E-87B7-C30372B4DFA8}","FASE":"AUTORIZAÇÃO DE PESQUISA","ULT_EVENTO":"794 - AUT PESQ/RELATÓRIO FINAL PESQUISA POSITIVO PROTOC EM 16/05/2024","NOME":"MINERADORA NOSSO SENHOR DO BONFIM LTDA","SUBS":"ILMENITA","USO":"Industrial","UF":"RN","DSProcesso":"848.314/2015","Bloco":"Bloco Bonfim","layer":"bloco_bonfim","path":"C:\\Users\\UsrMina07\\Desktop\\GILMAR\\Projeto Bonfim\\05. Arquivos Gis\\07. Temporários\\bloco_bonfim.shp","ORDEM":56,"LATITUDE":-5.88093472,"LONGITUDE":-36.18124235},"geometry":{"type":"MultiPolygon","coordinates":[[[[-36.16883638899992,-5.86950605699991,0.0],[-36.16883638899992,-5.877997221999919,0.0],[-36.17292680499992,-5.877997221999919,0.0],[-36.17292680499992,-5.876639027999943,0.0],[-36.178570693999916,-5.876639027999943,0.0],[-36.178570693999916,-5.883872221999923,0.0],[-36.17366638899995,-5.883872221999923,0.0],[-36.17366638899995,-5.885231249999947,0.0],[-36.16727972199993,-5.885231249999947,0.0],[-36.16727972199993,-5.891108193999912,0.0],[-36.172933610999905,-5.89110833299992,0.0],[-36.172933610999905,-5.897061943999915,0.0],[-36.166491666999946,-5.897061943999915,0.0],[-36.166491666999946,-5.897076666999908,0.0],[-36.18391400799993,-5.897076666999908,0.0],[-36.183914,-5.869506158999911,0.0],[-36.16883638899992,-5.86950605699991,0.0]]]]}}]}