{"type":"FeatureCollection","features":[{"type":"Feature","properties":{"PROCESSO":"848145/2009","NUMERO":848145,"ANO":2009,"AREA_HA":49.43,"ID":"{28227DC3-E38C-46CB-B67A-2E4EEE8E290A}","FASE":"REQUERIMENTO DE LAVRA GARIMPEIRA","ULT_EVENTO":"793 - REQ PLG/DOCUMENTO DIVERSO PROTOC EM 27/11/2018","NOME":"SEBASTIAO CAMPOS DE MELO","SUBS":"SCHEELITA","USO":"Industrial","UF":"RN","DSProcesso":"848.145/2009","Bloco":null,"layer":"processo_50km","path":"C:\\Users\\UsrMina07\\Desktop\\GILMAR\\Projeto Bonfim\\05. Arquivos Gis\\07. Temporários\\processo_50km.shp|subset=\"SUBS\" IN (\r\n    'MINÉRIO DE TUNGSTÊNIO',\r\n    'TUNGSTÊNIO',\r\n    'SCHEELITA'\r\n)","ORDEM":73,"LATITUDE":-5.97552366,"LONGITUDE":-36.29462697},"geometry":{"type":"MultiPolygon","coordinates":[[[[-36.292392916999916,-5.971005572999957,0.0],[-36.29239292199992,-5.980041755999935,0.0],[-36.2968610179999,-5.980041753999956,0.0],[-36.296861012999955,-5.971005569999932,0.0],[-36.292392916999916,-5.971005572999957,0.0]]]]}}]}