{"type":"FeatureCollection","features":[{"type":"Feature","properties":{"PROCESSO":"848308/2024","NUMERO":848308,"ANO":2024,"AREA_HA":1516.83,"ID":"{4B8E9075-1380-43EE-9327-3B7F12AC2FB1}","FASE":"AUTORIZAÇÃO DE PESQUISA","ULT_EVENTO":"264 - AUT PESQ/TAH - PAGAMENTO EFETUADO EM 22/07/2025","NOME":"ORCIGRAN EMPRESA DE MINERACAO LTDA","SUBS":"MINÉRIO DE TUNGSTÊNIO","USO":"Industrial","UF":"RN","DSProcesso":"848.308/2024","Bloco":null,"layer":"processo_50km","path":"C:\\Users\\UsrMina07\\Desktop\\GILMAR\\Projeto Bonfim\\05. Arquivos Gis\\07. Temporários\\processo_50km.shp|subset=\"SUBS\" IN (\r\n    'MINÉRIO DE TUNGSTÊNIO',\r\n    'TUNGSTÊNIO',\r\n    'SCHEELITA'\r\n)","ORDEM":9,"LATITUDE":-5.64240111,"LONGITUDE":-36.14698639},"geometry":{"type":"MultiPolygon","coordinates":[[[[-36.139316110999914,-5.629312777999928,0.0],[-36.139316110999914,-5.691933888999927,0.0],[-36.1491,-5.691933888999927,0.0],[-36.154655832999936,-5.691933850999931,0.0],[-36.154655832999936,-5.655489443999954,0.0],[-36.15465666699993,-5.655489443999954,0.0],[-36.15465666699993,-5.618484721999948,0.0],[-36.15465472199992,-5.618484721999948,0.0],[-36.15465472199992,-5.611225555999908,0.0],[-36.13931194399993,-5.611225555999908,0.0],[-36.13931194399993,-5.629312777999928,0.0],[-36.139316110999914,-5.629312777999928,0.0]]]]}}]}