{"type":"FeatureCollection","features":[{"type":"Feature","properties":{"PROCESSO":"848216/2013","NUMERO":848216,"ANO":2013,"AREA_HA":833.68,"ID":"{A7949F8F-771C-442B-A41C-72150E20D40A}","FASE":"AUTORIZAÇÃO DE PESQUISA","ULT_EVENTO":"214 - AUT PESQ/COMUNICAÇÃO OCORRÊNCIA OUTRA SUBSTÂNCIA PROTOC EM 02/06/2026","NOME":"MINERADORA NOSSO SENHOR DO BONFIM LTDA","SUBS":"MINÉRIO DE TUNGSTÊNIO","USO":"Industrial","UF":"RN","DSProcesso":"848.216/2013","Bloco":"Bloco Bonfim","layer":"bloco_bonfim","path":"C:\\Users\\UsrMina07\\Desktop\\GILMAR\\Projeto Bonfim\\05. Arquivos Gis\\07. Temporários\\bloco_bonfim.shp","ORDEM":18,"LATITUDE":-5.75410003,"LONGITUDE":-36.16211156},"geometry":{"type":"MultiPolygon","coordinates":[[[[-36.157222126999955,-5.733550400999945,0.0],[-36.15722215199992,-5.776955752999925,0.0],[-36.185211290999916,-5.776955179999959,0.0],[-36.18520988699993,-5.750731078999934,0.0],[-36.1781064889999,-5.750731360999907,0.0],[-36.17810648999995,-5.751838036999914,0.0],[-36.18262069699995,-5.751838034999935,0.0],[-36.18262126099995,-5.765537866999921,0.0],[-36.182620225999926,-5.765537866999921,0.0],[-36.182620225999926,-5.765539194999917,0.0],[-36.17237280699993,-5.765539230999934,0.0],[-36.172372810999946,-5.764625774999956,0.0],[-36.171245324999916,-5.764625771999931,0.0],[-36.17124424299993,-5.764625898999952,0.0],[-36.171244249999916,-5.763712578999957,0.0],[-36.17011670399995,-5.763712570999928,0.0],[-36.17011568299995,-5.763712564999935,0.0],[-36.17011569099992,-5.762799240999925,0.0],[-36.16898808199994,-5.762799232999953,0.0],[-36.168987125999934,-5.762799227999949,0.0],[-36.16898713599994,-5.76188590199996,0.0],[-36.16785945999993,-5.761885894999921,0.0],[-36.16785857299993,-5.761885887999938,0.0],[-36.16785858599991,-5.760972561999949,0.0],[-36.16673083899991,-5.76097255499991,0.0],[-36.166730024999936,-5.760972547999927,0.0],[-36.16673004699993,-5.759525650999933,0.0],[-36.16456415199991,-5.759525733999908,0.0],[-36.16456321499993,-5.759525657999916,0.0],[-36.16456327499992,-5.756360670999925,0.0],[-36.16456414999993,-5.756360764999954,0.0],[-36.167000946999906,-5.756360784999913,0.0],[-36.167001014999926,-5.75183938899994,0.0],[-36.165828046999934,-5.751839331999918,0.0],[-36.16582732899991,-5.751839280999945,0.0],[-36.165827571999955,-5.749126394999905,0.0],[-36.164924872999904,-5.749126471999944,0.0],[-36.16492479599992,-5.745509334999952,0.0],[-36.16758814099995,-5.745509355999957,0.0],[-36.16758814599996,-5.744695479999962,0.0],[-36.168055840999955,-5.74469548299993,0.0],[-36.16805583899992,-5.740535763999958,0.0],[-36.16754296399995,-5.740535751999914,0.0],[-36.167542975999936,-5.738727155999925,0.0],[-36.166098495999904,-5.738727145999917,0.0],[-36.16609850399993,-5.737822917999949,0.0],[-36.16805583699994,-5.737822924999932,0.0],[-36.168055834999905,-5.733550116999936,0.0],[-36.157222126999955,-5.733550400999945,0.0]]]]}}]}