{"type":"FeatureCollection","features":[{"type":"Feature","properties":{"PROCESSO":"848170/2009","NUMERO":848170,"ANO":2009,"AREA_HA":62.07,"ID":"{ACBAF5CF-C64C-42AA-9805-C634558E7184}","FASE":"CONCESSÃO DE LAVRA","ULT_EVENTO":"418 - CONC LAV/RAL ANO BASE APRESENTADO EM 12/03/2026","NOME":"MINERADORA NOSSO SENHOR DO BONFIM LTDA","SUBS":"MINÉRIO DE BISMUTO","USO":"Industrial","UF":"RN","DSProcesso":"848.170/2009","Bloco":"Bloco Bonfim","layer":"bloco_bonfim","path":"C:\\Users\\UsrMina07\\Desktop\\GILMAR\\Projeto Bonfim\\05. Arquivos Gis\\07. Temporários\\bloco_bonfim.shp","ORDEM":34,"LATITUDE":-5.82453505,"LONGITUDE":-36.12458244},"geometry":{"type":"MultiPolygon","coordinates":[[[[-36.118183217999956,-5.821678358999918,0.0],[-36.118183218999945,-5.822045306999939,0.0],[-36.118405442999915,-5.822045306999939,0.0],[-36.118405442999915,-5.822498087999918,0.0],[-36.11862766699994,-5.822498087999918,0.0],[-36.11862766699994,-5.823402539999961,0.0],[-36.11884989099991,-5.823402539999961,0.0],[-36.11884989199996,-5.823855876999914,0.0],[-36.119073227999934,-5.823855875999925,0.0],[-36.119073227999934,-5.82430865799995,0.0],[-36.11929656299992,-5.82430865799995,0.0],[-36.11929656299992,-5.824761439999918,0.0],[-36.11951934299992,-5.824761438999928,0.0],[-36.11951934299992,-5.825214219999907,0.0],[-36.119742955999925,-5.825214219999907,0.0],[-36.119742956999914,-5.825667001999932,0.0],[-36.11996656999992,-5.825667001999932,0.0],[-36.11996657099991,-5.827106734999916,0.0],[-36.12062657599995,-5.827106734999916,0.0],[-36.12062657599995,-5.826331728999946,0.0],[-36.12986832599995,-5.826331722999953,0.0],[-36.129868322999926,-5.821678351999935,0.0],[-36.118183217999956,-5.821678358999918,0.0]]]]}}]}