{"type":"FeatureCollection","features":[{"type":"Feature","properties":{"PROCESSO":"848077/2014","NUMERO":848077,"ANO":2014,"AREA_HA":1876.95,"ID":"{25FDCC67-F13D-4975-874F-87BFE4203435}","FASE":"REQUERIMENTO DE PESQUISA","ULT_EVENTO":"122 - REQ PESQ/INDEFERIMENTO P/NÃO CUMPRIMENTO DE EXIGÊNCIA PUBL EM 01/07/2020","NOME":"Xyz Brasil Empreendimentos Minerais Ltda Epp","SUBS":"MINÉRIO DE TUNGSTÊNIO","USO":"Industrial","UF":"RN","DSProcesso":"848.077/2014","Bloco":null,"layer":"processo_50km","path":"C:\\Users\\UsrMina07\\Desktop\\GILMAR\\Projeto Bonfim\\05. Arquivos Gis\\07. Temporários\\processo_50km.shp|subset=\"SUBS\" IN (\r\n    'MINÉRIO DE TUNGSTÊNIO',\r\n    'TUNGSTÊNIO',\r\n    'SCHEELITA'\r\n)","ORDEM":65,"LATITUDE":-5.94988698,"LONGITUDE":-36.20857841},"geometry":{"type":"MultiPolygon","coordinates":[[[[-36.19728873999992,-5.97928930799992,0.0],[-36.20619881999994,-5.979289301999927,0.0],[-36.20619881999994,-5.979827362999913,0.0],[-36.203611018999936,-5.979827363999959,0.0],[-36.20361102299995,-5.987047976999918,0.0],[-36.207608002999905,-5.987047974999939,0.0],[-36.20760799899995,-5.98072792399995,0.0],[-36.21044385899995,-5.980727921999915,0.0],[-36.21044385999994,-5.982677382999952,0.0],[-36.21495889999994,-5.982677379999927,0.0],[-36.21495889799991,-5.979289852999955,0.0],[-36.21521806599992,-5.979289852999955,0.0],[-36.215218067999956,-5.982519045999936,0.0],[-36.21500973299993,-5.982519045999936,0.0],[-36.21500973399992,-5.983041826999909,0.0],[-36.21077275199991,-5.983041829999934,0.0],[-36.21077275499994,-5.988829098999929,0.0],[-36.21803115299991,-5.988829094999915,0.0],[-36.21803113999994,-5.967084752999938,0.0],[-36.21986810099992,-5.967084751999948,0.0],[-36.219868068999915,-5.91395210099995,0.0],[-36.198442600999954,-5.913952113999926,0.0],[-36.19844261199995,-5.932689208999932,0.0],[-36.19728871199993,-5.932689209999921,0.0],[-36.19728873999992,-5.97928930799992,0.0]]]]}}]}