{"type":"FeatureCollection","features":[{"type":"Feature","properties":{"PROCESSO":"848184/2026","NUMERO":848184,"ANO":2026,"AREA_HA":1531.12,"ID":"{A57DEC18-CF4F-4D53-8322-DD5C2B1FBCD8}","FASE":"REQUERIMENTO DE PESQUISA","ULT_EVENTO":"100 - REQ PESQ/REQUERIMENTO PESQUISA PROTOC EM 15/07/2026","NOME":"BRAZILIAN STRATEGIC MINERALS LTDA","SUBS":"SCHEELITA","USO":"Industrial","UF":"RN","DSProcesso":"848.184/2026","Bloco":null,"layer":"processo_50km","path":"C:\\Users\\UsrMina07\\Desktop\\GILMAR\\Projeto Bonfim\\05. Arquivos Gis\\07. Temporários\\processo_50km.shp|subset=\"SUBS\" IN (\r\n    'MINÉRIO DE TUNGSTÊNIO',\r\n    'TUNGSTÊNIO',\r\n    'SCHEELITA'\r\n)","ORDEM":3,"LATITUDE":-5.603425,"LONGITUDE":-36.54059},"geometry":{"type":"MultiPolygon","coordinates":[[[[-36.57336888899994,-5.615868888999955,0.0],[-36.57336888899994,-5.612526110999909,0.0],[-36.56988888899991,-5.612526110999909,0.0],[-36.56988888899991,-5.606508055999939,0.0],[-36.5677980559999,-5.606508055999939,0.0],[-36.5677980559999,-5.600341943999922,0.0],[-36.57241611099994,-5.600341943999922,0.0],[-36.57241611099994,-5.612275,0.0],[-36.57337,-5.612275,0.0],[-36.57337,-5.594303888999946,0.0],[-36.513381943999946,-5.594303888999946,0.0],[-36.513381943999946,-5.615868888999955,0.0],[-36.57336888899994,-5.615868888999955,0.0]]]]}}]}