{"type":"FeatureCollection","features":[{"type":"Feature","properties":{"PROCESSO":"848120/2018","NUMERO":848120,"ANO":2018,"AREA_HA":452.82,"ID":"{AA15D4A8-BEF4-465E-A15F-DD862A6E1555}","FASE":"AUTORIZAÇÃO DE PESQUISA","ULT_EVENTO":"794 - AUT PESQ/RELATÓRIO FINAL PESQUISA POSITIVO PROTOC EM 02/04/2026","NOME":"MINERADORA NOSSO SENHOR DO BONFIM LTDA","SUBS":"ILMENITA","USO":"Industrial","UF":"RN","DSProcesso":"848.120/2018","Bloco":"Bloco Bonfim","layer":"bloco_bonfim","path":"C:\\Users\\UsrMina07\\Desktop\\GILMAR\\Projeto Bonfim\\05. Arquivos Gis\\07. Temporários\\bloco_bonfim.shp","ORDEM":60,"LATITUDE":-5.89469414,"LONGITUDE":-36.14674364},"geometry":{"type":"MultiPolygon","coordinates":[[[[-36.135756158999925,-5.874910837999948,0.0],[-36.13575617199996,-5.886078600999952,0.0],[-36.13575619199992,-5.88935584099994,0.0],[-36.136230362999925,-5.889356422999924,0.0],[-36.13873145799994,-5.889356436999947,0.0],[-36.1387322299999,-5.905095410999934,0.0],[-36.13873511699995,-5.905095410999934,0.0],[-36.13873511699995,-5.905464514999949,0.0],[-36.139312300999904,-5.905464486999961,0.0],[-36.139312300999904,-5.905466523999905,0.0],[-36.13931317799995,-5.905466523999905,0.0],[-36.13931317899994,-5.906352642999934,0.0],[-36.136768453999935,-5.906352643999924,0.0],[-36.136768454999924,-5.906375210999954,0.0],[-36.13676537799995,-5.906375210999954,0.0],[-36.13676537799995,-5.906795425999917,0.0],[-36.13634008899993,-5.906795425999917,0.0],[-36.13634018599993,-5.9135,0.0],[-36.136764548999906,-5.9135,0.0],[-36.13676454699993,-5.910043784999914,0.0],[-36.13676537999993,-5.910044137999932,0.0],[-36.155326378999916,-5.91004382999995,0.0],[-36.155329156999926,-5.910043773999917,0.0],[-36.15532915199992,-5.901089811999952,0.0],[-36.15532658399991,-5.901089811999952,0.0],[-36.155326448999915,-5.897078668999939,0.0],[-36.155329372999915,-5.897078668999939,0.0],[-36.155329372999915,-5.897061943999915,0.0],[-36.15475555599994,-5.897061943999915,0.0],[-36.1547555489999,-5.892326053999909,0.0],[-36.143683101999954,-5.892326339999954,0.0],[-36.14368306299991,-5.88632365199993,0.0],[-36.14249642599992,-5.886323658999913,0.0],[-36.14249638699994,-5.879141936999929,0.0],[-36.1421405719999,-5.879141937999918,0.0],[-36.14214059699992,-5.883945507999954,0.0],[-36.13762534399996,-5.88394552099993,0.0],[-36.13762533899995,-5.879142821999949,0.0],[-36.136558032999915,-5.879142821999949,0.0],[-36.136558031999925,-5.874910837999948,0.0],[-36.135756158999925,-5.874910837999948,0.0]]]]}}]}