{"type":"FeatureCollection","features":[{"type":"Feature","properties":{"PROCESSO":"848050/2022","NUMERO":848050,"ANO":2022,"AREA_HA":27.6,"ID":"{D4D8A53B-ECA4-449A-BC68-5135BF19855C}","FASE":"REQUERIMENTO DE LAVRA GARIMPEIRA","ULT_EVENTO":"335 - REQ PLG/INDEFERIMENTO REQUERIMENTO PLG PUBL EM 17/10/2022","NOME":"POTIGUAR MINERAIS E COMERCIO EIRELI","SUBS":"SCHEELITA","USO":"Industrial","UF":"RN","DSProcesso":"848.050/2022","Bloco":null,"layer":"processo_50km","path":"C:\\Users\\UsrMina07\\Desktop\\GILMAR\\Projeto Bonfim\\05. Arquivos Gis\\07. Temporários\\processo_50km.shp|subset=\"SUBS\" IN (\r\n    'MINÉRIO DE TUNGSTÊNIO',\r\n    'TUNGSTÊNIO',\r\n    'SCHEELITA'\r\n)","ORDEM":68,"LATITUDE":-5.96356389,"LONGITUDE":-36.12252083},"geometry":{"type":"MultiPolygon","coordinates":[[[[-36.11946388899992,-5.965036110999961,0.0],[-36.12163055599996,-5.965036110999961,0.0],[-36.12163055599996,-5.965275,0.0],[-36.122266666999906,-5.965275,0.0],[-36.122266666999906,-5.965525,0.0],[-36.12276666699995,-5.965525,0.0],[-36.12276666699995,-5.966119443999958,0.0],[-36.12366388899994,-5.966119443999958,0.0],[-36.12366388899994,-5.966694443999927,0.0],[-36.12557777799992,-5.966694443999927,0.0],[-36.12557777799992,-5.962091666999925,0.0],[-36.11946388899992,-5.962091666999925,0.0],[-36.11946388899992,-5.965036110999961,0.0]]]]}}]}