{"type":"FeatureCollection","features":[{"type":"Feature","properties":{"PROCESSO":"848375/2012","NUMERO":848375,"ANO":2012,"AREA_HA":999.25,"ID":"{130A584A-4D3C-4A9C-9154-6D2675EA6D13}","FASE":"DIREITO DE REQUERER A LAVRA","ULT_EVENTO":"2210 - DIR REQ LAV/PRORROGAÇÃO PRAZO REQUERIMENTO LAVRA PROTOC EM 23/03/2026","NOME":"MINERADORA NOSSO SENHOR DO BONFIM LTDA","SUBS":"ILMENITA","USO":"Industrial","UF":"RN","DSProcesso":"848.375/2012","Bloco":"Bloco Bonfim","layer":"bloco_bonfim","path":"C:\\Users\\UsrMina07\\Desktop\\GILMAR\\Projeto Bonfim\\05. Arquivos Gis\\07. Temporários\\bloco_bonfim.shp","ORDEM":13,"LATITUDE":-5.7243,"LONGITUDE":-36.14185},"geometry":{"type":"MultiPolygon","coordinates":[[[[-36.15195,-5.7009,0.0],[-36.15195,-5.6954,0.0],[-36.1491,-5.6954,0.0],[-36.1491,-5.691933888999927,0.0],[-36.139316110999914,-5.691933888999927,0.0],[-36.139316110999914,-5.692612777999955,0.0],[-36.13193027799991,-5.692612777999955,0.0],[-36.13193027799991,-5.7167,0.0],[-36.1338,-5.7167,0.0],[-36.1338,-5.7229,0.0],[-36.135,-5.7229,0.0],[-36.135,-5.7428,0.0],[-36.13595,-5.7428,0.0],[-36.13595,-5.756594166999946,0.0],[-36.14455,-5.756594166999946,0.0],[-36.14455,-5.75465,0.0],[-36.15720027799995,-5.75465,0.0],[-36.15720027799995,-5.7468,0.0],[-36.151,-5.7468,0.0],[-36.151,-5.754,0.0],[-36.14455,-5.754,0.0],[-36.14455,-5.7468,0.0],[-36.14105,-5.7468,0.0],[-36.14105,-5.73115,0.0],[-36.15185,-5.73115,0.0],[-36.15185,-5.7284,0.0],[-36.1449,-5.7284,0.0],[-36.1449,-5.7257,0.0],[-36.1487,-5.7257,0.0],[-36.1487,-5.7197,0.0],[-36.1502,-5.7197,0.0],[-36.1502,-5.71545,0.0],[-36.14695,-5.71545,0.0],[-36.14695,-5.71295,0.0],[-36.14475,-5.71295,0.0],[-36.14475,-5.7009,0.0],[-36.15195,-5.7009,0.0]]]]}}]}