{"type":"FeatureCollection","features":[{"type":"Feature","properties":{"PROCESSO":"848099/1997","NUMERO":848099,"ANO":1997,"AREA_HA":67.86,"ID":"{CD744B7E-FFD9-4D00-A2D3-C016F8062E5F}","FASE":"CONCESSÃO DE LAVRA","ULT_EVENTO":"470 - CONC LAV/EXIGÊNCIA PUBL EM 31/07/2026","NOME":"MINERADORA NOSSO SENHOR DO BONFIM LTDA","SUBS":"BISMUTO","USO":"Demais substâncias","UF":"RN","DSProcesso":"848.099/1997","Bloco":"Bloco Bonfim","layer":"bloco_bonfim","path":"C:\\Users\\UsrMina07\\Desktop\\GILMAR\\Projeto Bonfim\\05. Arquivos Gis\\07. Temporários\\bloco_bonfim.shp","ORDEM":42,"LATITUDE":-5.84698259,"LONGITUDE":-36.13579038},"geometry":{"type":"MultiPolygon","coordinates":[[[[-36.140287250999904,-5.85210083599992,0.0],[-36.140287248999925,-5.849975779999909,0.0],[-36.13848126699992,-5.84997577799993,0.0],[-36.13848128199993,-5.84450488799996,0.0],[-36.1366753179999,-5.844504879999931,0.0],[-36.13667534699994,-5.839513256999908,0.0],[-36.133099569999956,-5.839513224999905,0.0],[-36.13309944899993,-5.849460298999929,0.0],[-36.135808417999954,-5.849460325999928,0.0],[-36.13580839899993,-5.852100821999954,0.0],[-36.140287250999904,-5.85210083599992,0.0]]]]}}]}