{"type":"FeatureCollection","features":[{"type":"Feature","properties":{"PROCESSO":"848376/2012","NUMERO":848376,"ANO":2012,"AREA_HA":703.11,"ID":"{FE0A21AA-7BCA-4FD0-97BE-DA83CDC31EC0}","FASE":"DIREITO DE REQUERER A LAVRA","ULT_EVENTO":"2210 - DIR REQ LAV/PRORROGAÇÃO PRAZO REQUERIMENTO LAVRA PROTOC EM 26/05/2026","NOME":"MINERADORA NOSSO SENHOR DO BONFIM LTDA","SUBS":"ILMENITA","USO":"Industrial","UF":"RN","DSProcesso":"848.376/2012","Bloco":"Bloco Bonfim","layer":"bloco_bonfim","path":"C:\\Users\\UsrMina07\\Desktop\\GILMAR\\Projeto Bonfim\\05. Arquivos Gis\\07. Temporários\\bloco_bonfim.shp","ORDEM":29,"LATITUDE":-5.80477525,"LONGITUDE":-36.13036307},"geometry":{"type":"MultiPolygon","coordinates":[[[[-36.10583002499993,-5.77439437299995,0.0],[-36.105830038999954,-5.798692346999928,0.0],[-36.10697615999993,-5.798692346999928,0.0],[-36.10697643499992,-5.794546201999935,0.0],[-36.110290075999956,-5.794546199999957,0.0],[-36.110290078999924,-5.799164570999949,0.0],[-36.12115017599996,-5.799164563999909,0.0],[-36.12115017299993,-5.794546193999906,0.0],[-36.13024692099992,-5.794545910999943,0.0],[-36.130247769999926,-5.821674462999908,0.0],[-36.12933026199994,-5.82167447799992,0.0],[-36.12933026199994,-5.821678352999925,0.0],[-36.129868322999926,-5.821678351999935,0.0],[-36.12986832599995,-5.826331009999933,0.0],[-36.14211926799993,-5.826331160999928,0.0],[-36.142119263999916,-5.819277770999918,0.0],[-36.14762736799992,-5.819277767999949,0.0],[-36.14762736799992,-5.819394712999951,0.0],[-36.148008872999924,-5.819394711999905,0.0],[-36.148008862999916,-5.818930608999949,0.0],[-36.14985989299993,-5.818930565999949,0.0],[-36.149859690999904,-5.810857945999942,0.0],[-36.14953174099992,-5.810857959999908,0.0],[-36.1495317209999,-5.810385926999913,0.0],[-36.13047895799991,-5.810386426999912,0.0],[-36.13047881399996,-5.794923223999945,0.0],[-36.13163543199994,-5.794923211999958,0.0],[-36.131635203999906,-5.774893377999945,0.0],[-36.12550673699991,-5.774893413999905,0.0],[-36.12550687599992,-5.788481974999911,0.0],[-36.119117650999954,-5.78848200799996,0.0],[-36.106997458999956,-5.788481904999912,0.0],[-36.10699788799991,-5.775027079999916,0.0],[-36.106546385999934,-5.775027075999958,0.0],[-36.10654639599994,-5.774394371999961,0.0],[-36.10583002499993,-5.77439437299995,0.0]]]]}}]}