{"type":"FeatureCollection","features":[{"type":"Feature","properties":{"PROCESSO":"848045/2015","NUMERO":848045,"ANO":2015,"AREA_HA":400.26,"ID":"{8BACBDB7-43A4-4D16-BD7A-A9BDC8754B41}","FASE":"REQUERIMENTO DE PESQUISA","ULT_EVENTO":"122 - REQ PESQ/INDEFERIMENTO P/NÃO CUMPRIMENTO DE EXIGÊNCIA PUBL EM 17/07/2018","NOME":"Cmv Inovação Em Geociências Ltda Me","SUBS":"MINÉRIO DE TUNGSTÊNIO","USO":"Industrial","UF":"RN","DSProcesso":"848.045/2015","Bloco":null,"layer":"processo_50km","path":"C:\\Users\\UsrMina07\\Desktop\\GILMAR\\Projeto Bonfim\\05. Arquivos Gis\\07. Temporários\\processo_50km.shp|subset=\"SUBS\" IN (\r\n    'MINÉRIO DE TUNGSTÊNIO',\r\n    'TUNGSTÊNIO',\r\n    'SCHEELITA'\r\n)","ORDEM":4,"LATITUDE":-5.619702,"LONGITUDE":-36.10370624},"geometry":{"type":"MultiPolygon","coordinates":[[[[-36.09751346799993,-5.611233609999942,0.0],[-36.09751347799994,-5.628244858999949,0.0],[-36.116948650999916,-5.628244847999952,0.0],[-36.116948642999944,-5.61335500499996,0.0],[-36.11693864299991,-5.61335500499996,0.0],[-36.11693864299991,-5.613458338999919,0.0],[-36.11648280599991,-5.613610562999952,0.0],[-36.116025856999954,-5.613705841999945,0.0],[-36.11581641099991,-5.613838897999926,0.0],[-36.1158164119999,-5.614730849999944,0.0],[-36.11556890999992,-5.615019185999927,0.0],[-36.11539779699996,-5.615095297999915,0.0],[-36.11488362499995,-5.614714739999954,0.0],[-36.11425556499995,-5.614638628999955,0.0],[-36.11397000599993,-5.614695572999949,0.0],[-36.113589169999955,-5.615076408999926,0.0],[-36.11338000099994,-5.615514190999932,0.0],[-36.11320861099995,-5.616009194999947,0.0],[-36.11271360699993,-5.616446976999953,0.0],[-36.111876099999904,-5.616941981999958,0.0],[-36.11113359399991,-5.617760321999924,0.0],[-36.11071497899991,-5.618350604999932,0.0],[-36.11041025499992,-5.61916894399991,0.0],[-36.11023886499993,-5.619587836999926,0.0],[-36.11008664199994,-5.620082840999942,0.0],[-36.10940135799996,-5.620787013999916,0.0],[-36.10890635399994,-5.62111062799994,0.0],[-36.10865912899993,-5.621243961999937,0.0],[-36.108525793999945,-5.621453408999912,0.0],[-36.10831634899995,-5.621815077999941,0.0],[-36.10791662299994,-5.621910356999933,0.0],[-36.10747884099993,-5.621872023999913,0.0],[-36.10725022799994,-5.621910356999933,0.0],[-36.10702189199992,-5.622157581999943,0.0],[-36.10692689199993,-5.623052311999913,0.0],[-36.10666022399994,-5.623452036999936,0.0],[-36.1058796609999,-5.623851762999948,0.0],[-36.10576549399991,-5.624042320999934,0.0],[-36.10578465999993,-5.624213432999909,0.0],[-36.106089107999935,-5.624575379999953,0.0],[-36.10622244399991,-5.627069010999946,0.0],[-36.105556049999905,-5.628230687999917,0.0],[-36.10538493699994,-5.628230687999917,0.0],[-36.10603216399994,-5.627049844999931,0.0],[-36.105898828999955,-5.624632324999936,0.0],[-36.10563243699994,-5.624384822999957,0.0],[-36.10557521399994,-5.624099264999927,0.0],[-36.10572743799992,-5.623794818999954,0.0],[-36.106165218999934,-5.623585371999923,0.0],[-36.106564944999946,-5.623299813999949,0.0],[-36.10685050299992,-5.62282397599995,0.0],[-36.10694578099992,-5.621948413999917,0.0],[-36.107288560999905,-5.621719800999927,0.0],[-36.10816412499992,-5.621681743999943,0.0],[-36.10858273999992,-5.621091738999951,0.0],[-36.10909690999995,-5.62082506999991,0.0],[-36.10962997099995,-5.620406454999909,0.0],[-36.10987719399992,-5.619816172999947,0.0],[-36.109953583999925,-5.619416446999935,0.0],[-36.11031525399994,-5.619035887999928,0.0],[-36.110562477999906,-5.618255325999939,0.0],[-36.111818876999905,-5.616808646999914,0.0],[-36.11296110899991,-5.616028084999925,0.0],[-36.11326555599993,-5.615076409999915,0.0],[-36.11387472699994,-5.614524182999958,0.0],[-36.11440778799994,-5.614505292999922,0.0],[-36.11490279199995,-5.614543348999916,0.0],[-36.1153405739999,-5.614828905999957,0.0],[-36.11556890899993,-5.614619460999961,0.0],[-36.11564529899994,-5.614200567999944,0.0],[-36.11556890899993,-5.613781953999933,0.0],[-36.116025856999954,-5.613515283999959,0.0],[-36.11693864299991,-5.613248892999934,0.0],[-36.11693864299991,-5.61335222699995,0.0],[-36.116948642999944,-5.61335222699995,0.0],[-36.116948641999954,-5.611233598999945,0.0],[-36.09751346799993,-5.611233609999942,0.0]]]]}}]}