{"type":"FeatureCollection","features":[{"type":"Feature","properties":{"PROCESSO":"848203/2026","NUMERO":848203,"ANO":2026,"AREA_HA":1791.02,"ID":"{26421A7F-0791-4CDD-B346-58346B192126}","FASE":"REQUERIMENTO DE PESQUISA","ULT_EVENTO":"100 - REQ PESQ/REQUERIMENTO PESQUISA PROTOC EM 15/07/2026","NOME":"BRAZIL MINING IMPORTACAO E EXPORTACAO LTDA","SUBS":"SCHEELITA","USO":"Industrial","UF":"RN","DSProcesso":"848.203/2026","Bloco":null,"layer":"processo_50km","path":"C:\\Users\\UsrMina07\\Desktop\\GILMAR\\Projeto Bonfim\\05. Arquivos Gis\\07. Temporários\\processo_50km.shp|subset=\"SUBS\" IN (\r\n    'MINÉRIO DE TUNGSTÊNIO',\r\n    'TUNGSTÊNIO',\r\n    'SCHEELITA'\r\n)","ORDEM":10,"LATITUDE":-5.65568389,"LONGITUDE":-36.4245825},"geometry":{"type":"MultiPolygon","coordinates":[[[[-36.45896805599995,-5.665496110999925,0.0],[-36.45896805599995,-5.64818194399993,0.0],[-36.40480805599992,-5.64818194399993,0.0],[-36.40480805599992,-5.645683055999939,0.0],[-36.35091694399995,-5.645683055999939,0.0],[-36.35091694399995,-5.651725,0.0],[-36.37466305599992,-5.651725,0.0],[-36.37466305599992,-5.656058888999951,0.0],[-36.375781110999924,-5.656058888999951,0.0],[-36.375781110999924,-5.655308888999912,0.0],[-36.37675305599993,-5.655308888999912,0.0],[-36.37675305599993,-5.654975,0.0],[-36.38164194399991,-5.654975,0.0],[-36.38164194399991,-5.653363888999934,0.0],[-36.383225,-5.653363888999934,0.0],[-36.383225,-5.651198055999942,0.0],[-36.384531110999944,-5.651198055999942,0.0],[-36.384531110999944,-5.649891943999933,0.0],[-36.38658694399993,-5.649891943999933,0.0],[-36.38658694399993,-5.64842,0.0],[-36.388975,-5.64842,0.0],[-36.388975,-5.646808888999942,0.0],[-36.39019805599992,-5.646808888999942,0.0],[-36.39019805599992,-5.645725,0.0],[-36.393886110999915,-5.645725,0.0],[-36.393886110999915,-5.64763611099994,0.0],[-36.39144111099995,-5.64763611099994,0.0],[-36.39144111099995,-5.648996943999919,0.0],[-36.39035805599991,-5.648996943999919,0.0],[-36.39035805599991,-5.65008,0.0],[-36.39019694399991,-5.65008,0.0],[-36.39019694399991,-5.660248055999944,0.0],[-36.3913,-5.660248055999944,0.0],[-36.3913,-5.662913055999923,0.0],[-36.38988305599992,-5.662913055999923,0.0],[-36.38988305599992,-5.665496110999925,0.0],[-36.45896805599995,-5.665496110999925,0.0]]]]}}]}