{"type":"FeatureCollection","features":[{"type":"Feature","properties":{"PROCESSO":"848243/2013","NUMERO":848243,"ANO":2013,"AREA_HA":999.97,"ID":"{3D920354-3FB3-4498-AF66-A3869B11425C}","FASE":"DIREITO DE REQUERER A LAVRA","ULT_EVENTO":"2210 - DIR REQ LAV/PRORROGAÇÃO PRAZO REQUERIMENTO LAVRA PROTOC EM 26/05/2026","NOME":"MINERADORA NOSSO SENHOR DO BONFIM LTDA","SUBS":"FOSFATO","USO":"Fertilizantes","UF":"RN","DSProcesso":"848.243/2013","Bloco":"Bloco Bonfim","layer":"bloco_bonfim","path":"C:\\Users\\UsrMina07\\Desktop\\GILMAR\\Projeto Bonfim\\05. Arquivos Gis\\07. Temporários\\bloco_bonfim.shp","ORDEM":27,"LATITUDE":-5.78864,"LONGITUDE":-36.15098472},"geometry":{"type":"MultiPolygon","coordinates":[[[[-36.145230555999944,-5.77959,0.0],[-36.145230555999944,-5.79769,0.0],[-36.1554,-5.79769,0.0],[-36.1554,-5.8125,0.0],[-36.1575,-5.8125,0.0],[-36.1575,-5.8218,0.0],[-36.152,-5.8218,0.0],[-36.152,-5.8271,0.0],[-36.1609,-5.8271,0.0],[-36.1609,-5.8312,0.0],[-36.1656,-5.8312,0.0],[-36.1656,-5.8245,0.0],[-36.16903055599994,-5.8245,0.0],[-36.16903055599994,-5.81015,0.0],[-36.15673888899994,-5.81015,0.0],[-36.15673888899994,-5.77695,0.0],[-36.15722194399996,-5.77695,0.0],[-36.15722194399996,-5.756594443999916,0.0],[-36.1399,-5.756594443999916,0.0],[-36.1399,-5.761,0.0],[-36.1412,-5.761,0.0],[-36.1412,-5.7632,0.0],[-36.1425,-5.7632,0.0],[-36.1425,-5.77959,0.0],[-36.145230555999944,-5.77959,0.0]]]]}}]}