{"type":"FeatureCollection","features":[{"type":"Feature","properties":{"PROCESSO":"848041/2016","NUMERO":848041,"ANO":2016,"AREA_HA":1377.61,"ID":"{1816ADEE-6090-4ACF-8C1E-CAE65F1D3D93}","FASE":"REQUERIMENTO DE LAVRA","ULT_EVENTO":"681 - AUT PESQ/RELATÓRIO FINAL PESQUISA ANALISADO EM 16/10/2019","NOME":"VALDERI JERONIMO DA SILVA","SUBS":"MINÉRIO DE TUNGSTÊNIO","USO":"Industrial","UF":"RN","DSProcesso":"848.041/2016","Bloco":null,"layer":"processo_50km","path":"C:\\Users\\UsrMina07\\Desktop\\GILMAR\\Projeto Bonfim\\05. Arquivos Gis\\07. Temporários\\processo_50km.shp|subset=\"SUBS\" IN (\r\n    'MINÉRIO DE TUNGSTÊNIO',\r\n    'TUNGSTÊNIO',\r\n    'SCHEELITA'\r\n)","ORDEM":80,"LATITUDE":-6.00570417,"LONGITUDE":-36.14923055},"geometry":{"type":"MultiPolygon","coordinates":[[[[-36.14754166699993,-5.985380555999939,0.0],[-36.14754166699993,-5.997177777999923,0.0],[-36.14081111099995,-5.997177777999923,0.0],[-36.14081105699995,-6.021877462999953,0.0],[-36.14081105699995,-6.021896886999912,0.0],[-36.14165923099995,-6.02189687799995,0.0],[-36.141872221999904,-6.021896943999934,0.0],[-36.141872221999904,-6.032366666999906,0.0],[-36.172480555999925,-6.032366666999906,0.0],[-36.172480555999925,-6.014913888999956,0.0],[-36.16731666699991,-6.014913888999956,0.0],[-36.16731666699991,-6.010538888999918,0.0],[-36.15765,-6.010538888999918,0.0],[-36.15765,-6.000869443999932,0.0],[-36.16561666699994,-6.000869443999932,0.0],[-36.16561666699994,-5.985380555999939,0.0],[-36.14754166699993,-5.985380555999939,0.0]]]]}}]}