{"type":"FeatureCollection","features":[{"type":"Feature","properties":{"PROCESSO":"848133/1996","NUMERO":848133,"ANO":1996,"AREA_HA":50.0,"ID":"{D8CDCC6A-891A-4507-B619-8DDD10384750}","FASE":"LAVRA GARIMPEIRA","ULT_EVENTO":"530 - PLG/EXIGÊNCIA PUBL EM 10/11/2025","NOME":"LUIZ MOTTA FILHO","SUBS":"SCHEELITA","USO":"Demais substâncias","UF":"RN","DSProcesso":"848.133/1996","Bloco":null,"layer":"processo_50km","path":"C:\\Users\\UsrMina07\\Desktop\\GILMAR\\Projeto Bonfim\\05. Arquivos Gis\\07. Temporários\\processo_50km.shp|subset=\"SUBS\" IN (\r\n    'MINÉRIO DE TUNGSTÊNIO',\r\n    'TUNGSTÊNIO',\r\n    'SCHEELITA'\r\n)","ORDEM":28,"LATITUDE":-5.79755148,"LONGITUDE":-36.30255241},"geometry":{"type":"MultiPolygon","coordinates":[[[[-36.30480967799991,-5.802072887999941,0.0],[-36.30480967199992,-5.793030077999958,0.0],[-36.30029517199995,-5.793030062999946,0.0],[-36.30029510499992,-5.802072872999929,0.0],[-36.30480967799991,-5.802072887999941,0.0]]]]}}]}