{"type":"FeatureCollection","features":[{"type":"Feature","properties":{"PROCESSO":"848011/2022","NUMERO":848011,"ANO":2022,"AREA_HA":47.09,"ID":"{38759028-496B-4257-A83F-256BCFCC432E}","FASE":"REQUERIMENTO DE LAVRA GARIMPEIRA","ULT_EVENTO":"335 - REQ PLG/INDEFERIMENTO REQUERIMENTO PLG PUBL EM 17/10/2022","NOME":"POTIGUAR MINERAIS E COMERCIO EIRELI","SUBS":"SCHEELITA","USO":"Industrial","UF":"RN","DSProcesso":"848.011/2022","Bloco":null,"layer":"processo_50km","path":"C:\\Users\\UsrMina07\\Desktop\\GILMAR\\Projeto Bonfim\\05. Arquivos Gis\\07. Temporários\\processo_50km.shp|subset=\"SUBS\" IN (\r\n    'MINÉRIO DE TUNGSTÊNIO',\r\n    'TUNGSTÊNIO',\r\n    'SCHEELITA'\r\n)","ORDEM":63,"LATITUDE":-5.92651875,"LONGITUDE":-36.12473625},"geometry":{"type":"MultiPolygon","coordinates":[[[[-36.12162027799991,-5.923433055999908,0.0],[-36.12162027799991,-5.929604443999949,0.0],[-36.127852221999945,-5.929604443999949,0.0],[-36.127852221999945,-5.923433055999908,0.0],[-36.12162027799991,-5.923433055999908,0.0]]]]}}]}