{"type":"FeatureCollection","features":[{"type":"Feature","properties":{"PROCESSO":"848254/2022","NUMERO":848254,"ANO":2022,"AREA_HA":56.53,"ID":"{DA8082EA-8B5B-4F2A-BE5C-1DA6C32FDCC6}","FASE":"AUTORIZAÇÃO DE PESQUISA","ULT_EVENTO":"265 - AUT PESQ/PRORROGAÇÃO PRAZO ALVARÁ-SOLICITAÇÃO PROTOC EM 18/12/2025","NOME":"MINERADORA NOSSO SENHOR DO BONFIM LTDA","SUBS":"ILMENITA","USO":"Industrial","UF":"RN","DSProcesso":"848.254/2022","Bloco":"Bloco Bonfim","layer":"bloco_bonfim","path":"C:\\Users\\UsrMina07\\Desktop\\GILMAR\\Projeto Bonfim\\05. Arquivos Gis\\07. Temporários\\bloco_bonfim.shp","ORDEM":38,"LATITUDE":-5.84122139,"LONGITUDE":-36.15438826},"geometry":{"type":"MultiPolygon","coordinates":[[[[-36.1547930559999,-5.851103332999912,0.0],[-36.15575444399991,-5.851103332999912,0.0],[-36.15575416699994,-5.833384166999906,0.0],[-36.15126111099994,-5.833384443999933,0.0],[-36.15126111099994,-5.835649443999955,0.0],[-36.1517,-5.835649443999955,0.0],[-36.1517,-5.83783638899996,0.0],[-36.152405555999906,-5.83783638899996,0.0],[-36.152405555999906,-5.840172777999953,0.0],[-36.15302222199995,-5.840172777999953,0.0],[-36.15302222199995,-5.84227,0.0],[-36.153669443999945,-5.84227,0.0],[-36.153669443999945,-5.844486666999956,0.0],[-36.15405,-5.844486666999956,0.0],[-36.15405,-5.84709777799992,0.0],[-36.15443888899995,-5.84709777799992,0.0],[-36.15443888899995,-5.848911666999925,0.0],[-36.1547930559999,-5.848911666999925,0.0],[-36.1547930559999,-5.851103332999912,0.0]]]]}}]}