{"type":"FeatureCollection","features":[{"type":"Feature","properties":{"PROCESSO":"848189/2021","NUMERO":848189,"ANO":2021,"AREA_HA":233.6,"ID":"{CE1F7D5F-0C0B-4BB0-B9DC-3C49CCED0D3B}","FASE":"AUTORIZAÇÃO DE PESQUISA","ULT_EVENTO":"236 - AUT PESQ/DOCUMENTO DIVERSO PROTOC EM 21/05/2026","NOME":"MINERADORA NOSSO SENHOR DO BONFIM LTDA","SUBS":"ILMENITA","USO":"Industrial","UF":"RN","DSProcesso":"848.189/2021","Bloco":"Bloco Bonfim","layer":"bloco_bonfim","path":"C:\\Users\\UsrMina07\\Desktop\\GILMAR\\Projeto Bonfim\\05. Arquivos Gis\\07. Temporários\\bloco_bonfim.shp","ORDEM":57,"LATITUDE":-5.88410083,"LONGITUDE":-36.26905042},"geometry":{"type":"MultiPolygon","coordinates":[[[[-36.26533111099991,-5.891846943999951,0.0],[-36.27553166699994,-5.891846943999951,0.0],[-36.27553166699994,-5.882366666999928,0.0],[-36.27545972199994,-5.882366666999928,0.0],[-36.27545972199994,-5.880706110999938,0.0],[-36.274226943999906,-5.880706110999938,0.0],[-36.274226943999906,-5.878814443999943,0.0],[-36.27230444399993,-5.878814443999943,0.0],[-36.27230444399993,-5.876124166999944,0.0],[-36.27058388899991,-5.876124166999944,0.0],[-36.27058388899991,-5.874274166999953,0.0],[-36.262569166999924,-5.874274166999953,0.0],[-36.262569166999924,-5.885835,0.0],[-36.26533111099991,-5.885835,0.0],[-36.26533111099991,-5.891846943999951,0.0]]]]}}]}