{"type":"FeatureCollection","features":[{"type":"Feature","properties":{"PROCESSO":"848210/2014","NUMERO":848210,"ANO":2014,"AREA_HA":8.86,"ID":"{3FD6C201-07DE-4160-B8DC-143F86F789CB}","FASE":"REQUERIMENTO DE PESQUISA","ULT_EVENTO":"157 - REQ PESQ/DESISTÊNCIA REQUERIMENTO PESQUISA HOMOLOGADA PUBL EM 26/01/2016","NOME":"Zurenildo Roseno da Silva","SUBS":"MINÉRIO DE TUNGSTÊNIO","USO":"Industrial","UF":"RN","DSProcesso":"848.210/2014","Bloco":null,"layer":"processo_50km","path":"C:\\Users\\UsrMina07\\Desktop\\GILMAR\\Projeto Bonfim\\05. Arquivos Gis\\07. Temporários\\processo_50km.shp|subset=\"SUBS\" IN (\r\n    'MINÉRIO DE TUNGSTÊNIO',\r\n    'TUNGSTÊNIO',\r\n    'SCHEELITA'\r\n)","ORDEM":59,"LATITUDE":-5.891656,"LONGITUDE":-36.15566266},"geometry":{"type":"MultiPolygon","coordinates":[[[[-36.155329372999915,-5.897078668999939,0.0],[-36.15599640799991,-5.897078668999939,0.0],[-36.15599569799991,-5.886233310999955,0.0],[-36.15532914999994,-5.886233326999957,0.0],[-36.155329372999915,-5.897078668999939,0.0]]]]}}]}