{"type":"FeatureCollection","features":[{"type":"Feature","properties":{"PROCESSO":"848255/2022","NUMERO":848255,"ANO":2022,"AREA_HA":12.69,"ID":"{D98F9FD1-D3A0-4CC9-BFD6-D9BA62699CF4}","FASE":"AUTORIZAÇÃO DE PESQUISA","ULT_EVENTO":"265 - AUT PESQ/PRORROGAÇÃO PRAZO ALVARÁ-SOLICITAÇÃO PROTOC EM 18/12/2025","NOME":"MINERADORA NOSSO SENHOR DO BONFIM LTDA","SUBS":"ILMENITA","USO":"Industrial","UF":"RN","DSProcesso":"848.255/2022","Bloco":"Bloco Bonfim","layer":"bloco_bonfim","path":"C:\\Users\\UsrMina07\\Desktop\\GILMAR\\Projeto Bonfim\\05. Arquivos Gis\\07. Temporários\\bloco_bonfim.shp","ORDEM":32,"LATITUDE":-5.82195847,"LONGITUDE":-36.14675944},"geometry":{"type":"MultiPolygon","coordinates":[[[[-36.146644443999946,-5.825403055999914,0.0],[-36.14762749999994,-5.825403055999914,0.0],[-36.14762749999994,-5.819277777999957,0.0],[-36.14494416699995,-5.819277777999957,0.0],[-36.14494416699995,-5.820841666999911,0.0],[-36.14589138899993,-5.820841666999911,0.0],[-36.14589138899993,-5.823075277999919,0.0],[-36.146644443999946,-5.823075277999919,0.0],[-36.146644443999946,-5.825403055999914,0.0]]]]}}]}