{"type":"FeatureCollection","features":[{"type":"Feature","properties":{"PROCESSO":"848268/2026","NUMERO":848268,"ANO":2026,"AREA_HA":9.01,"ID":"{7B479290-0031-462D-B961-50CB8F894A3A}","FASE":"REQUERIMENTO DE LAVRA GARIMPEIRA","ULT_EVENTO":"333 - REQ PLG/REQUERIMENTO LAVRA GARIMPEIRA PROTOC EM 14/08/2026","NOME":"EDIVALDO FRANKLIN DA SILVA LIMA","SUBS":"SCHEELITA","USO":"Industrial","UF":"RN","DSProcesso":"848.268/2026","Bloco":null,"layer":"processo_50km","path":"C:\\Users\\UsrMina07\\Desktop\\GILMAR\\Projeto Bonfim\\05. Arquivos Gis\\07. Temporários\\processo_50km.shp|subset=\"SUBS\" IN (\r\n    'MINÉRIO DE TUNGSTÊNIO',\r\n    'TUNGSTÊNIO',\r\n    'SCHEELITA'\r\n)","ORDEM":70,"LATITUDE":-5.96804167,"LONGITUDE":-36.43333472},"geometry":{"type":"MultiPolygon","coordinates":[[[[-36.44352777799992,-5.967861110999934,0.0],[-36.423141666999925,-5.967861110999934,0.0],[-36.423141666999925,-5.968222221999952,0.0],[-36.44352777799992,-5.968222221999952,0.0],[-36.44352777799992,-5.967861110999934,0.0]]]]}}]}