{"type":"FeatureCollection","features":[{"type":"Feature","properties":{"PROCESSO":"848294/2024","NUMERO":848294,"ANO":2024,"AREA_HA":281.32,"ID":"{73D4B0D7-5C80-4606-9505-22805F78AC1D}","FASE":"AUTORIZAÇÃO DE PESQUISA","ULT_EVENTO":"264 - AUT PESQ/TAH - PAGAMENTO EFETUADO EM 31/07/2026","NOME":"AMASON RESOURCE GROUP DO BRASIL LTDA","SUBS":"MINÉRIO DE TUNGSTÊNIO","USO":"Industrial","UF":"RN","DSProcesso":"848.294/2024","Bloco":null,"layer":"processo_50km","path":"C:\\Users\\UsrMina07\\Desktop\\GILMAR\\Projeto Bonfim\\05. Arquivos Gis\\07. Temporários\\processo_50km.shp|subset=\"SUBS\" IN (\r\n    'MINÉRIO DE TUNGSTÊNIO',\r\n    'TUNGSTÊNIO',\r\n    'SCHEELITA'\r\n)","ORDEM":79,"LATITUDE":-6.00093,"LONGITUDE":-36.42030597},"geometry":{"type":"MultiPolygon","coordinates":[[[[-36.4131730549999,-5.997154270999943,0.0],[-36.41317305599995,-5.997422221999955,0.0],[-36.41149361099991,-5.997422221999955,0.0],[-36.411493624999935,-5.997159422999914,0.0],[-36.40449944399995,-5.997159443999919,0.0],[-36.40449944399995,-6.004437777999954,0.0],[-36.43611249999992,-6.004437777999954,0.0],[-36.43611249999992,-5.997154166999906,0.0],[-36.4131730549999,-5.997154270999943,0.0]]]]}}]}