{"type":"FeatureCollection","features":[{"type":"Feature","properties":{"PROCESSO":"848241/2016","NUMERO":848241,"ANO":2016,"AREA_HA":650.41,"ID":"{A5890A86-69DF-47F2-8589-4F1B43823778}","FASE":"AUTORIZAÇÃO DE PESQUISA","ULT_EVENTO":"264 - AUT PESQ/TAH - PAGAMENTO EFETUADO EM 28/01/2026","NOME":"EMPROGEO LTDA","SUBS":"SCHEELITA","USO":"Industrial","UF":"RN","DSProcesso":"848.241/2016","Bloco":"Bloco Bonfim","layer":"bloco_bonfim","path":"C:\\Users\\UsrMina07\\Desktop\\GILMAR\\Projeto Bonfim\\05. Arquivos Gis\\07. Temporários\\bloco_bonfim.shp","ORDEM":67,"LATITUDE":-5.95839753,"LONGITUDE":-36.47479555},"geometry":{"type":"MultiPolygon","coordinates":[[[[-36.47926138899993,-5.942496935999941,0.0],[-36.47926138899993,-5.951341943999921,0.0],[-36.466667221999955,-5.951341943999921,0.0],[-36.466667221999955,-5.951538332999917,0.0],[-36.460345,-5.951538332999917,0.0],[-36.460345,-5.969622777999916,0.0],[-36.47931104199995,-5.969622959999924,0.0],[-36.47931107699992,-5.965256733999922,0.0],[-36.48924611099994,-5.965256730999954,0.0],[-36.48924608599992,-5.94701944399992,0.0],[-36.480214721999914,-5.94701944399992,0.0],[-36.480214652999905,-5.947018254999932,0.0],[-36.480214421999904,-5.942496949999907,0.0],[-36.47926138899993,-5.942496935999941,0.0]]]]}}]}