{"type":"FeatureCollection","features":[{"type":"Feature","properties":{"PROCESSO":"848227/2026","NUMERO":848227,"ANO":2026,"AREA_HA":1926.91,"ID":"{082980CD-2685-4D1D-865E-5C78BE99593A}","FASE":"REQUERIMENTO DE PESQUISA","ULT_EVENTO":"100 - REQ PESQ/REQUERIMENTO PESQUISA PROTOC EM 16/07/2026","NOME":"BRAZILIAN STRATEGIC MINERALS LTDA","SUBS":"SCHEELITA","USO":"Industrial","UF":"RN","DSProcesso":"848.227/2026","Bloco":null,"layer":"processo_50km","path":"C:\\Users\\UsrMina07\\Desktop\\GILMAR\\Projeto Bonfim\\05. Arquivos Gis\\07. Temporários\\processo_50km.shp|subset=\"SUBS\" IN (\r\n    'MINÉRIO DE TUNGSTÊNIO',\r\n    'TUNGSTÊNIO',\r\n    'SCHEELITA'\r\n)","ORDEM":47,"LATITUDE":-5.86905306,"LONGITUDE":-35.83338097},"geometry":{"type":"MultiPolygon","coordinates":[[[[-35.851271943999905,-5.89104,0.0],[-35.851271943999905,-5.847066110999947,0.0],[-35.81549,-5.847066110999947,0.0],[-35.81549,-5.89104,0.0],[-35.851271943999905,-5.89104,0.0]]]]}}]}