{"type":"FeatureCollection","features":[{"type":"Feature","properties":{"PROCESSO":"848141/2026","NUMERO":848141,"ANO":2026,"AREA_HA":1939.03,"ID":"{C9A1157B-8D8A-48C8-8747-370E4F78FE62}","FASE":"AUTORIZAÇÃO DE PESQUISA","ULT_EVENTO":"100 - REQ PESQ/REQUERIMENTO PESQUISA PROTOC EM 01/06/2026","NOME":"C A DE ASSUNCAO GEOMETRIC CONSULTORIA AMBIENTAL","SUBS":"MINÉRIO DE TUNGSTÊNIO","USO":"Industrial","UF":"RN","DSProcesso":"848.141/2026","Bloco":null,"layer":"processo_50km","path":"C:\\Users\\UsrMina07\\Desktop\\GILMAR\\Projeto Bonfim\\05. Arquivos Gis\\07. Temporários\\processo_50km.shp|subset=\"SUBS\" IN (\r\n    'MINÉRIO DE TUNGSTÊNIO',\r\n    'TUNGSTÊNIO',\r\n    'SCHEELITA'\r\n)","ORDEM":2,"LATITUDE":-5.59394758,"LONGITUDE":-36.59305972},"geometry":{"type":"MultiPolygon","coordinates":[[[[-36.612695,-5.574176,0.0],[-36.612695,-5.573316939999927,0.0],[-36.57347443999993,-5.573316939999927,0.0],[-36.57347443999993,-5.613719169999911,0.0],[-36.612645,-5.613719169999911,0.0],[-36.612645,-5.574176,0.0],[-36.612695,-5.574176,0.0]]]]}}]}