{"type":"FeatureCollection","features":[{"type":"Feature","properties":{"PROCESSO":"848133/2017","NUMERO":848133,"ANO":2017,"AREA_HA":999.74,"ID":"{DAAF485C-1369-4286-BCBD-56F3AB89C6C7}","FASE":"DIREITO DE REQUERER A LAVRA","ULT_EVENTO":"2210 - DIR REQ LAV/PRORROGAÇÃO PRAZO REQUERIMENTO LAVRA PROTOC EM 26/05/2026","NOME":"MINERADORA NOSSO SENHOR DO BONFIM LTDA","SUBS":"MINÉRIO DE OURO","USO":"Industrial","UF":"RN","DSProcesso":"848.133/2017","Bloco":"Bloco Bonfim","layer":"bloco_bonfim","path":"C:\\Users\\UsrMina07\\Desktop\\GILMAR\\Projeto Bonfim\\05. Arquivos Gis\\07. Temporários\\bloco_bonfim.shp","ORDEM":36,"LATITUDE":-5.8344,"LONGITUDE":-36.18893986},"geometry":{"type":"MultiPolygon","coordinates":[[[[-36.16903222199994,-5.8197,0.0],[-36.1749,-5.8197,0.0],[-36.1749,-5.8213,0.0],[-36.1777,-5.8213,0.0],[-36.1777,-5.8248,0.0],[-36.1794,-5.8248,0.0],[-36.1794,-5.844,0.0],[-36.1817,-5.844,0.0],[-36.1817,-5.858,0.0],[-36.198479721999945,-5.858,0.0],[-36.198479721999945,-5.819978055999911,0.0],[-36.18051,-5.819978055999911,0.0],[-36.18051,-5.810150277999924,0.0],[-36.16903222199994,-5.810150277999924,0.0],[-36.16903222199994,-5.8197,0.0]]]]}}]}