{"type":"FeatureCollection","features":[{"type":"Feature","properties":{"PROCESSO":"848600/2008","NUMERO":848600,"ANO":2008,"AREA_HA":49.97,"ID":"{C0ACBD9C-67F4-4920-93C1-F8A5F6E7ECB3}","FASE":"LAVRA GARIMPEIRA","ULT_EVENTO":"2117 - PLG/BAIXA TRANSCRIÇÃO PLG - LIBERADA PARA EDITAL EM 05/11/2019","NOME":"EIDER ANDRADE DE SOUSA","SUBS":"SCHEELITA","USO":"Industrial","UF":"RN","DSProcesso":"848.600/2008","Bloco":null,"layer":"processo_50km","path":"C:\\Users\\UsrMina07\\Desktop\\GILMAR\\Projeto Bonfim\\05. Arquivos Gis\\07. Temporários\\processo_50km.shp|subset=\"SUBS\" IN (\r\n    'MINÉRIO DE TUNGSTÊNIO',\r\n    'TUNGSTÊNIO',\r\n    'SCHEELITA'\r\n)","ORDEM":49,"LATITUDE":-5.87094806,"LONGITUDE":-36.11267908},"geometry":{"type":"MultiPolygon","coordinates":[[[[-36.11042259599992,-5.866427892999923,0.0],[-36.11042339599993,-5.875468242999943,0.0],[-36.11066441499992,-5.875468220999949,0.0],[-36.11066441499992,-5.875470743999927,0.0],[-36.114935164999906,-5.875470740999958,0.0],[-36.1149351599999,-5.866427889999954,0.0],[-36.11042259599992,-5.866427892999923,0.0]]]]}}]}